provider_name,address,PRVDR_NUM,state,zip,SRVY_DT,SRVY_CYC_CD,DFCNCY_TAG_NUM,tagcount_lastsurv,tagcount_complaint
TRILOGY HOME HEALTHCARE,10855 BOYETTE RD,103145,FL,33569,2019-02-15,Complaint,G-0608,,2.0
TRILOGY HOME HEALTHCARE,10855 BOYETTE RD,103145,FL,33569,2019-02-15,Complaint,G-0610,,2.0
BEST PCS LLC,1617 SE PORT ST LUCIE BLVD,103149,FL,34952,2019-01-02,Standard,G-0572,4.0,
BEST PCS LLC,1617 SE PORT ST LUCIE BLVD,103149,FL,34952,2019-01-02,Standard,G-0574,4.0,
BEST PCS LLC,1617 SE PORT ST LUCIE BLVD,103149,FL,34952,2019-01-02,Standard,G-0706,4.0,
BEST PCS LLC,1617 SE PORT ST LUCIE BLVD,103149,FL,34952,2019-01-02,Standard,G-0948,4.0,
MATRIX HOME CARE LLC,1421 OAKFIELD DRIVE,103161,FL,33511,2019-02-06,Standard,E-0004,4.0,
MATRIX HOME CARE LLC,1421 OAKFIELD DRIVE,103161,FL,33511,2019-02-06,Standard,G-0412,4.0,
MATRIX HOME CARE LLC,1421 OAKFIELD DRIVE,103161,FL,33511,2019-02-06,Standard,G-0478,4.0,
MATRIX HOME CARE LLC,1421 OAKFIELD DRIVE,103161,FL,33511,2019-02-06,Standard,G-0682,4.0,
SENIOR HEARTS HOME HEALTH AGENCY,4400 N FEDERAL HWY STE 32,103163,FL,33431,2019-01-23,Complaint,G-0590,,2.0
SENIOR HEARTS HOME HEALTH AGENCY,4400 N FEDERAL HWY STE 32,103163,FL,33431,2019-01-23,Complaint,G-0962,,2.0
SOUTH FLORIDA PEDIATRIC HOMECARE INC,5793 NW 151ST ST UNIT 5793B,103176,FL,33014,2019-01-30,Standard,E-0006,17.0,
SOUTH FLORIDA PEDIATRIC HOMECARE INC,5793 NW 151ST ST UNIT 5793B,103176,FL,33014,2019-01-30,Standard,E-0009,17.0,
SOUTH FLORIDA PEDIATRIC HOMECARE INC,5793 NW 151ST ST UNIT 5793B,103176,FL,33014,2019-01-30,Standard,E-0021,17.0,
SOUTH FLORIDA PEDIATRIC HOMECARE INC,5793 NW 151ST ST UNIT 5793B,103176,FL,33014,2019-01-30,Standard,E-0023,17.0,
SOUTH FLORIDA PEDIATRIC HOMECARE INC,5793 NW 151ST ST UNIT 5793B,103176,FL,33014,2019-01-30,Standard,E-0024,17.0,
SOUTH FLORIDA PEDIATRIC HOMECARE INC,5793 NW 151ST ST UNIT 5793B,103176,FL,33014,2019-01-30,Standard,E-0032,17.0,
SOUTH FLORIDA PEDIATRIC HOMECARE INC,5793 NW 151ST ST UNIT 5793B,103176,FL,33014,2019-01-30,Standard,E-0037,17.0,
SOUTH FLORIDA PEDIATRIC HOMECARE INC,5793 NW 151ST ST UNIT 5793B,103176,FL,33014,2019-01-30,Standard,E-0039,17.0,
SOUTH FLORIDA PEDIATRIC HOMECARE INC,5793 NW 151ST ST UNIT 5793B,103176,FL,33014,2019-01-30,Standard,G-0546,17.0,
SOUTH FLORIDA PEDIATRIC HOMECARE INC,5793 NW 151ST ST UNIT 5793B,103176,FL,33014,2019-01-30,Standard,G-0574,17.0,
SOUTH FLORIDA PEDIATRIC HOMECARE INC,5793 NW 151ST ST UNIT 5793B,103176,FL,33014,2019-01-30,Standard,G-0578,17.0,
SOUTH FLORIDA PEDIATRIC HOMECARE INC,5793 NW 151ST ST UNIT 5793B,103176,FL,33014,2019-01-30,Standard,G-0710,17.0,
SOUTH FLORIDA PEDIATRIC HOMECARE INC,5793 NW 151ST ST UNIT 5793B,103176,FL,33014,2019-01-30,Standard,G-0768,17.0,
SOUTH FLORIDA PEDIATRIC HOMECARE INC,5793 NW 151ST ST UNIT 5793B,103176,FL,33014,2019-01-30,Standard,G-0812,17.0,
SOUTH FLORIDA PEDIATRIC HOMECARE INC,5793 NW 151ST ST UNIT 5793B,103176,FL,33014,2019-01-30,Standard,G-0968,17.0,
SOUTH FLORIDA PEDIATRIC HOMECARE INC,5793 NW 151ST ST UNIT 5793B,103176,FL,33014,2019-01-30,Standard,G-1012,17.0,
SOUTH FLORIDA PEDIATRIC HOMECARE INC,5793 NW 151ST ST UNIT 5793B,103176,FL,33014,2019-01-30,Standard,G-1024,17.0,
PREFERRED TOUCH HOME CARE INC,510 VONDERBURG DR STE 308,103180,FL,33511,2018-10-26,Complaint,G-0570,,3.0
PREFERRED TOUCH HOME CARE INC,510 VONDERBURG DR STE 308,103180,FL,33511,2018-10-26,Complaint,G-0572,,3.0
PREFERRED TOUCH HOME CARE INC,510 VONDERBURG DR STE 308,103180,FL,33511,2018-10-26,Complaint,G-0590,,3.0
HATS HOME HEALTH NURSING SERVICES LLC,3100 S CONGRESS AVE UNIT 1,103189,FL,33426,2019-04-16,Complaint,G-1014,,3.0
HATS HOME HEALTH NURSING SERVICES LLC,3100 S CONGRESS AVE UNIT 1,103189,FL,33426,2019-04-16,Complaint,G-1024,,3.0
HATS HOME HEALTH NURSING SERVICES LLC,3100 S CONGRESS AVE UNIT 1,103189,FL,33426,2019-04-16,Complaint,G-1028,,3.0
AMERIVITA HOME CARE INC,13340 W COLONIAL DR STE 240,103192,FL,34787,2018-03-15,Complaint,G-0374,,5.0
AMERIVITA HOME CARE INC,13340 W COLONIAL DR STE 240,103192,FL,34787,2018-03-15,Complaint,G-0514,,5.0
AMERIVITA HOME CARE INC,13340 W COLONIAL DR STE 240,103192,FL,34787,2018-03-15,Complaint,G-0584,,5.0
AMERIVITA HOME CARE INC,13340 W COLONIAL DR STE 240,103192,FL,34787,2018-03-15,Complaint,G-0590,,5.0
AMERIVITA HOME CARE INC,13340 W COLONIAL DR STE 240,103192,FL,34787,2018-03-15,Complaint,G-0952,,5.0
MUNROE REGIONAL HOMECARE LLC,2201 SE 30TH AVENUE SUITE 301,107009,FL,34474,2017-08-03,Standard,G-0574,1.0,
KINDRED AT HOME,4511 N HIMES AVE STE 240,107017,FL,33614,2016-09-28,Standard,G-0153,7.0,
KINDRED AT HOME,4511 N HIMES AVE STE 240,107017,FL,33614,2016-09-28,Standard,G-0179,7.0,
KINDRED AT HOME,4511 N HIMES AVE STE 240,107017,FL,33614,2016-09-28,Standard,G-0580,7.0,
KINDRED AT HOME,4511 N HIMES AVE STE 240,107017,FL,33614,2016-09-28,Standard,G-0582,7.0,
KINDRED AT HOME,4511 N HIMES AVE STE 240,107017,FL,33614,2016-09-28,Standard,G-0590,7.0,
KINDRED AT HOME,4511 N HIMES AVE STE 240,107017,FL,33614,2016-09-28,Standard,G-0948,7.0,
KINDRED AT HOME,4511 N HIMES AVE STE 240,107017,FL,33614,2016-09-28,Standard,G-1022,7.0,
MEDERI CARETENDERS,1285 36TH ST STE 201,107036,FL,32960,2017-01-06,Standard,G-0158,5.0,
MEDERI CARETENDERS,1285 36TH ST STE 201,107036,FL,32960,2017-01-06,Standard,G-0580,5.0,
MEDERI CARETENDERS,1285 36TH ST STE 201,107036,FL,32960,2017-01-06,Standard,G-0582,5.0,
MEDERI CARETENDERS,1285 36TH ST STE 201,107036,FL,32960,2017-01-06,Standard,G-0606,5.0,
MEDERI CARETENDERS,1285 36TH ST STE 201,107036,FL,32960,2017-01-06,Standard,G-0808,5.0,
"MEDCARE HOME HEALTH SERVICES, INC.",760 PONCE DE LEON BLVD   STE 102,107117,FL,33134,2018-11-27,Complaint,G-0574,,3.0
"MEDCARE HOME HEALTH SERVICES, INC.",760 PONCE DE LEON BLVD   STE 102,107117,FL,33134,2018-11-27,Complaint,G-0578,,3.0
"MEDCARE HOME HEALTH SERVICES, INC.",760 PONCE DE LEON BLVD   STE 102,107117,FL,33134,2018-11-27,Complaint,G-0710,,3.0
KINDRED AT HOME,2601 CATTLEMEN RD STE 102,107132,FL,34232,2017-03-30,Standard,G-0145,7.0,
KINDRED AT HOME,2601 CATTLEMEN RD STE 102,107132,FL,34232,2017-03-30,Standard,G-0158,7.0,
KINDRED AT HOME,2601 CATTLEMEN RD STE 102,107132,FL,34232,2017-03-30,Standard,G-0303,7.0,
KINDRED AT HOME,2601 CATTLEMEN RD STE 102,107132,FL,34232,2017-03-30,Standard,G-0536,7.0,
KINDRED AT HOME,2601 CATTLEMEN RD STE 102,107132,FL,34232,2017-03-30,Standard,G-0606,7.0,
KINDRED AT HOME,2601 CATTLEMEN RD STE 102,107132,FL,34232,2017-03-30,Standard,G-0808,7.0,
KINDRED AT HOME,2601 CATTLEMEN RD STE 102,107132,FL,34232,2017-03-30,Standard,G-1022,7.0,
KINDRED AT HOME,101 RIVERFRONT BLVD STE 400,107136,FL,34205,2018-05-31,Standard,G-0412,6.0,
KINDRED AT HOME,101 RIVERFRONT BLVD STE 400,107136,FL,34205,2018-05-31,Standard,G-0528,6.0,
KINDRED AT HOME,101 RIVERFRONT BLVD STE 400,107136,FL,34205,2018-05-31,Standard,G-0536,6.0,
KINDRED AT HOME,101 RIVERFRONT BLVD STE 400,107136,FL,34205,2018-05-31,Standard,G-0590,6.0,
KINDRED AT HOME,101 RIVERFRONT BLVD STE 400,107136,FL,34205,2018-05-31,Standard,G-0710,6.0,
KINDRED AT HOME,101 RIVERFRONT BLVD STE 400,107136,FL,34205,2018-05-31,Standard,G-0718,6.0,
COMMUNITY HOME HEALTH CARE,3440 US HIGHWAY 1 S STE 403,107159,FL,32086,2018-09-12,Standard,E-0004,8.0,
COMMUNITY HOME HEALTH CARE,3440 US HIGHWAY 1 S STE 403,107159,FL,32086,2018-09-12,Standard,E-0037,8.0,
COMMUNITY HOME HEALTH CARE,3440 US HIGHWAY 1 S STE 403,107159,FL,32086,2018-09-12,Standard,G-0442,8.0,
COMMUNITY HOME HEALTH CARE,3440 US HIGHWAY 1 S STE 403,107159,FL,32086,2018-09-12,Standard,G-0536,8.0,
COMMUNITY HOME HEALTH CARE,3440 US HIGHWAY 1 S STE 403,107159,FL,32086,2018-09-12,Standard,G-0710,8.0,
COMMUNITY HOME HEALTH CARE,3440 US HIGHWAY 1 S STE 403,107159,FL,32086,2018-09-12,Standard,G-0804,8.0,
COMMUNITY HOME HEALTH CARE,3440 US HIGHWAY 1 S STE 403,107159,FL,32086,2018-09-12,Standard,G-0808,8.0,
COMMUNITY HOME HEALTH CARE,3440 US HIGHWAY 1 S STE 403,107159,FL,32086,2018-09-12,Standard,G-1010,8.0,
KINDRED AT HOME,380 PARK PLACE BLVD STE 100,107171,FL,33759,2018-05-11,Standard,G-0466,3.0,
KINDRED AT HOME,380 PARK PLACE BLVD STE 100,107171,FL,33759,2018-05-11,Standard,G-0590,3.0,
KINDRED AT HOME,380 PARK PLACE BLVD STE 100,107171,FL,33759,2018-05-11,Standard,G-0616,3.0,
VISITING NURSE ASSOCIATION OF FLORIDA INC,2400 SE MONTEREY RD  STE 300,107177,FL,34996,2017-10-27,Standard,G-0141,3.0,
VISITING NURSE ASSOCIATION OF FLORIDA INC,2400 SE MONTEREY RD  STE 300,107177,FL,34996,2017-10-27,Standard,G-0250,3.0,
VISITING NURSE ASSOCIATION OF FLORIDA INC,2400 SE MONTEREY RD  STE 300,107177,FL,34996,2017-10-27,Standard,G-0726,3.0,
INTERIM HEALTHCARE GULF COAST INC,1940 DREW ST STE A,107223,FL,33765,2018-04-13,Standard,G-0710,1.0,
KINDRED AT HOME,4776 NEW BROAD ST STE 110,107234,FL,32814,2019-01-10,Standard,G-0710,1.0,
INTERIM HEALTHCARE GULF COAST INC,2511 W COLUMBUS DR,107243,FL,33607,2018-06-22,Standard,G-0536,2.0,
INTERIM HEALTHCARE GULF COAST INC,2511 W COLUMBUS DR,107243,FL,33607,2018-06-22,Standard,G-0660,2.0,
INTERIM HEALTHCARE OF GREATER ORLANDO,1890 STATE ROAD 436 STE 355,107245,FL,32792,2017-02-10,Standard,G-0158,2.0,
INTERIM HEALTHCARE OF GREATER ORLANDO,1890 STATE ROAD 436 STE 355,107245,FL,32792,2017-02-10,Standard,G-0606,2.0,
INTERIM HEALTHCARE OF ST AUGUSTINE,3440 US 1 SOUTH SUITE 404,107264,FL,32086,2018-11-08,Standard,G-0374,6.0,
INTERIM HEALTHCARE OF ST AUGUSTINE,3440 US 1 SOUTH SUITE 404,107264,FL,32086,2018-11-08,Standard,G-0572,6.0,
INTERIM HEALTHCARE OF ST AUGUSTINE,3440 US 1 SOUTH SUITE 404,107264,FL,32086,2018-11-08,Standard,G-0578,6.0,
INTERIM HEALTHCARE OF ST AUGUSTINE,3440 US 1 SOUTH SUITE 404,107264,FL,32086,2018-11-08,Standard,G-0590,6.0,
INTERIM HEALTHCARE OF ST AUGUSTINE,3440 US 1 SOUTH SUITE 404,107264,FL,32086,2018-11-08,Standard,G-0602,6.0,
INTERIM HEALTHCARE OF ST AUGUSTINE,3440 US 1 SOUTH SUITE 404,107264,FL,32086,2018-11-08,Standard,G-1012,6.0,
BAYCARE HOME CARE INC,20 LAKE WIRE DR STE 230,107282,FL,33815,2017-06-30,Standard,G-0158,1.0,
KINDRED AT HOME,350 CORPORATE WAY STE 250,107290,FL,32073,2017-02-23,Standard,G-0153,4.0,
KINDRED AT HOME,350 CORPORATE WAY STE 250,107290,FL,32073,2017-02-23,Standard,G-0158,4.0,
KINDRED AT HOME,350 CORPORATE WAY STE 250,107290,FL,32073,2017-02-23,Standard,G-0606,4.0,
KINDRED AT HOME,350 CORPORATE WAY STE 250,107290,FL,32073,2017-02-23,Standard,G-1022,4.0,
NHC HOMECARE,1617 WEST HWY 98 STE E-2,107326,FL,32322,2018-03-22,Standard,G-0572,4.0,
NHC HOMECARE,1617 WEST HWY 98 STE E-2,107326,FL,32322,2018-03-22,Standard,G-0590,4.0,
NHC HOMECARE,1617 WEST HWY 98 STE E-2,107326,FL,32322,2018-03-22,Standard,G-0718,4.0,
NHC HOMECARE,1617 WEST HWY 98 STE E-2,107326,FL,32322,2018-03-22,Standard,G-0808,4.0,
KINDRED AT HOME,1717 N CLYDE MORRIS BLVD STE 140,107338,FL,32117,2018-03-22,Standard,G-0484,4.0,1.0
KINDRED AT HOME,1717 N CLYDE MORRIS BLVD STE 140,107338,FL,32117,2018-03-22,Standard,G-0572,4.0,1.0
KINDRED AT HOME,1717 N CLYDE MORRIS BLVD STE 140,107338,FL,32117,2018-03-22,Standard,G-0590,4.0,1.0
KINDRED AT HOME,1717 N CLYDE MORRIS BLVD STE 140,107338,FL,32117,2018-03-22,Standard,G-0682,4.0,1.0
KINDRED AT HOME,1717 N CLYDE MORRIS BLVD STE 140,107338,FL,32117,2019-04-18,Complaint,G-0476,,1.0
MEDERI CARETENDERS,4 HARVARD CIRCLE STE 950,107341,FL,33409,2018-03-01,Standard,G-0580,5.0,
MEDERI CARETENDERS,4 HARVARD CIRCLE STE 950,107341,FL,33409,2018-03-01,Standard,G-0590,5.0,
MEDERI CARETENDERS,4 HARVARD CIRCLE STE 950,107341,FL,33409,2018-03-01,Standard,G-0754,5.0,
MEDERI CARETENDERS,4 HARVARD CIRCLE STE 950,107341,FL,33409,2018-03-01,Standard,G-0808,5.0,
MEDERI CARETENDERS,4 HARVARD CIRCLE STE 950,107341,FL,33409,2018-03-01,Standard,G-0952,5.0,
NHC HOMECARE,1513 HIGHWAY 90,107372,FL,32428,2018-05-03,Standard,G-0578,3.0,
NHC HOMECARE,1513 HIGHWAY 90,107372,FL,32428,2018-05-03,Standard,G-0702,3.0,
NHC HOMECARE,1513 HIGHWAY 90,107372,FL,32428,2018-05-03,Standard,G-0710,3.0,
KINDRED AT HOME,2080 W EAU GALLIE BLVD STE B,107383,FL,32935,2016-09-29,Standard,G-0153,6.0,
KINDRED AT HOME,2080 W EAU GALLIE BLVD STE B,107383,FL,32935,2016-09-29,Standard,G-0158,6.0,
KINDRED AT HOME,2080 W EAU GALLIE BLVD STE B,107383,FL,32935,2016-09-29,Standard,G-0176,6.0,
KINDRED AT HOME,2080 W EAU GALLIE BLVD STE B,107383,FL,32935,2016-09-29,Standard,G-0440,6.0,
KINDRED AT HOME,2080 W EAU GALLIE BLVD STE B,107383,FL,32935,2016-09-29,Standard,G-0514,6.0,
KINDRED AT HOME,2080 W EAU GALLIE BLVD STE B,107383,FL,32935,2016-09-29,Standard,G-0984,6.0,
BAYCARE HOME CARE INC,1450 E NORTH BLVD UNITS 8 & 9,107398,FL,34748,2018-05-17,Complaint,G-0436,,2.0
BAYCARE HOME CARE INC,1450 E NORTH BLVD UNITS 8 & 9,107398,FL,34748,2018-05-17,Complaint,G-0550,,2.0
MED-CARE HOME HEALTH SERVICES INC.,100 NW 82ND AVE STE 302,107399,FL,33324,2019-01-14,Complaint,G-0460,,3.0
MED-CARE HOME HEALTH SERVICES INC.,100 NW 82ND AVE STE 302,107399,FL,33324,2019-01-14,Complaint,G-0550,,3.0
MED-CARE HOME HEALTH SERVICES INC.,100 NW 82ND AVE STE 302,107399,FL,33324,2019-01-14,Complaint,G-0572,,3.0
MEDERI CARETENDERS,6150 DIAMOND CENTER CT STE A,107406,FL,33912,2019-01-10,Standard,G-0536,3.0,
MEDERI CARETENDERS,6150 DIAMOND CENTER CT STE A,107406,FL,33912,2019-01-10,Standard,G-0578,3.0,
MEDERI CARETENDERS,6150 DIAMOND CENTER CT STE A,107406,FL,33912,2019-01-10,Standard,G-0590,3.0,
ADVENTHEALTH HOME CARE EAST FLORIDA,770 W GRANADA BLVD STE 319,107408,FL,32174,2017-07-13,Standard,G-0158,8.0,
ADVENTHEALTH HOME CARE EAST FLORIDA,770 W GRANADA BLVD STE 319,107408,FL,32174,2017-07-13,Standard,G-0170,8.0,
ADVENTHEALTH HOME CARE EAST FLORIDA,770 W GRANADA BLVD STE 319,107408,FL,32174,2017-07-13,Standard,G-0182,8.0,
ADVENTHEALTH HOME CARE EAST FLORIDA,770 W GRANADA BLVD STE 319,107408,FL,32174,2017-07-13,Standard,G-0185,8.0,
ADVENTHEALTH HOME CARE EAST FLORIDA,770 W GRANADA BLVD STE 319,107408,FL,32174,2017-07-13,Standard,G-0536,8.0,
ADVENTHEALTH HOME CARE EAST FLORIDA,770 W GRANADA BLVD STE 319,107408,FL,32174,2017-07-13,Standard,G-0590,8.0,
ADVENTHEALTH HOME CARE EAST FLORIDA,770 W GRANADA BLVD STE 319,107408,FL,32174,2017-07-13,Standard,G-0606,8.0,
ADVENTHEALTH HOME CARE EAST FLORIDA,770 W GRANADA BLVD STE 319,107408,FL,32174,2017-07-13,Standard,G-0730,8.0,
BAYCARE HOME CARE INC,601 MAIN STREET 8TH FLOOR,107415,FL,34698,2017-04-14,Standard,G-0580,2.0,
BAYCARE HOME CARE INC,601 MAIN STREET 8TH FLOOR,107415,FL,34698,2017-04-14,Standard,G-0582,2.0,
MEDERI CARETENDERS,1167 MIRANDA LANE,107422,FL,34741,2019-04-18,Complaint,G-0550,,3.0
MEDERI CARETENDERS,1167 MIRANDA LANE,107422,FL,34741,2019-04-18,Complaint,G-0572,,3.0
MEDERI CARETENDERS,1167 MIRANDA LANE,107422,FL,34741,2019-04-18,Complaint,G-0590,,3.0
WELCOME HOMECARE,9570 REGENCY SQUARE BLVD,107436,FL,32225,2019-01-31,Standard,G-0374,5.0,
WELCOME HOMECARE,9570 REGENCY SQUARE BLVD,107436,FL,32225,2019-01-31,Standard,G-0536,5.0,
WELCOME HOMECARE,9570 REGENCY SQUARE BLVD,107436,FL,32225,2019-01-31,Standard,G-0590,5.0,
WELCOME HOMECARE,9570 REGENCY SQUARE BLVD,107436,FL,32225,2019-01-31,Standard,G-0592,5.0,
WELCOME HOMECARE,9570 REGENCY SQUARE BLVD,107436,FL,32225,2019-01-31,Standard,G-0608,5.0,
MEMORIAL HOME HEALTH SERVICES,7029 TAFT ST,107444,FL,33024,2017-03-30,Standard,G-0158,1.0,
"H & M HEALTH SERVICES, INC.",4125 HOLLYWOOD BLVD,107455,FL,33021,2016-12-14,Standard,G-0158,5.0,
"H & M HEALTH SERVICES, INC.",4125 HOLLYWOOD BLVD,107455,FL,33021,2016-12-14,Standard,G-0176,5.0,
"H & M HEALTH SERVICES, INC.",4125 HOLLYWOOD BLVD,107455,FL,33021,2016-12-14,Standard,G-0574,5.0,
"H & M HEALTH SERVICES, INC.",4125 HOLLYWOOD BLVD,107455,FL,33021,2016-12-14,Standard,G-0580,5.0,
"H & M HEALTH SERVICES, INC.",4125 HOLLYWOOD BLVD,107455,FL,33021,2016-12-14,Standard,G-0582,5.0,
NURSECORE OF FORT MYERS,"4350 FOWLER ST, STE 4",107461,FL,33901,2016-12-08,Standard,G-0145,5.0,
NURSECORE OF FORT MYERS,"4350 FOWLER ST, STE 4",107461,FL,33901,2016-12-08,Standard,G-0172,5.0,
NURSECORE OF FORT MYERS,"4350 FOWLER ST, STE 4",107461,FL,33901,2016-12-08,Standard,G-0536,5.0,
NURSECORE OF FORT MYERS,"4350 FOWLER ST, STE 4",107461,FL,33901,2016-12-08,Standard,G-0574,5.0,
NURSECORE OF FORT MYERS,"4350 FOWLER ST, STE 4",107461,FL,33901,2016-12-08,Standard,G-0606,5.0,
APEX HOME HEALTHCARE,155 BLANDING BLVD STE 1,107492,FL,32073,2018-01-10,Standard,G-0158,3.0,
APEX HOME HEALTHCARE,155 BLANDING BLVD STE 1,107492,FL,32073,2018-01-10,Standard,G-0590,3.0,
APEX HOME HEALTHCARE,155 BLANDING BLVD STE 1,107492,FL,32073,2018-01-10,Standard,G-0606,3.0,
GOOD SAMARITAN CARES,1543 ALDERSGATE DRIVE,107509,FL,34746,2018-04-04,Standard,G-0702,1.0,
NHC HOMECARE,946 16TH PLACE,107515,FL,32960,2017-05-24,Standard,G-0158,5.0,
NHC HOMECARE,946 16TH PLACE,107515,FL,32960,2017-05-24,Standard,G-0580,5.0,
NHC HOMECARE,946 16TH PLACE,107515,FL,32960,2017-05-24,Standard,G-0582,5.0,
NHC HOMECARE,946 16TH PLACE,107515,FL,32960,2017-05-24,Standard,G-0584,5.0,
NHC HOMECARE,946 16TH PLACE,107515,FL,32960,2017-05-24,Standard,G-0984,5.0,
KINDRED AT HOME,1800 W WOOLBRIGHT RD STE 200,107526,FL,33426,2017-02-09,Standard,G-0141,1.0,
JOHN KNOX VILLAGE OF CENTRAL FLORIDA INC,101 NORTHLAKE DRIVE,107530,FL,32763,2017-06-01,Standard,G-0153,4.0,
JOHN KNOX VILLAGE OF CENTRAL FLORIDA INC,101 NORTHLAKE DRIVE,107530,FL,32763,2017-06-01,Standard,G-0245,4.0,
JOHN KNOX VILLAGE OF CENTRAL FLORIDA INC,101 NORTHLAKE DRIVE,107530,FL,32763,2017-06-01,Standard,G-0476,4.0,
JOHN KNOX VILLAGE OF CENTRAL FLORIDA INC,101 NORTHLAKE DRIVE,107530,FL,32763,2017-06-01,Standard,G-0590,4.0,
MEDERI CARETENDERS,50 SOUTH BELCHER ROAD STE 112,107539,FL,33765,2017-05-10,Standard,G-0158,1.0,
MOUNT AUBURN HOME HEALTH,5790 NW 72ND AVE,107542,FL,33166,2019-03-08,Standard,E-0006,5.0,
MOUNT AUBURN HOME HEALTH,5790 NW 72ND AVE,107542,FL,33166,2019-03-08,Standard,E-0013,5.0,
MOUNT AUBURN HOME HEALTH,5790 NW 72ND AVE,107542,FL,33166,2019-03-08,Standard,G-0446,5.0,
MOUNT AUBURN HOME HEALTH,5790 NW 72ND AVE,107542,FL,33166,2019-03-08,Standard,G-0536,5.0,
MOUNT AUBURN HOME HEALTH,5790 NW 72ND AVE,107542,FL,33166,2019-03-08,Standard,G-1012,5.0,
ENCOMPASS HEALTH HOME HEALTH OF JUPITER MEDICAL CE,140 INTRACOASTAL POINTE DR STE 205,107544,FL,33477,2019-04-18,Complaint,G-0590,,1.0
KINDRED AT HOME,970 KINGS HIGHWAY STE 2,107547,FL,33980,2019-03-07,Standard,G-0418,5.0,
KINDRED AT HOME,970 KINGS HIGHWAY STE 2,107547,FL,33980,2019-03-07,Standard,G-0484,5.0,
KINDRED AT HOME,970 KINGS HIGHWAY STE 2,107547,FL,33980,2019-03-07,Standard,G-0536,5.0,
KINDRED AT HOME,970 KINGS HIGHWAY STE 2,107547,FL,33980,2019-03-07,Standard,G-0682,5.0,
KINDRED AT HOME,970 KINGS HIGHWAY STE 2,107547,FL,33980,2019-03-07,Standard,G-1014,5.0,
QUALITY OF LIFE HOME CARE SERVICES,7823 N DALE MABRY HWY STE 107,107572,FL,33614,2017-03-03,Standard,G-0145,7.0,
QUALITY OF LIFE HOME CARE SERVICES,7823 N DALE MABRY HWY STE 107,107572,FL,33614,2017-03-03,Standard,G-0170,7.0,
QUALITY OF LIFE HOME CARE SERVICES,7823 N DALE MABRY HWY STE 107,107572,FL,33614,2017-03-03,Standard,G-0175,7.0,
QUALITY OF LIFE HOME CARE SERVICES,7823 N DALE MABRY HWY STE 107,107572,FL,33614,2017-03-03,Standard,G-0186,7.0,
QUALITY OF LIFE HOME CARE SERVICES,7823 N DALE MABRY HWY STE 107,107572,FL,33614,2017-03-03,Standard,G-0434,7.0,
QUALITY OF LIFE HOME CARE SERVICES,7823 N DALE MABRY HWY STE 107,107572,FL,33614,2017-03-03,Standard,G-0590,7.0,
QUALITY OF LIFE HOME CARE SERVICES,7823 N DALE MABRY HWY STE 107,107572,FL,33614,2017-03-03,Standard,G-0606,7.0,
KINDRED AT HOME,525 NW LAKE WHITNEY PL STE 106,107586,FL,34986,2017-01-12,Standard,G-0158,3.0,
KINDRED AT HOME,525 NW LAKE WHITNEY PL STE 106,107586,FL,34986,2017-01-12,Standard,G-0590,3.0,
KINDRED AT HOME,525 NW LAKE WHITNEY PL STE 106,107586,FL,34986,2017-01-12,Standard,G-0808,3.0,
NHC HOMECARE,2395 N COURTENAY PKWY STE 101,107592,FL,32953,2018-06-20,Standard,G-0580,3.0,
NHC HOMECARE,2395 N COURTENAY PKWY STE 101,107592,FL,32953,2018-06-20,Standard,G-0590,3.0,
NHC HOMECARE,2395 N COURTENAY PKWY STE 101,107592,FL,32953,2018-06-20,Standard,G-0608,3.0,
MEDERI CARETENDERS,4923 NW 43RD ST STE A,107602,FL,32653,2017-08-30,Standard,G-0158,1.0,
OASIS HOME CARE INC,1511 PROSPERITY FARMS RD STE 300,107606,FL,33403,2019-01-28,Complaint,G-0598,,1.0
VISITING NURSE ASSOCIATION OF FLORIDA INC,10177 CORTEZ BLVD,107609,FL,34613,2018-01-19,Standard,G-0158,1.0,
"FIRST QUALITY HOME CARE, INC.",8700 W FLAGLER ST STE 200,107617,FL,33174,2018-01-11,Standard,E-0037,2.0,
"FIRST QUALITY HOME CARE, INC.",8700 W FLAGLER ST STE 200,107617,FL,33174,2018-01-11,Standard,G-1022,2.0,
VNA SPACE COAST INC,1600 SARNO ROAD SUITE 201,107632,FL,32935,2017-03-16,Standard,G-0444,1.0,
FAITH HOME HEALTH INC,4554 CENTRAL AVE UNIT D,107636,FL,33711,2017-04-20,Standard,G-0158,3.0,
FAITH HOME HEALTH INC,4554 CENTRAL AVE UNIT D,107636,FL,33711,2017-04-20,Standard,G-0161,3.0,
FAITH HOME HEALTH INC,4554 CENTRAL AVE UNIT D,107636,FL,33711,2017-04-20,Standard,G-0606,3.0,
"INTERNATIONAL HOME CARE SERVICES, INC",11440 SW 88TH ST STE 403,107640,FL,33176,2018-05-03,Standard,E-0001,42.0,
"INTERNATIONAL HOME CARE SERVICES, INC",11440 SW 88TH ST STE 403,107640,FL,33176,2018-05-03,Standard,E-0006,42.0,
"INTERNATIONAL HOME CARE SERVICES, INC",11440 SW 88TH ST STE 403,107640,FL,33176,2018-05-03,Standard,E-0007,42.0,
"INTERNATIONAL HOME CARE SERVICES, INC",11440 SW 88TH ST STE 403,107640,FL,33176,2018-05-03,Standard,E-0009,42.0,
"INTERNATIONAL HOME CARE SERVICES, INC",11440 SW 88TH ST STE 403,107640,FL,33176,2018-05-03,Standard,E-0013,42.0,
"INTERNATIONAL HOME CARE SERVICES, INC",11440 SW 88TH ST STE 403,107640,FL,33176,2018-05-03,Standard,E-0019,42.0,
"INTERNATIONAL HOME CARE SERVICES, INC",11440 SW 88TH ST STE 403,107640,FL,33176,2018-05-03,Standard,E-0021,42.0,
"INTERNATIONAL HOME CARE SERVICES, INC",11440 SW 88TH ST STE 403,107640,FL,33176,2018-05-03,Standard,E-0023,42.0,
"INTERNATIONAL HOME CARE SERVICES, INC",11440 SW 88TH ST STE 403,107640,FL,33176,2018-05-03,Standard,E-0029,42.0,
"INTERNATIONAL HOME CARE SERVICES, INC",11440 SW 88TH ST STE 403,107640,FL,33176,2018-05-03,Standard,E-0031,42.0,
"INTERNATIONAL HOME CARE SERVICES, INC",11440 SW 88TH ST STE 403,107640,FL,33176,2018-05-03,Standard,E-0032,42.0,
"INTERNATIONAL HOME CARE SERVICES, INC",11440 SW 88TH ST STE 403,107640,FL,33176,2018-05-03,Standard,E-0034,42.0,
"INTERNATIONAL HOME CARE SERVICES, INC",11440 SW 88TH ST STE 403,107640,FL,33176,2018-05-03,Standard,E-0036,42.0,
"INTERNATIONAL HOME CARE SERVICES, INC",11440 SW 88TH ST STE 403,107640,FL,33176,2018-05-03,Standard,E-0037,42.0,
"INTERNATIONAL HOME CARE SERVICES, INC",11440 SW 88TH ST STE 403,107640,FL,33176,2018-05-03,Standard,E-0039,42.0,
"INTERNATIONAL HOME CARE SERVICES, INC",11440 SW 88TH ST STE 403,107640,FL,33176,2018-05-03,Standard,G-0370,42.0,
"INTERNATIONAL HOME CARE SERVICES, INC",11440 SW 88TH ST STE 403,107640,FL,33176,2018-05-03,Standard,G-0372,42.0,
"INTERNATIONAL HOME CARE SERVICES, INC",11440 SW 88TH ST STE 403,107640,FL,33176,2018-05-03,Standard,G-0414,42.0,
"INTERNATIONAL HOME CARE SERVICES, INC",11440 SW 88TH ST STE 403,107640,FL,33176,2018-05-03,Standard,G-0446,42.0,
"INTERNATIONAL HOME CARE SERVICES, INC",11440 SW 88TH ST STE 403,107640,FL,33176,2018-05-03,Standard,G-0510,42.0,
"INTERNATIONAL HOME CARE SERVICES, INC",11440 SW 88TH ST STE 403,107640,FL,33176,2018-05-03,Standard,G-0536,42.0,
"INTERNATIONAL HOME CARE SERVICES, INC",11440 SW 88TH ST STE 403,107640,FL,33176,2018-05-03,Standard,G-0546,42.0,
"INTERNATIONAL HOME CARE SERVICES, INC",11440 SW 88TH ST STE 403,107640,FL,33176,2018-05-03,Standard,G-0548,42.0,
"INTERNATIONAL HOME CARE SERVICES, INC",11440 SW 88TH ST STE 403,107640,FL,33176,2018-05-03,Standard,G-0550,42.0,
"INTERNATIONAL HOME CARE SERVICES, INC",11440 SW 88TH ST STE 403,107640,FL,33176,2018-05-03,Standard,G-0574,42.0,
"INTERNATIONAL HOME CARE SERVICES, INC",11440 SW 88TH ST STE 403,107640,FL,33176,2018-05-03,Standard,G-0582,42.0,
"INTERNATIONAL HOME CARE SERVICES, INC",11440 SW 88TH ST STE 403,107640,FL,33176,2018-05-03,Standard,G-0606,42.0,
"INTERNATIONAL HOME CARE SERVICES, INC",11440 SW 88TH ST STE 403,107640,FL,33176,2018-05-03,Standard,G-0622,42.0,
"INTERNATIONAL HOME CARE SERVICES, INC",11440 SW 88TH ST STE 403,107640,FL,33176,2018-05-03,Standard,G-0710,42.0,
"INTERNATIONAL HOME CARE SERVICES, INC",11440 SW 88TH ST STE 403,107640,FL,33176,2018-05-03,Standard,G-0724,42.0,
"INTERNATIONAL HOME CARE SERVICES, INC",11440 SW 88TH ST STE 403,107640,FL,33176,2018-05-03,Standard,G-0726,42.0,
"INTERNATIONAL HOME CARE SERVICES, INC",11440 SW 88TH ST STE 403,107640,FL,33176,2018-05-03,Standard,G-0728,42.0,
"INTERNATIONAL HOME CARE SERVICES, INC",11440 SW 88TH ST STE 403,107640,FL,33176,2018-05-03,Standard,G-0798,42.0,
"INTERNATIONAL HOME CARE SERVICES, INC",11440 SW 88TH ST STE 403,107640,FL,33176,2018-05-03,Standard,G-0800,42.0,
"INTERNATIONAL HOME CARE SERVICES, INC",11440 SW 88TH ST STE 403,107640,FL,33176,2018-05-03,Standard,G-0940,42.0,
"INTERNATIONAL HOME CARE SERVICES, INC",11440 SW 88TH ST STE 403,107640,FL,33176,2018-05-03,Standard,G-0952,42.0,
"INTERNATIONAL HOME CARE SERVICES, INC",11440 SW 88TH ST STE 403,107640,FL,33176,2018-05-03,Standard,G-0962,42.0,
"INTERNATIONAL HOME CARE SERVICES, INC",11440 SW 88TH ST STE 403,107640,FL,33176,2018-05-03,Standard,G-0966,42.0,
"INTERNATIONAL HOME CARE SERVICES, INC",11440 SW 88TH ST STE 403,107640,FL,33176,2018-05-03,Standard,G-0968,42.0,
"INTERNATIONAL HOME CARE SERVICES, INC",11440 SW 88TH ST STE 403,107640,FL,33176,2018-05-03,Standard,G-0984,42.0,
"INTERNATIONAL HOME CARE SERVICES, INC",11440 SW 88TH ST STE 403,107640,FL,33176,2018-05-03,Standard,G-1050,42.0,
"INTERNATIONAL HOME CARE SERVICES, INC",11440 SW 88TH ST STE 403,107640,FL,33176,2018-05-03,Standard,G-1066,42.0,
KINDRED AT HOME,6161 BLUE LAGOON DR STE 280,107641,FL,33126,2019-01-25,Standard,E-0009,12.0,
KINDRED AT HOME,6161 BLUE LAGOON DR STE 280,107641,FL,33126,2019-01-25,Standard,E-0021,12.0,
KINDRED AT HOME,6161 BLUE LAGOON DR STE 280,107641,FL,33126,2019-01-25,Standard,E-0023,12.0,
KINDRED AT HOME,6161 BLUE LAGOON DR STE 280,107641,FL,33126,2019-01-25,Standard,E-0030,12.0,
KINDRED AT HOME,6161 BLUE LAGOON DR STE 280,107641,FL,33126,2019-01-25,Standard,E-0032,12.0,
KINDRED AT HOME,6161 BLUE LAGOON DR STE 280,107641,FL,33126,2019-01-25,Standard,E-0037,12.0,
KINDRED AT HOME,6161 BLUE LAGOON DR STE 280,107641,FL,33126,2019-01-25,Standard,E-0039,12.0,
KINDRED AT HOME,6161 BLUE LAGOON DR STE 280,107641,FL,33126,2019-01-25,Standard,G-0536,12.0,
KINDRED AT HOME,6161 BLUE LAGOON DR STE 280,107641,FL,33126,2019-01-25,Standard,G-0582,12.0,
KINDRED AT HOME,6161 BLUE LAGOON DR STE 280,107641,FL,33126,2019-01-25,Standard,G-0584,12.0,
KINDRED AT HOME,6161 BLUE LAGOON DR STE 280,107641,FL,33126,2019-01-25,Standard,G-0716,12.0,
KINDRED AT HOME,6161 BLUE LAGOON DR STE 280,107641,FL,33126,2019-01-25,Standard,G-0968,12.0,
FLORIDA HOME BOUND MENTAL HEALTH AGENCY INC,1400 NE 125 ST,107643,FL,33161,2017-07-19,Standard,G-0186,8.0,
FLORIDA HOME BOUND MENTAL HEALTH AGENCY INC,1400 NE 125 ST,107643,FL,33161,2017-07-19,Standard,G-0250,8.0,
FLORIDA HOME BOUND MENTAL HEALTH AGENCY INC,1400 NE 125 ST,107643,FL,33161,2017-07-19,Standard,G-0434,8.0,
FLORIDA HOME BOUND MENTAL HEALTH AGENCY INC,1400 NE 125 ST,107643,FL,33161,2017-07-19,Standard,G-0536,8.0,
FLORIDA HOME BOUND MENTAL HEALTH AGENCY INC,1400 NE 125 ST,107643,FL,33161,2017-07-19,Standard,G-0580,8.0,
FLORIDA HOME BOUND MENTAL HEALTH AGENCY INC,1400 NE 125 ST,107643,FL,33161,2017-07-19,Standard,G-0582,8.0,
FLORIDA HOME BOUND MENTAL HEALTH AGENCY INC,1400 NE 125 ST,107643,FL,33161,2017-07-19,Standard,G-0808,8.0,
FLORIDA HOME BOUND MENTAL HEALTH AGENCY INC,1400 NE 125 ST,107643,FL,33161,2017-07-19,Standard,G-0984,8.0,
NEU-HEART HEALTH CARE SERVICES,7173 W OAKLAND PARK BLVD,107647,FL,33313,2018-01-18,Standard,G-0158,3.0,
NEU-HEART HEALTH CARE SERVICES,7173 W OAKLAND PARK BLVD,107647,FL,33313,2018-01-18,Standard,G-0798,3.0,
NEU-HEART HEALTH CARE SERVICES,7173 W OAKLAND PARK BLVD,107647,FL,33313,2018-01-18,Standard,G-0952,3.0,
DD HEALTH HOME CARE INC,4150 NW 7TH ST STE 208,107667,FL,33126,2017-09-28,Standard,G-0984,1.0,
CATHOLIC HOME HEALTH SERVICES OF MIAMI-DADE COUNTY,1050 NE 125TH ST,107670,FL,33161,2019-02-07,Standard,E-0001,34.0,
CATHOLIC HOME HEALTH SERVICES OF MIAMI-DADE COUNTY,1050 NE 125TH ST,107670,FL,33161,2019-02-07,Standard,E-0006,34.0,
CATHOLIC HOME HEALTH SERVICES OF MIAMI-DADE COUNTY,1050 NE 125TH ST,107670,FL,33161,2019-02-07,Standard,E-0013,34.0,
CATHOLIC HOME HEALTH SERVICES OF MIAMI-DADE COUNTY,1050 NE 125TH ST,107670,FL,33161,2019-02-07,Standard,E-0017,34.0,
CATHOLIC HOME HEALTH SERVICES OF MIAMI-DADE COUNTY,1050 NE 125TH ST,107670,FL,33161,2019-02-07,Standard,E-0021,34.0,
CATHOLIC HOME HEALTH SERVICES OF MIAMI-DADE COUNTY,1050 NE 125TH ST,107670,FL,33161,2019-02-07,Standard,E-0023,34.0,
CATHOLIC HOME HEALTH SERVICES OF MIAMI-DADE COUNTY,1050 NE 125TH ST,107670,FL,33161,2019-02-07,Standard,E-0029,34.0,
CATHOLIC HOME HEALTH SERVICES OF MIAMI-DADE COUNTY,1050 NE 125TH ST,107670,FL,33161,2019-02-07,Standard,E-0031,34.0,
CATHOLIC HOME HEALTH SERVICES OF MIAMI-DADE COUNTY,1050 NE 125TH ST,107670,FL,33161,2019-02-07,Standard,E-0032,34.0,
CATHOLIC HOME HEALTH SERVICES OF MIAMI-DADE COUNTY,1050 NE 125TH ST,107670,FL,33161,2019-02-07,Standard,E-0034,34.0,
CATHOLIC HOME HEALTH SERVICES OF MIAMI-DADE COUNTY,1050 NE 125TH ST,107670,FL,33161,2019-02-07,Standard,E-0036,34.0,
CATHOLIC HOME HEALTH SERVICES OF MIAMI-DADE COUNTY,1050 NE 125TH ST,107670,FL,33161,2019-02-07,Standard,E-0037,34.0,
CATHOLIC HOME HEALTH SERVICES OF MIAMI-DADE COUNTY,1050 NE 125TH ST,107670,FL,33161,2019-02-07,Standard,E-0039,34.0,
CATHOLIC HOME HEALTH SERVICES OF MIAMI-DADE COUNTY,1050 NE 125TH ST,107670,FL,33161,2019-02-07,Standard,G-0536,34.0,
CATHOLIC HOME HEALTH SERVICES OF MIAMI-DADE COUNTY,1050 NE 125TH ST,107670,FL,33161,2019-02-07,Standard,G-0572,34.0,
CATHOLIC HOME HEALTH SERVICES OF MIAMI-DADE COUNTY,1050 NE 125TH ST,107670,FL,33161,2019-02-07,Standard,G-0574,34.0,
CATHOLIC HOME HEALTH SERVICES OF MIAMI-DADE COUNTY,1050 NE 125TH ST,107670,FL,33161,2019-02-07,Standard,G-0576,34.0,
CATHOLIC HOME HEALTH SERVICES OF MIAMI-DADE COUNTY,1050 NE 125TH ST,107670,FL,33161,2019-02-07,Standard,G-0578,34.0,
CATHOLIC HOME HEALTH SERVICES OF MIAMI-DADE COUNTY,1050 NE 125TH ST,107670,FL,33161,2019-02-07,Standard,G-0584,34.0,
CATHOLIC HOME HEALTH SERVICES OF MIAMI-DADE COUNTY,1050 NE 125TH ST,107670,FL,33161,2019-02-07,Standard,G-0590,34.0,
CATHOLIC HOME HEALTH SERVICES OF MIAMI-DADE COUNTY,1050 NE 125TH ST,107670,FL,33161,2019-02-07,Standard,G-0608,34.0,
CATHOLIC HOME HEALTH SERVICES OF MIAMI-DADE COUNTY,1050 NE 125TH ST,107670,FL,33161,2019-02-07,Standard,G-0682,34.0,
CATHOLIC HOME HEALTH SERVICES OF MIAMI-DADE COUNTY,1050 NE 125TH ST,107670,FL,33161,2019-02-07,Standard,G-0702,34.0,
CATHOLIC HOME HEALTH SERVICES OF MIAMI-DADE COUNTY,1050 NE 125TH ST,107670,FL,33161,2019-02-07,Standard,G-0704,34.0,
CATHOLIC HOME HEALTH SERVICES OF MIAMI-DADE COUNTY,1050 NE 125TH ST,107670,FL,33161,2019-02-07,Standard,G-0708,34.0,
CATHOLIC HOME HEALTH SERVICES OF MIAMI-DADE COUNTY,1050 NE 125TH ST,107670,FL,33161,2019-02-07,Standard,G-0716,34.0,
CATHOLIC HOME HEALTH SERVICES OF MIAMI-DADE COUNTY,1050 NE 125TH ST,107670,FL,33161,2019-02-07,Standard,G-0808,34.0,
CATHOLIC HOME HEALTH SERVICES OF MIAMI-DADE COUNTY,1050 NE 125TH ST,107670,FL,33161,2019-02-07,Standard,G-0812,34.0,
CATHOLIC HOME HEALTH SERVICES OF MIAMI-DADE COUNTY,1050 NE 125TH ST,107670,FL,33161,2019-02-07,Standard,G-0814,34.0,
CATHOLIC HOME HEALTH SERVICES OF MIAMI-DADE COUNTY,1050 NE 125TH ST,107670,FL,33161,2019-02-07,Standard,G-0984,34.0,
CATHOLIC HOME HEALTH SERVICES OF MIAMI-DADE COUNTY,1050 NE 125TH ST,107670,FL,33161,2019-02-07,Standard,G-1010,34.0,
CATHOLIC HOME HEALTH SERVICES OF MIAMI-DADE COUNTY,1050 NE 125TH ST,107670,FL,33161,2019-02-07,Standard,G-1012,34.0,
CATHOLIC HOME HEALTH SERVICES OF MIAMI-DADE COUNTY,1050 NE 125TH ST,107670,FL,33161,2019-02-07,Standard,G-1016,34.0,
CATHOLIC HOME HEALTH SERVICES OF MIAMI-DADE COUNTY,1050 NE 125TH ST,107670,FL,33161,2019-02-07,Standard,G-1024,34.0,
"FAITH HEALTH CARE, INC",11401 SW 40TH ST STE 250,107673,FL,33165,2018-11-15,Standard,E-0001,27.0,
"FAITH HEALTH CARE, INC",11401 SW 40TH ST STE 250,107673,FL,33165,2018-11-15,Standard,E-0006,27.0,
"FAITH HEALTH CARE, INC",11401 SW 40TH ST STE 250,107673,FL,33165,2018-11-15,Standard,E-0009,27.0,
"FAITH HEALTH CARE, INC",11401 SW 40TH ST STE 250,107673,FL,33165,2018-11-15,Standard,E-0013,27.0,
"FAITH HEALTH CARE, INC",11401 SW 40TH ST STE 250,107673,FL,33165,2018-11-15,Standard,E-0021,27.0,
"FAITH HEALTH CARE, INC",11401 SW 40TH ST STE 250,107673,FL,33165,2018-11-15,Standard,E-0029,27.0,
"FAITH HEALTH CARE, INC",11401 SW 40TH ST STE 250,107673,FL,33165,2018-11-15,Standard,E-0030,27.0,
"FAITH HEALTH CARE, INC",11401 SW 40TH ST STE 250,107673,FL,33165,2018-11-15,Standard,E-0031,27.0,
"FAITH HEALTH CARE, INC",11401 SW 40TH ST STE 250,107673,FL,33165,2018-11-15,Standard,E-0032,27.0,
"FAITH HEALTH CARE, INC",11401 SW 40TH ST STE 250,107673,FL,33165,2018-11-15,Standard,E-0034,27.0,
"FAITH HEALTH CARE, INC",11401 SW 40TH ST STE 250,107673,FL,33165,2018-11-15,Standard,E-0036,27.0,
"FAITH HEALTH CARE, INC",11401 SW 40TH ST STE 250,107673,FL,33165,2018-11-15,Standard,E-0037,27.0,
"FAITH HEALTH CARE, INC",11401 SW 40TH ST STE 250,107673,FL,33165,2018-11-15,Standard,E-0039,27.0,
"FAITH HEALTH CARE, INC",11401 SW 40TH ST STE 250,107673,FL,33165,2018-11-15,Standard,G-0414,27.0,
"FAITH HEALTH CARE, INC",11401 SW 40TH ST STE 250,107673,FL,33165,2018-11-15,Standard,G-0434,27.0,
"FAITH HEALTH CARE, INC",11401 SW 40TH ST STE 250,107673,FL,33165,2018-11-15,Standard,G-0440,27.0,
"FAITH HEALTH CARE, INC",11401 SW 40TH ST STE 250,107673,FL,33165,2018-11-15,Standard,G-0446,27.0,
"FAITH HEALTH CARE, INC",11401 SW 40TH ST STE 250,107673,FL,33165,2018-11-15,Standard,G-0536,27.0,
"FAITH HEALTH CARE, INC",11401 SW 40TH ST STE 250,107673,FL,33165,2018-11-15,Standard,G-0574,27.0,
"FAITH HEALTH CARE, INC",11401 SW 40TH ST STE 250,107673,FL,33165,2018-11-15,Standard,G-0622,27.0,
"FAITH HEALTH CARE, INC",11401 SW 40TH ST STE 250,107673,FL,33165,2018-11-15,Standard,G-0682,27.0,
"FAITH HEALTH CARE, INC",11401 SW 40TH ST STE 250,107673,FL,33165,2018-11-15,Standard,G-0716,27.0,
"FAITH HEALTH CARE, INC",11401 SW 40TH ST STE 250,107673,FL,33165,2018-11-15,Standard,G-0774,27.0,
"FAITH HEALTH CARE, INC",11401 SW 40TH ST STE 250,107673,FL,33165,2018-11-15,Standard,G-0808,27.0,
"FAITH HEALTH CARE, INC",11401 SW 40TH ST STE 250,107673,FL,33165,2018-11-15,Standard,G-0984,27.0,
"FAITH HEALTH CARE, INC",11401 SW 40TH ST STE 250,107673,FL,33165,2018-11-15,Standard,G-1012,27.0,
"FAITH HEALTH CARE, INC",11401 SW 40TH ST STE 250,107673,FL,33165,2018-11-15,Standard,G-1018,27.0,
NURSING SOUTH CORPORATION,9380 SUNSET DR STE B 222,107682,FL,33173,2017-05-11,Standard,G-0372,6.0,
NURSING SOUTH CORPORATION,9380 SUNSET DR STE B 222,107682,FL,33173,2017-05-11,Standard,G-0434,6.0,
NURSING SOUTH CORPORATION,9380 SUNSET DR STE B 222,107682,FL,33173,2017-05-11,Standard,G-0536,6.0,
NURSING SOUTH CORPORATION,9380 SUNSET DR STE B 222,107682,FL,33173,2017-05-11,Standard,G-0546,6.0,
NURSING SOUTH CORPORATION,9380 SUNSET DR STE B 222,107682,FL,33173,2017-05-11,Standard,G-0606,6.0,
NURSING SOUTH CORPORATION,9380 SUNSET DR STE B 222,107682,FL,33173,2017-05-11,Standard,G-0984,6.0,
KINDRED AT HOME,4465 NORTH LECANTO HIGHWAY STE 7A,107684,FL,34465,2018-10-24,Standard,G-0682,1.0,
FAMILY HOME HEALTH SERVICES,1801 SE HILLMOOR DR STE B-107A,107686,FL,34952,2018-04-18,Complaint,G-0608,,1.0
KINDRED AT HOME,10161 CENTURION PKWY NORTH STE 111,107687,FL,32256,2018-04-12,Standard,G-0372,11.0,
KINDRED AT HOME,10161 CENTURION PKWY NORTH STE 111,107687,FL,32256,2018-04-12,Standard,G-0514,11.0,
KINDRED AT HOME,10161 CENTURION PKWY NORTH STE 111,107687,FL,32256,2018-04-12,Standard,G-0536,11.0,
KINDRED AT HOME,10161 CENTURION PKWY NORTH STE 111,107687,FL,32256,2018-04-12,Standard,G-0550,11.0,
KINDRED AT HOME,10161 CENTURION PKWY NORTH STE 111,107687,FL,32256,2018-04-12,Standard,G-0590,11.0,
KINDRED AT HOME,10161 CENTURION PKWY NORTH STE 111,107687,FL,32256,2018-04-12,Standard,G-0600,11.0,
KINDRED AT HOME,10161 CENTURION PKWY NORTH STE 111,107687,FL,32256,2018-04-12,Standard,G-0620,11.0,
KINDRED AT HOME,10161 CENTURION PKWY NORTH STE 111,107687,FL,32256,2018-04-12,Standard,G-0710,11.0,
KINDRED AT HOME,10161 CENTURION PKWY NORTH STE 111,107687,FL,32256,2018-04-12,Standard,G-0798,11.0,
KINDRED AT HOME,10161 CENTURION PKWY NORTH STE 111,107687,FL,32256,2018-04-12,Standard,G-0808,11.0,
KINDRED AT HOME,10161 CENTURION PKWY NORTH STE 111,107687,FL,32256,2018-04-12,Standard,G-1014,11.0,
SUNCREST OMNI,914 N SUNCOAST BLVD,107690,FL,34429,2018-12-07,Standard,G-0682,1.0,
QUALI-CARE HOME HEALTH AGENCY,9245 SW 158TH LN STE 201,107691,FL,33157,2018-04-18,Standard,E-0037,4.0,
QUALI-CARE HOME HEALTH AGENCY,9245 SW 158TH LN STE 201,107691,FL,33157,2018-04-18,Standard,G-0536,4.0,
QUALI-CARE HOME HEALTH AGENCY,9245 SW 158TH LN STE 201,107691,FL,33157,2018-04-18,Standard,G-0716,4.0,
QUALI-CARE HOME HEALTH AGENCY,9245 SW 158TH LN STE 201,107691,FL,33157,2018-04-18,Standard,G-1024,4.0,
GENESIS HOME HEALTH INC,1195 NE 125TH ST,107699,FL,33161,2019-04-10,Standard,E-0006,25.0,
GENESIS HOME HEALTH INC,1195 NE 125TH ST,107699,FL,33161,2019-04-10,Standard,E-0009,25.0,
GENESIS HOME HEALTH INC,1195 NE 125TH ST,107699,FL,33161,2019-04-10,Standard,E-0013,25.0,
GENESIS HOME HEALTH INC,1195 NE 125TH ST,107699,FL,33161,2019-04-10,Standard,E-0021,25.0,
GENESIS HOME HEALTH INC,1195 NE 125TH ST,107699,FL,33161,2019-04-10,Standard,E-0029,25.0,
GENESIS HOME HEALTH INC,1195 NE 125TH ST,107699,FL,33161,2019-04-10,Standard,E-0031,25.0,
GENESIS HOME HEALTH INC,1195 NE 125TH ST,107699,FL,33161,2019-04-10,Standard,E-0032,25.0,
GENESIS HOME HEALTH INC,1195 NE 125TH ST,107699,FL,33161,2019-04-10,Standard,G-0410,25.0,
GENESIS HOME HEALTH INC,1195 NE 125TH ST,107699,FL,33161,2019-04-10,Standard,G-0414,25.0,
GENESIS HOME HEALTH INC,1195 NE 125TH ST,107699,FL,33161,2019-04-10,Standard,G-0446,25.0,
GENESIS HOME HEALTH INC,1195 NE 125TH ST,107699,FL,33161,2019-04-10,Standard,G-0512,25.0,
GENESIS HOME HEALTH INC,1195 NE 125TH ST,107699,FL,33161,2019-04-10,Standard,G-0514,25.0,
GENESIS HOME HEALTH INC,1195 NE 125TH ST,107699,FL,33161,2019-04-10,Standard,G-0536,25.0,
GENESIS HOME HEALTH INC,1195 NE 125TH ST,107699,FL,33161,2019-04-10,Standard,G-0572,25.0,
GENESIS HOME HEALTH INC,1195 NE 125TH ST,107699,FL,33161,2019-04-10,Standard,G-0574,25.0,
GENESIS HOME HEALTH INC,1195 NE 125TH ST,107699,FL,33161,2019-04-10,Standard,G-0622,25.0,
GENESIS HOME HEALTH INC,1195 NE 125TH ST,107699,FL,33161,2019-04-10,Standard,G-0682,25.0,
GENESIS HOME HEALTH INC,1195 NE 125TH ST,107699,FL,33161,2019-04-10,Standard,G-0702,25.0,
GENESIS HOME HEALTH INC,1195 NE 125TH ST,107699,FL,33161,2019-04-10,Standard,G-0704,25.0,
GENESIS HOME HEALTH INC,1195 NE 125TH ST,107699,FL,33161,2019-04-10,Standard,G-0708,25.0,
GENESIS HOME HEALTH INC,1195 NE 125TH ST,107699,FL,33161,2019-04-10,Standard,G-0768,25.0,
GENESIS HOME HEALTH INC,1195 NE 125TH ST,107699,FL,33161,2019-04-10,Standard,G-0812,25.0,
GENESIS HOME HEALTH INC,1195 NE 125TH ST,107699,FL,33161,2019-04-10,Standard,G-0818,25.0,
GENESIS HOME HEALTH INC,1195 NE 125TH ST,107699,FL,33161,2019-04-10,Standard,G-0984,25.0,
GENESIS HOME HEALTH INC,1195 NE 125TH ST,107699,FL,33161,2019-04-10,Standard,G-1024,25.0,
COMMUNITY HOME HEALTH CARE SERVICES LLC,707 60TH ST CT E STE C,107703,FL,34208,2018-01-05,Standard,G-0157,3.0,
COMMUNITY HOME HEALTH CARE SERVICES LLC,707 60TH ST CT E STE C,107703,FL,34208,2018-01-05,Standard,G-0158,3.0,
COMMUNITY HOME HEALTH CARE SERVICES LLC,707 60TH ST CT E STE C,107703,FL,34208,2018-01-05,Standard,G-0606,3.0,
"D'FIRST HOME CARE, INC.",13060 SW 133 CT,107705,FL,33186,2018-09-27,Standard,G-0414,20.0,
"D'FIRST HOME CARE, INC.",13060 SW 133 CT,107705,FL,33186,2018-09-27,Standard,G-0440,20.0,
"D'FIRST HOME CARE, INC.",13060 SW 133 CT,107705,FL,33186,2018-09-27,Standard,G-0446,20.0,
"D'FIRST HOME CARE, INC.",13060 SW 133 CT,107705,FL,33186,2018-09-27,Standard,G-0514,20.0,
"D'FIRST HOME CARE, INC.",13060 SW 133 CT,107705,FL,33186,2018-09-27,Standard,G-0536,20.0,
"D'FIRST HOME CARE, INC.",13060 SW 133 CT,107705,FL,33186,2018-09-27,Standard,G-0574,20.0,
"D'FIRST HOME CARE, INC.",13060 SW 133 CT,107705,FL,33186,2018-09-27,Standard,G-0584,20.0,
"D'FIRST HOME CARE, INC.",13060 SW 133 CT,107705,FL,33186,2018-09-27,Standard,G-0622,20.0,
"D'FIRST HOME CARE, INC.",13060 SW 133 CT,107705,FL,33186,2018-09-27,Standard,G-0680,20.0,
"D'FIRST HOME CARE, INC.",13060 SW 133 CT,107705,FL,33186,2018-09-27,Standard,G-0682,20.0,
"D'FIRST HOME CARE, INC.",13060 SW 133 CT,107705,FL,33186,2018-09-27,Standard,G-0686,20.0,
"D'FIRST HOME CARE, INC.",13060 SW 133 CT,107705,FL,33186,2018-09-27,Standard,G-0768,20.0,
"D'FIRST HOME CARE, INC.",13060 SW 133 CT,107705,FL,33186,2018-09-27,Standard,G-0798,20.0,
"D'FIRST HOME CARE, INC.",13060 SW 133 CT,107705,FL,33186,2018-09-27,Standard,G-0800,20.0,
"D'FIRST HOME CARE, INC.",13060 SW 133 CT,107705,FL,33186,2018-09-27,Standard,G-0818,20.0,
"D'FIRST HOME CARE, INC.",13060 SW 133 CT,107705,FL,33186,2018-09-27,Standard,G-0962,20.0,
"D'FIRST HOME CARE, INC.",13060 SW 133 CT,107705,FL,33186,2018-09-27,Standard,G-0968,20.0,
"D'FIRST HOME CARE, INC.",13060 SW 133 CT,107705,FL,33186,2018-09-27,Standard,G-0984,20.0,
"D'FIRST HOME CARE, INC.",13060 SW 133 CT,107705,FL,33186,2018-09-27,Standard,G-1012,20.0,
"D'FIRST HOME CARE, INC.",13060 SW 133 CT,107705,FL,33186,2018-09-27,Standard,G-1024,20.0,
SUNCREST OMNI,3890 DUNN AVE STE 103-1A,107707,FL,32218,2018-02-27,Standard,G-0608,2.0,
SUNCREST OMNI,3890 DUNN AVE STE 103-1A,107707,FL,32218,2018-02-27,Standard,G-0646,2.0,
UNISOURCE HOME HEALTH SERVICES,7400 SW 50TH TER STE 203,107708,FL,33155,2019-01-16,Standard,E-0001,25.0,
UNISOURCE HOME HEALTH SERVICES,7400 SW 50TH TER STE 203,107708,FL,33155,2019-01-16,Standard,E-0006,25.0,
UNISOURCE HOME HEALTH SERVICES,7400 SW 50TH TER STE 203,107708,FL,33155,2019-01-16,Standard,E-0009,25.0,
UNISOURCE HOME HEALTH SERVICES,7400 SW 50TH TER STE 203,107708,FL,33155,2019-01-16,Standard,E-0013,25.0,
UNISOURCE HOME HEALTH SERVICES,7400 SW 50TH TER STE 203,107708,FL,33155,2019-01-16,Standard,E-0021,25.0,
UNISOURCE HOME HEALTH SERVICES,7400 SW 50TH TER STE 203,107708,FL,33155,2019-01-16,Standard,E-0023,25.0,
UNISOURCE HOME HEALTH SERVICES,7400 SW 50TH TER STE 203,107708,FL,33155,2019-01-16,Standard,E-0024,25.0,
UNISOURCE HOME HEALTH SERVICES,7400 SW 50TH TER STE 203,107708,FL,33155,2019-01-16,Standard,E-0030,25.0,
UNISOURCE HOME HEALTH SERVICES,7400 SW 50TH TER STE 203,107708,FL,33155,2019-01-16,Standard,E-0031,25.0,
UNISOURCE HOME HEALTH SERVICES,7400 SW 50TH TER STE 203,107708,FL,33155,2019-01-16,Standard,E-0032,25.0,
UNISOURCE HOME HEALTH SERVICES,7400 SW 50TH TER STE 203,107708,FL,33155,2019-01-16,Standard,E-0036,25.0,
UNISOURCE HOME HEALTH SERVICES,7400 SW 50TH TER STE 203,107708,FL,33155,2019-01-16,Standard,E-0037,25.0,
UNISOURCE HOME HEALTH SERVICES,7400 SW 50TH TER STE 203,107708,FL,33155,2019-01-16,Standard,E-0039,25.0,
UNISOURCE HOME HEALTH SERVICES,7400 SW 50TH TER STE 203,107708,FL,33155,2019-01-16,Standard,G-0372,25.0,
UNISOURCE HOME HEALTH SERVICES,7400 SW 50TH TER STE 203,107708,FL,33155,2019-01-16,Standard,G-0414,25.0,
UNISOURCE HOME HEALTH SERVICES,7400 SW 50TH TER STE 203,107708,FL,33155,2019-01-16,Standard,G-0438,25.0,
UNISOURCE HOME HEALTH SERVICES,7400 SW 50TH TER STE 203,107708,FL,33155,2019-01-16,Standard,G-0446,25.0,
UNISOURCE HOME HEALTH SERVICES,7400 SW 50TH TER STE 203,107708,FL,33155,2019-01-16,Standard,G-0546,25.0,
UNISOURCE HOME HEALTH SERVICES,7400 SW 50TH TER STE 203,107708,FL,33155,2019-01-16,Standard,G-0574,25.0,
UNISOURCE HOME HEALTH SERVICES,7400 SW 50TH TER STE 203,107708,FL,33155,2019-01-16,Standard,G-0578,25.0,
UNISOURCE HOME HEALTH SERVICES,7400 SW 50TH TER STE 203,107708,FL,33155,2019-01-16,Standard,G-0582,25.0,
UNISOURCE HOME HEALTH SERVICES,7400 SW 50TH TER STE 203,107708,FL,33155,2019-01-16,Standard,G-0592,25.0,
UNISOURCE HOME HEALTH SERVICES,7400 SW 50TH TER STE 203,107708,FL,33155,2019-01-16,Standard,G-0622,25.0,
UNISOURCE HOME HEALTH SERVICES,7400 SW 50TH TER STE 203,107708,FL,33155,2019-01-16,Standard,G-0716,25.0,
UNISOURCE HOME HEALTH SERVICES,7400 SW 50TH TER STE 203,107708,FL,33155,2019-01-16,Standard,G-0768,25.0,
SARASOTA MEMORIAL HOMECARE,6075 RAND BLVD SUITE 3,107710,FL,34238,2016-12-01,Standard,G-0110,5.0,
SARASOTA MEMORIAL HOMECARE,6075 RAND BLVD SUITE 3,107710,FL,34238,2016-12-01,Standard,G-0174,5.0,
SARASOTA MEMORIAL HOMECARE,6075 RAND BLVD SUITE 3,107710,FL,34238,2016-12-01,Standard,G-0187,5.0,
SARASOTA MEMORIAL HOMECARE,6075 RAND BLVD SUITE 3,107710,FL,34238,2016-12-01,Standard,G-0536,5.0,
SARASOTA MEMORIAL HOMECARE,6075 RAND BLVD SUITE 3,107710,FL,34238,2016-12-01,Standard,G-0606,5.0,
"GENTLE CARE, INC.",1790 SW 27 AVE,107711,FL,33135,2019-01-10,Standard,G-0536,4.0,
"GENTLE CARE, INC.",1790 SW 27 AVE,107711,FL,33135,2019-01-10,Standard,G-0682,4.0,
"GENTLE CARE, INC.",1790 SW 27 AVE,107711,FL,33135,2019-01-10,Standard,G-0808,4.0,
"GENTLE CARE, INC.",1790 SW 27 AVE,107711,FL,33135,2019-01-10,Standard,G-0984,4.0,
PALMS HOME CARE,7141 N WATERWAY DR,107712,FL,33155,2016-10-27,Standard,G-0145,9.0,
PALMS HOME CARE,7141 N WATERWAY DR,107712,FL,33155,2016-10-27,Standard,G-0158,9.0,
PALMS HOME CARE,7141 N WATERWAY DR,107712,FL,33155,2016-10-27,Standard,G-0186,9.0,
PALMS HOME CARE,7141 N WATERWAY DR,107712,FL,33155,2016-10-27,Standard,G-0384,9.0,
PALMS HOME CARE,7141 N WATERWAY DR,107712,FL,33155,2016-10-27,Standard,G-0434,9.0,
PALMS HOME CARE,7141 N WATERWAY DR,107712,FL,33155,2016-10-27,Standard,G-0536,9.0,
PALMS HOME CARE,7141 N WATERWAY DR,107712,FL,33155,2016-10-27,Standard,G-0606,9.0,
PALMS HOME CARE,7141 N WATERWAY DR,107712,FL,33155,2016-10-27,Standard,G-0808,9.0,
PALMS HOME CARE,7141 N WATERWAY DR,107712,FL,33155,2016-10-27,Standard,G-1022,9.0,
ANGEL HOME CARE SERVICES INC,12955 SW 42 ST #104,107713,FL,33175,2018-07-19,Standard,E-0030,11.0,
ANGEL HOME CARE SERVICES INC,12955 SW 42 ST #104,107713,FL,33175,2018-07-19,Standard,E-0032,11.0,
ANGEL HOME CARE SERVICES INC,12955 SW 42 ST #104,107713,FL,33175,2018-07-19,Standard,G-0372,11.0,
ANGEL HOME CARE SERVICES INC,12955 SW 42 ST #104,107713,FL,33175,2018-07-19,Standard,G-0574,11.0,
ANGEL HOME CARE SERVICES INC,12955 SW 42 ST #104,107713,FL,33175,2018-07-19,Standard,G-0576,11.0,
ANGEL HOME CARE SERVICES INC,12955 SW 42 ST #104,107713,FL,33175,2018-07-19,Standard,G-0682,11.0,
ANGEL HOME CARE SERVICES INC,12955 SW 42 ST #104,107713,FL,33175,2018-07-19,Standard,G-0808,11.0,
ANGEL HOME CARE SERVICES INC,12955 SW 42 ST #104,107713,FL,33175,2018-07-19,Standard,G-0984,11.0,
ANGEL HOME CARE SERVICES INC,12955 SW 42 ST #104,107713,FL,33175,2018-07-19,Standard,G-1014,11.0,
ANGEL HOME CARE SERVICES INC,12955 SW 42 ST #104,107713,FL,33175,2018-07-19,Standard,G-1022,11.0,
ANGEL HOME CARE SERVICES INC,12955 SW 42 ST #104,107713,FL,33175,2018-07-19,Standard,G-1024,11.0,
SUNRISE HOME HEALTH & SUPPLIES LLC,22110 KIMBLE AVE,107716,FL,33952,2017-11-15,Standard,G-0145,10.0,
SUNRISE HOME HEALTH & SUPPLIES LLC,22110 KIMBLE AVE,107716,FL,33952,2017-11-15,Standard,G-0158,10.0,
SUNRISE HOME HEALTH & SUPPLIES LLC,22110 KIMBLE AVE,107716,FL,33952,2017-11-15,Standard,G-0170,10.0,
SUNRISE HOME HEALTH & SUPPLIES LLC,22110 KIMBLE AVE,107716,FL,33952,2017-11-15,Standard,G-0172,10.0,
SUNRISE HOME HEALTH & SUPPLIES LLC,22110 KIMBLE AVE,107716,FL,33952,2017-11-15,Standard,G-0250,10.0,
SUNRISE HOME HEALTH & SUPPLIES LLC,22110 KIMBLE AVE,107716,FL,33952,2017-11-15,Standard,G-0251,10.0,
SUNRISE HOME HEALTH & SUPPLIES LLC,22110 KIMBLE AVE,107716,FL,33952,2017-11-15,Standard,G-0536,10.0,
SUNRISE HOME HEALTH & SUPPLIES LLC,22110 KIMBLE AVE,107716,FL,33952,2017-11-15,Standard,G-0606,10.0,
SUNRISE HOME HEALTH & SUPPLIES LLC,22110 KIMBLE AVE,107716,FL,33952,2017-11-15,Standard,G-0728,10.0,
SUNRISE HOME HEALTH & SUPPLIES LLC,22110 KIMBLE AVE,107716,FL,33952,2017-11-15,Standard,G-0808,10.0,
TEHC LLC,1264 US HIGHWAY 1 STE 103,107718,FL,32955,2018-11-16,Standard,G-0606,1.0,
WELL DONE HOME CARE INC,10250 NORMANDY BLVD STE 502,107723,FL,32221,2017-04-05,Standard,G-0152,5.0,
WELL DONE HOME CARE INC,10250 NORMANDY BLVD STE 502,107723,FL,32221,2017-04-05,Standard,G-0153,5.0,
WELL DONE HOME CARE INC,10250 NORMANDY BLVD STE 502,107723,FL,32221,2017-04-05,Standard,G-0158,5.0,
WELL DONE HOME CARE INC,10250 NORMANDY BLVD STE 502,107723,FL,32221,2017-04-05,Standard,G-0188,5.0,
WELL DONE HOME CARE INC,10250 NORMANDY BLVD STE 502,107723,FL,32221,2017-04-05,Standard,G-0590,5.0,
FATIMA HOME CARE,1454 SW 1 ST   STE 120,107730,FL,33135,2017-08-30,Standard,G-1022,1.0,
"NATIONWIDE HEALTHCARE SERVICES, INC.",111 NW 183RD ST STE 420,107746,FL,33169,2018-12-17,Complaint,G-0478,,7.0
"NATIONWIDE HEALTHCARE SERVICES, INC.",111 NW 183RD ST STE 420,107746,FL,33169,2018-12-17,Complaint,G-0484,,7.0
"NATIONWIDE HEALTHCARE SERVICES, INC.",111 NW 183RD ST STE 420,107746,FL,33169,2018-12-17,Complaint,G-0546,,7.0
"NATIONWIDE HEALTHCARE SERVICES, INC.",111 NW 183RD ST STE 420,107746,FL,33169,2018-12-17,Complaint,G-0574,,7.0
"NATIONWIDE HEALTHCARE SERVICES, INC.",111 NW 183RD ST STE 420,107746,FL,33169,2018-12-17,Complaint,G-0726,,7.0
"NATIONWIDE HEALTHCARE SERVICES, INC.",111 NW 183RD ST STE 420,107746,FL,33169,2018-12-17,Complaint,G-1012,,7.0
"NATIONWIDE HEALTHCARE SERVICES, INC.",111 NW 183RD ST STE 420,107746,FL,33169,2018-12-17,Complaint,G-1024,,7.0
"NATIONWIDE HEALTHCARE SERVICES, INC.",111 NW 183RD ST STE 420,107746,FL,33169,2019-02-28,Standard,E-0001,25.0,7.0
"NATIONWIDE HEALTHCARE SERVICES, INC.",111 NW 183RD ST STE 420,107746,FL,33169,2019-02-28,Standard,E-0006,25.0,7.0
"NATIONWIDE HEALTHCARE SERVICES, INC.",111 NW 183RD ST STE 420,107746,FL,33169,2019-02-28,Standard,E-0009,25.0,7.0
"NATIONWIDE HEALTHCARE SERVICES, INC.",111 NW 183RD ST STE 420,107746,FL,33169,2019-02-28,Standard,E-0013,25.0,7.0
"NATIONWIDE HEALTHCARE SERVICES, INC.",111 NW 183RD ST STE 420,107746,FL,33169,2019-02-28,Standard,E-0021,25.0,7.0
"NATIONWIDE HEALTHCARE SERVICES, INC.",111 NW 183RD ST STE 420,107746,FL,33169,2019-02-28,Standard,E-0024,25.0,7.0
"NATIONWIDE HEALTHCARE SERVICES, INC.",111 NW 183RD ST STE 420,107746,FL,33169,2019-02-28,Standard,E-0029,25.0,7.0
"NATIONWIDE HEALTHCARE SERVICES, INC.",111 NW 183RD ST STE 420,107746,FL,33169,2019-02-28,Standard,E-0030,25.0,7.0
"NATIONWIDE HEALTHCARE SERVICES, INC.",111 NW 183RD ST STE 420,107746,FL,33169,2019-02-28,Standard,E-0031,25.0,7.0
"NATIONWIDE HEALTHCARE SERVICES, INC.",111 NW 183RD ST STE 420,107746,FL,33169,2019-02-28,Standard,E-0032,25.0,7.0
"NATIONWIDE HEALTHCARE SERVICES, INC.",111 NW 183RD ST STE 420,107746,FL,33169,2019-02-28,Standard,E-0036,25.0,7.0
"NATIONWIDE HEALTHCARE SERVICES, INC.",111 NW 183RD ST STE 420,107746,FL,33169,2019-02-28,Standard,E-0037,25.0,7.0
"NATIONWIDE HEALTHCARE SERVICES, INC.",111 NW 183RD ST STE 420,107746,FL,33169,2019-02-28,Standard,E-0039,25.0,7.0
"NATIONWIDE HEALTHCARE SERVICES, INC.",111 NW 183RD ST STE 420,107746,FL,33169,2019-02-28,Standard,G-0372,25.0,7.0
"NATIONWIDE HEALTHCARE SERVICES, INC.",111 NW 183RD ST STE 420,107746,FL,33169,2019-02-28,Standard,G-0546,25.0,7.0
"NATIONWIDE HEALTHCARE SERVICES, INC.",111 NW 183RD ST STE 420,107746,FL,33169,2019-02-28,Standard,G-0548,25.0,7.0
"NATIONWIDE HEALTHCARE SERVICES, INC.",111 NW 183RD ST STE 420,107746,FL,33169,2019-02-28,Standard,G-0550,25.0,7.0
"NATIONWIDE HEALTHCARE SERVICES, INC.",111 NW 183RD ST STE 420,107746,FL,33169,2019-02-28,Standard,G-0582,25.0,7.0
"NATIONWIDE HEALTHCARE SERVICES, INC.",111 NW 183RD ST STE 420,107746,FL,33169,2019-02-28,Standard,G-0768,25.0,7.0
"NATIONWIDE HEALTHCARE SERVICES, INC.",111 NW 183RD ST STE 420,107746,FL,33169,2019-02-28,Standard,G-0812,25.0,7.0
"NATIONWIDE HEALTHCARE SERVICES, INC.",111 NW 183RD ST STE 420,107746,FL,33169,2019-02-28,Standard,G-0814,25.0,7.0
"NATIONWIDE HEALTHCARE SERVICES, INC.",111 NW 183RD ST STE 420,107746,FL,33169,2019-02-28,Standard,G-0818,25.0,7.0
"NATIONWIDE HEALTHCARE SERVICES, INC.",111 NW 183RD ST STE 420,107746,FL,33169,2019-02-28,Standard,G-0960,25.0,7.0
"NATIONWIDE HEALTHCARE SERVICES, INC.",111 NW 183RD ST STE 420,107746,FL,33169,2019-02-28,Standard,G-1012,25.0,7.0
"NATIONWIDE HEALTHCARE SERVICES, INC.",111 NW 183RD ST STE 420,107746,FL,33169,2019-02-28,Standard,G-1022,25.0,7.0
UNS UNITED NURSING SERVICES,1897 PALM BEACH LAKES BLVD STE 213,107752,FL,33409,2017-03-23,Standard,G-0101,8.0,
UNS UNITED NURSING SERVICES,1897 PALM BEACH LAKES BLVD STE 213,107752,FL,33409,2017-03-23,Standard,G-0158,8.0,
UNS UNITED NURSING SERVICES,1897 PALM BEACH LAKES BLVD STE 213,107752,FL,33409,2017-03-23,Standard,G-0574,8.0,
UNS UNITED NURSING SERVICES,1897 PALM BEACH LAKES BLVD STE 213,107752,FL,33409,2017-03-23,Standard,G-0580,8.0,
UNS UNITED NURSING SERVICES,1897 PALM BEACH LAKES BLVD STE 213,107752,FL,33409,2017-03-23,Standard,G-0582,8.0,
UNS UNITED NURSING SERVICES,1897 PALM BEACH LAKES BLVD STE 213,107752,FL,33409,2017-03-23,Standard,G-0584,8.0,
UNS UNITED NURSING SERVICES,1897 PALM BEACH LAKES BLVD STE 213,107752,FL,33409,2017-03-23,Standard,G-0984,8.0,
UNS UNITED NURSING SERVICES,1897 PALM BEACH LAKES BLVD STE 213,107752,FL,33409,2017-03-23,Standard,G-1022,8.0,
"GREEN CROSS HOME CARE SERVICES, INC",15383 NW 7TH AVE,107754,FL,33169,2019-02-08,Complaint,G-0412,,20.0
"GREEN CROSS HOME CARE SERVICES, INC",15383 NW 7TH AVE,107754,FL,33169,2019-02-08,Complaint,G-0414,,20.0
"GREEN CROSS HOME CARE SERVICES, INC",15383 NW 7TH AVE,107754,FL,33169,2019-02-08,Complaint,G-0416,,20.0
"GREEN CROSS HOME CARE SERVICES, INC",15383 NW 7TH AVE,107754,FL,33169,2019-02-08,Complaint,G-0418,,20.0
"GREEN CROSS HOME CARE SERVICES, INC",15383 NW 7TH AVE,107754,FL,33169,2019-02-08,Complaint,G-0422,,20.0
"GREEN CROSS HOME CARE SERVICES, INC",15383 NW 7TH AVE,107754,FL,33169,2019-02-08,Complaint,G-0434,,20.0
"GREEN CROSS HOME CARE SERVICES, INC",15383 NW 7TH AVE,107754,FL,33169,2019-02-08,Complaint,G-0440,,20.0
"GREEN CROSS HOME CARE SERVICES, INC",15383 NW 7TH AVE,107754,FL,33169,2019-02-08,Complaint,G-0444,,20.0
"GREEN CROSS HOME CARE SERVICES, INC",15383 NW 7TH AVE,107754,FL,33169,2019-02-08,Complaint,G-0446,,20.0
"GREEN CROSS HOME CARE SERVICES, INC",15383 NW 7TH AVE,107754,FL,33169,2019-02-08,Complaint,G-0448,,20.0
"GREEN CROSS HOME CARE SERVICES, INC",15383 NW 7TH AVE,107754,FL,33169,2019-02-08,Complaint,G-0450,,20.0
"GREEN CROSS HOME CARE SERVICES, INC",15383 NW 7TH AVE,107754,FL,33169,2019-02-08,Complaint,G-0574,,20.0
"GREEN CROSS HOME CARE SERVICES, INC",15383 NW 7TH AVE,107754,FL,33169,2019-02-08,Complaint,G-0584,,20.0
"GREEN CROSS HOME CARE SERVICES, INC",15383 NW 7TH AVE,107754,FL,33169,2019-02-08,Complaint,G-0604,,20.0
"GREEN CROSS HOME CARE SERVICES, INC",15383 NW 7TH AVE,107754,FL,33169,2019-02-08,Complaint,G-0622,,20.0
"GREEN CROSS HOME CARE SERVICES, INC",15383 NW 7TH AVE,107754,FL,33169,2019-02-08,Complaint,G-0716,,20.0
"GREEN CROSS HOME CARE SERVICES, INC",15383 NW 7TH AVE,107754,FL,33169,2019-02-08,Complaint,G-0966,,20.0
"GREEN CROSS HOME CARE SERVICES, INC",15383 NW 7TH AVE,107754,FL,33169,2019-02-08,Complaint,G-0968,,20.0
"GREEN CROSS HOME CARE SERVICES, INC",15383 NW 7TH AVE,107754,FL,33169,2019-02-08,Complaint,G-1012,,20.0
"GREEN CROSS HOME CARE SERVICES, INC",15383 NW 7TH AVE,107754,FL,33169,2019-02-08,Complaint,G-1014,,20.0
HOME BOUND CARE INC,340 NW 183RD ST,107761,FL,33169,2018-05-11,Complaint,G-0414,,20.0
HOME BOUND CARE INC,340 NW 183RD ST,107761,FL,33169,2018-05-11,Complaint,G-0434,,20.0
HOME BOUND CARE INC,340 NW 183RD ST,107761,FL,33169,2018-05-11,Complaint,G-0436,,20.0
HOME BOUND CARE INC,340 NW 183RD ST,107761,FL,33169,2018-05-11,Complaint,G-0442,,20.0
HOME BOUND CARE INC,340 NW 183RD ST,107761,FL,33169,2018-05-11,Complaint,G-0446,,20.0
HOME BOUND CARE INC,340 NW 183RD ST,107761,FL,33169,2018-05-11,Complaint,G-0452,,20.0
HOME BOUND CARE INC,340 NW 183RD ST,107761,FL,33169,2018-05-11,Complaint,G-0480,,20.0
HOME BOUND CARE INC,340 NW 183RD ST,107761,FL,33169,2018-05-11,Complaint,G-0536,,20.0
HOME BOUND CARE INC,340 NW 183RD ST,107761,FL,33169,2018-05-11,Complaint,G-0548,,20.0
HOME BOUND CARE INC,340 NW 183RD ST,107761,FL,33169,2018-05-11,Complaint,G-0574,,20.0
HOME BOUND CARE INC,340 NW 183RD ST,107761,FL,33169,2018-05-11,Complaint,G-0578,,20.0
HOME BOUND CARE INC,340 NW 183RD ST,107761,FL,33169,2018-05-11,Complaint,G-0586,,20.0
HOME BOUND CARE INC,340 NW 183RD ST,107761,FL,33169,2018-05-11,Complaint,G-0590,,20.0
HOME BOUND CARE INC,340 NW 183RD ST,107761,FL,33169,2018-05-11,Complaint,G-0592,,20.0
HOME BOUND CARE INC,340 NW 183RD ST,107761,FL,33169,2018-05-11,Complaint,G-0682,,20.0
HOME BOUND CARE INC,340 NW 183RD ST,107761,FL,33169,2018-05-11,Complaint,G-0716,,20.0
HOME BOUND CARE INC,340 NW 183RD ST,107761,FL,33169,2018-05-11,Complaint,G-1012,,20.0
HOME BOUND CARE INC,340 NW 183RD ST,107761,FL,33169,2018-05-11,Complaint,G-1022,,20.0
HOME BOUND CARE INC,340 NW 183RD ST,107761,FL,33169,2018-05-11,Complaint,G-1024,,20.0
HOME BOUND CARE INC,340 NW 183RD ST,107761,FL,33169,2018-05-11,Complaint,G-1056,,20.0
HOME BOUND CARE INC,340 NW 183RD ST,107761,FL,33169,2019-03-14,Standard,E-0001,34.0,20.0
HOME BOUND CARE INC,340 NW 183RD ST,107761,FL,33169,2019-03-14,Standard,E-0004,34.0,20.0
HOME BOUND CARE INC,340 NW 183RD ST,107761,FL,33169,2019-03-14,Standard,E-0006,34.0,20.0
HOME BOUND CARE INC,340 NW 183RD ST,107761,FL,33169,2019-03-14,Standard,E-0013,34.0,20.0
HOME BOUND CARE INC,340 NW 183RD ST,107761,FL,33169,2019-03-14,Standard,E-0017,34.0,20.0
HOME BOUND CARE INC,340 NW 183RD ST,107761,FL,33169,2019-03-14,Standard,E-0029,34.0,20.0
HOME BOUND CARE INC,340 NW 183RD ST,107761,FL,33169,2019-03-14,Standard,E-0030,34.0,20.0
HOME BOUND CARE INC,340 NW 183RD ST,107761,FL,33169,2019-03-14,Standard,E-0031,34.0,20.0
HOME BOUND CARE INC,340 NW 183RD ST,107761,FL,33169,2019-03-14,Standard,E-0032,34.0,20.0
HOME BOUND CARE INC,340 NW 183RD ST,107761,FL,33169,2019-03-14,Standard,E-0036,34.0,20.0
HOME BOUND CARE INC,340 NW 183RD ST,107761,FL,33169,2019-03-14,Standard,E-0037,34.0,20.0
HOME BOUND CARE INC,340 NW 183RD ST,107761,FL,33169,2019-03-14,Standard,E-0039,34.0,20.0
HOME BOUND CARE INC,340 NW 183RD ST,107761,FL,33169,2019-03-14,Standard,G-0372,34.0,20.0
HOME BOUND CARE INC,340 NW 183RD ST,107761,FL,33169,2019-03-14,Standard,G-0536,34.0,20.0
HOME BOUND CARE INC,340 NW 183RD ST,107761,FL,33169,2019-03-14,Standard,G-0550,34.0,20.0
HOME BOUND CARE INC,340 NW 183RD ST,107761,FL,33169,2019-03-14,Standard,G-0574,34.0,20.0
HOME BOUND CARE INC,340 NW 183RD ST,107761,FL,33169,2019-03-14,Standard,G-0578,34.0,20.0
HOME BOUND CARE INC,340 NW 183RD ST,107761,FL,33169,2019-03-14,Standard,G-0582,34.0,20.0
HOME BOUND CARE INC,340 NW 183RD ST,107761,FL,33169,2019-03-14,Standard,G-0584,34.0,20.0
HOME BOUND CARE INC,340 NW 183RD ST,107761,FL,33169,2019-03-14,Standard,G-0586,34.0,20.0
HOME BOUND CARE INC,340 NW 183RD ST,107761,FL,33169,2019-03-14,Standard,G-0682,34.0,20.0
HOME BOUND CARE INC,340 NW 183RD ST,107761,FL,33169,2019-03-14,Standard,G-0702,34.0,20.0
HOME BOUND CARE INC,340 NW 183RD ST,107761,FL,33169,2019-03-14,Standard,G-0716,34.0,20.0
HOME BOUND CARE INC,340 NW 183RD ST,107761,FL,33169,2019-03-14,Standard,G-0726,34.0,20.0
HOME BOUND CARE INC,340 NW 183RD ST,107761,FL,33169,2019-03-14,Standard,G-0774,34.0,20.0
HOME BOUND CARE INC,340 NW 183RD ST,107761,FL,33169,2019-03-14,Standard,G-0808,34.0,20.0
HOME BOUND CARE INC,340 NW 183RD ST,107761,FL,33169,2019-03-14,Standard,G-0960,34.0,20.0
HOME BOUND CARE INC,340 NW 183RD ST,107761,FL,33169,2019-03-14,Standard,G-0962,34.0,20.0
HOME BOUND CARE INC,340 NW 183RD ST,107761,FL,33169,2019-03-14,Standard,G-0984,34.0,20.0
HOME BOUND CARE INC,340 NW 183RD ST,107761,FL,33169,2019-03-14,Standard,G-1012,34.0,20.0
HOME BOUND CARE INC,340 NW 183RD ST,107761,FL,33169,2019-03-14,Standard,G-1014,34.0,20.0
HOME BOUND CARE INC,340 NW 183RD ST,107761,FL,33169,2019-03-14,Standard,G-1022,34.0,20.0
HOME BOUND CARE INC,340 NW 183RD ST,107761,FL,33169,2019-03-14,Standard,G-1024,34.0,20.0
HOME BOUND CARE INC,340 NW 183RD ST,107761,FL,33169,2019-03-14,Standard,G-1072,34.0,20.0
SOUTHEAST HOMECARE,"7719 NW 48 ST STES 230, 330 & 340",107762,FL,33166,2018-12-19,Complaint,G-0434,,5.0
SOUTHEAST HOMECARE,"7719 NW 48 ST STES 230, 330 & 340",107762,FL,33166,2018-12-19,Complaint,G-0440,,5.0
SOUTHEAST HOMECARE,"7719 NW 48 ST STES 230, 330 & 340",107762,FL,33166,2018-12-19,Complaint,G-0536,,5.0
SOUTHEAST HOMECARE,"7719 NW 48 ST STES 230, 330 & 340",107762,FL,33166,2018-12-19,Complaint,G-0574,,5.0
SOUTHEAST HOMECARE,"7719 NW 48 ST STES 230, 330 & 340",107762,FL,33166,2018-12-19,Complaint,G-0808,,5.0
"TOTAL NURSING SERVICES, INC.",5951 NW 173 DR STE 11,107769,FL,33015,2017-04-27,Standard,G-0158,6.0,
"TOTAL NURSING SERVICES, INC.",5951 NW 173 DR STE 11,107769,FL,33015,2017-04-27,Standard,G-0170,6.0,
"TOTAL NURSING SERVICES, INC.",5951 NW 173 DR STE 11,107769,FL,33015,2017-04-27,Standard,G-0180,6.0,
"TOTAL NURSING SERVICES, INC.",5951 NW 173 DR STE 11,107769,FL,33015,2017-04-27,Standard,G-0584,6.0,
"TOTAL NURSING SERVICES, INC.",5951 NW 173 DR STE 11,107769,FL,33015,2017-04-27,Standard,G-0984,6.0,
"TOTAL NURSING SERVICES, INC.",5951 NW 173 DR STE 11,107769,FL,33015,2017-04-27,Standard,G-1022,6.0,
"EXCLUSIVE SERVICES, INC.",7181 SW 43RD ST,107772,FL,33155,2017-05-24,Standard,G-0158,12.0,
"EXCLUSIVE SERVICES, INC.",7181 SW 43RD ST,107772,FL,33155,2017-05-24,Standard,G-0170,12.0,
"EXCLUSIVE SERVICES, INC.",7181 SW 43RD ST,107772,FL,33155,2017-05-24,Standard,G-0176,12.0,
"EXCLUSIVE SERVICES, INC.",7181 SW 43RD ST,107772,FL,33155,2017-05-24,Standard,G-0384,12.0,
"EXCLUSIVE SERVICES, INC.",7181 SW 43RD ST,107772,FL,33155,2017-05-24,Standard,G-0434,12.0,
"EXCLUSIVE SERVICES, INC.",7181 SW 43RD ST,107772,FL,33155,2017-05-24,Standard,G-0536,12.0,
"EXCLUSIVE SERVICES, INC.",7181 SW 43RD ST,107772,FL,33155,2017-05-24,Standard,G-0574,12.0,
"EXCLUSIVE SERVICES, INC.",7181 SW 43RD ST,107772,FL,33155,2017-05-24,Standard,G-0590,12.0,
"EXCLUSIVE SERVICES, INC.",7181 SW 43RD ST,107772,FL,33155,2017-05-24,Standard,G-0606,12.0,
"EXCLUSIVE SERVICES, INC.",7181 SW 43RD ST,107772,FL,33155,2017-05-24,Standard,G-0982,12.0,
"EXCLUSIVE SERVICES, INC.",7181 SW 43RD ST,107772,FL,33155,2017-05-24,Standard,G-0984,12.0,
"EXCLUSIVE SERVICES, INC.",7181 SW 43RD ST,107772,FL,33155,2017-05-24,Standard,G-1022,12.0,
TEHC LLC,8669 NW 36TH ST STE 355,107773,FL,33166,2018-03-08,Standard,E-0006,19.0,
TEHC LLC,8669 NW 36TH ST STE 355,107773,FL,33166,2018-03-08,Standard,E-0009,19.0,
TEHC LLC,8669 NW 36TH ST STE 355,107773,FL,33166,2018-03-08,Standard,E-0023,19.0,
TEHC LLC,8669 NW 36TH ST STE 355,107773,FL,33166,2018-03-08,Standard,E-0024,19.0,
TEHC LLC,8669 NW 36TH ST STE 355,107773,FL,33166,2018-03-08,Standard,E-0031,19.0,
TEHC LLC,8669 NW 36TH ST STE 355,107773,FL,33166,2018-03-08,Standard,E-0032,19.0,
TEHC LLC,8669 NW 36TH ST STE 355,107773,FL,33166,2018-03-08,Standard,E-0034,19.0,
TEHC LLC,8669 NW 36TH ST STE 355,107773,FL,33166,2018-03-08,Standard,E-0037,19.0,
TEHC LLC,8669 NW 36TH ST STE 355,107773,FL,33166,2018-03-08,Standard,E-0039,19.0,
TEHC LLC,8669 NW 36TH ST STE 355,107773,FL,33166,2018-03-08,Standard,G-0446,19.0,
TEHC LLC,8669 NW 36TH ST STE 355,107773,FL,33166,2018-03-08,Standard,G-0536,19.0,
TEHC LLC,8669 NW 36TH ST STE 355,107773,FL,33166,2018-03-08,Standard,G-0578,19.0,
TEHC LLC,8669 NW 36TH ST STE 355,107773,FL,33166,2018-03-08,Standard,G-0682,19.0,
TEHC LLC,8669 NW 36TH ST STE 355,107773,FL,33166,2018-03-08,Standard,G-0716,19.0,
TEHC LLC,8669 NW 36TH ST STE 355,107773,FL,33166,2018-03-08,Standard,G-0722,19.0,
TEHC LLC,8669 NW 36TH ST STE 355,107773,FL,33166,2018-03-08,Standard,G-0978,19.0,
TEHC LLC,8669 NW 36TH ST STE 355,107773,FL,33166,2018-03-08,Standard,G-0980,19.0,
TEHC LLC,8669 NW 36TH ST STE 355,107773,FL,33166,2018-03-08,Standard,G-0984,19.0,
TEHC LLC,8669 NW 36TH ST STE 355,107773,FL,33166,2018-03-08,Standard,G-1024,19.0,
"TRINITY HEALTH CARE SERVICES, INC.",6151 MIRAMAR PKWY STE 101,107779,FL,33023,2018-08-31,Complaint,G-0590,,1.0
PINES HOME HEALTH CARE SERVICES INC,5400 S UNIVERSITY DR  STE 409,107780,FL,33328,2019-04-10,Standard,G-0372,2.0,
PINES HOME HEALTH CARE SERVICES INC,5400 S UNIVERSITY DR  STE 409,107780,FL,33328,2019-04-10,Standard,G-0580,2.0,
KINDRED AT HOME,5111 N 12TH AVE STE A,107792,FL,32504,2019-03-08,Standard,G-0548,3.0,
KINDRED AT HOME,5111 N 12TH AVE STE A,107792,FL,32504,2019-03-08,Standard,G-0572,3.0,
KINDRED AT HOME,5111 N 12TH AVE STE A,107792,FL,32504,2019-03-08,Standard,G-0702,3.0,
"PROFESSIONAL HOME SERVICES, INC.","6001 NW 153RD ST, STE 152",107793,FL,33014,2018-12-06,Standard,E-0006,14.0,
"PROFESSIONAL HOME SERVICES, INC.","6001 NW 153RD ST, STE 152",107793,FL,33014,2018-12-06,Standard,E-0013,14.0,
"PROFESSIONAL HOME SERVICES, INC.","6001 NW 153RD ST, STE 152",107793,FL,33014,2018-12-06,Standard,E-0029,14.0,
"PROFESSIONAL HOME SERVICES, INC.","6001 NW 153RD ST, STE 152",107793,FL,33014,2018-12-06,Standard,E-0032,14.0,
"PROFESSIONAL HOME SERVICES, INC.","6001 NW 153RD ST, STE 152",107793,FL,33014,2018-12-06,Standard,E-0037,14.0,
"PROFESSIONAL HOME SERVICES, INC.","6001 NW 153RD ST, STE 152",107793,FL,33014,2018-12-06,Standard,E-0039,14.0,
"PROFESSIONAL HOME SERVICES, INC.","6001 NW 153RD ST, STE 152",107793,FL,33014,2018-12-06,Standard,G-0536,14.0,
"PROFESSIONAL HOME SERVICES, INC.","6001 NW 153RD ST, STE 152",107793,FL,33014,2018-12-06,Standard,G-0574,14.0,
"PROFESSIONAL HOME SERVICES, INC.","6001 NW 153RD ST, STE 152",107793,FL,33014,2018-12-06,Standard,G-0578,14.0,
"PROFESSIONAL HOME SERVICES, INC.","6001 NW 153RD ST, STE 152",107793,FL,33014,2018-12-06,Standard,G-0710,14.0,
"PROFESSIONAL HOME SERVICES, INC.","6001 NW 153RD ST, STE 152",107793,FL,33014,2018-12-06,Standard,G-0716,14.0,
"PROFESSIONAL HOME SERVICES, INC.","6001 NW 153RD ST, STE 152",107793,FL,33014,2018-12-06,Standard,G-0808,14.0,
"PROFESSIONAL HOME SERVICES, INC.","6001 NW 153RD ST, STE 152",107793,FL,33014,2018-12-06,Standard,G-0812,14.0,
"PROFESSIONAL HOME SERVICES, INC.","6001 NW 153RD ST, STE 152",107793,FL,33014,2018-12-06,Standard,G-0818,14.0,
PINNACLE HOME CARE INC,2505 SEVEN SPRINGS BLVD,107797,FL,34655,2016-09-21,Standard,G-0158,4.0,
PINNACLE HOME CARE INC,2505 SEVEN SPRINGS BLVD,107797,FL,34655,2016-09-21,Standard,G-0170,4.0,
PINNACLE HOME CARE INC,2505 SEVEN SPRINGS BLVD,107797,FL,34655,2016-09-21,Standard,G-0440,4.0,
PINNACLE HOME CARE INC,2505 SEVEN SPRINGS BLVD,107797,FL,34655,2016-09-21,Standard,G-0606,4.0,
DIAMOND HOME HEALTH,1240 MARBELLA PLAZA DR STE 120,108002,FL,33619,2018-06-27,Standard,G-0406,3.0,
DIAMOND HOME HEALTH,1240 MARBELLA PLAZA DR STE 120,108002,FL,33619,2018-06-27,Standard,G-0488,3.0,
DIAMOND HOME HEALTH,1240 MARBELLA PLAZA DR STE 120,108002,FL,33619,2018-06-27,Standard,G-0578,3.0,
AAA HOME HEALTH SERVICES INC,2929 SW 3RD AVE STE 520,108015,FL,33169,2017-11-16,Standard,G-0101,16.0,
AAA HOME HEALTH SERVICES INC,2929 SW 3RD AVE STE 520,108015,FL,33169,2017-11-16,Standard,G-0110,16.0,
AAA HOME HEALTH SERVICES INC,2929 SW 3RD AVE STE 520,108015,FL,33169,2017-11-16,Standard,G-0169,16.0,
AAA HOME HEALTH SERVICES INC,2929 SW 3RD AVE STE 520,108015,FL,33169,2017-11-16,Standard,G-0176,16.0,
AAA HOME HEALTH SERVICES INC,2929 SW 3RD AVE STE 520,108015,FL,33169,2017-11-16,Standard,G-0180,16.0,
AAA HOME HEALTH SERVICES INC,2929 SW 3RD AVE STE 520,108015,FL,33169,2017-11-16,Standard,G-0384,16.0,
AAA HOME HEALTH SERVICES INC,2929 SW 3RD AVE STE 520,108015,FL,33169,2017-11-16,Standard,G-0412,16.0,
AAA HOME HEALTH SERVICES INC,2929 SW 3RD AVE STE 520,108015,FL,33169,2017-11-16,Standard,G-0418,16.0,
AAA HOME HEALTH SERVICES INC,2929 SW 3RD AVE STE 520,108015,FL,33169,2017-11-16,Standard,G-0434,16.0,
AAA HOME HEALTH SERVICES INC,2929 SW 3RD AVE STE 520,108015,FL,33169,2017-11-16,Standard,G-0536,16.0,
AAA HOME HEALTH SERVICES INC,2929 SW 3RD AVE STE 520,108015,FL,33169,2017-11-16,Standard,G-0590,16.0,
AAA HOME HEALTH SERVICES INC,2929 SW 3RD AVE STE 520,108015,FL,33169,2017-11-16,Standard,G-0606,16.0,
AAA HOME HEALTH SERVICES INC,2929 SW 3RD AVE STE 520,108015,FL,33169,2017-11-16,Standard,G-0808,16.0,
AAA HOME HEALTH SERVICES INC,2929 SW 3RD AVE STE 520,108015,FL,33169,2017-11-16,Standard,G-0982,16.0,
AAA HOME HEALTH SERVICES INC,2929 SW 3RD AVE STE 520,108015,FL,33169,2017-11-16,Standard,G-0984,16.0,
AAA HOME HEALTH SERVICES INC,2929 SW 3RD AVE STE 520,108015,FL,33169,2017-11-16,Standard,G-1022,16.0,
PREMIUM HOME HEALTH CARE INC,2760 SW 97TH AVE APT 107,108021,FL,33165,2018-10-24,Standard,E-0006,6.0,
PREMIUM HOME HEALTH CARE INC,2760 SW 97TH AVE APT 107,108021,FL,33165,2018-10-24,Standard,E-0037,6.0,
PREMIUM HOME HEALTH CARE INC,2760 SW 97TH AVE APT 107,108021,FL,33165,2018-10-24,Standard,E-0039,6.0,
PREMIUM HOME HEALTH CARE INC,2760 SW 97TH AVE APT 107,108021,FL,33165,2018-10-24,Standard,G-0574,6.0,
PREMIUM HOME HEALTH CARE INC,2760 SW 97TH AVE APT 107,108021,FL,33165,2018-10-24,Standard,G-0768,6.0,
PREMIUM HOME HEALTH CARE INC,2760 SW 97TH AVE APT 107,108021,FL,33165,2018-10-24,Standard,G-1014,6.0,
NIRVANA HEALTH SERVICES INC,428 N DONNELY ST STE 5,108027,FL,32757,2017-11-16,Standard,G-0158,2.0,
NIRVANA HEALTH SERVICES INC,428 N DONNELY ST STE 5,108027,FL,32757,2017-11-16,Standard,G-0984,2.0,
MEDERI CARETENDERS,3800 W EAU GALLIE BLVD STE 103,108030,FL,32934,2018-08-02,Standard,G-0548,3.0,
MEDERI CARETENDERS,3800 W EAU GALLIE BLVD STE 103,108030,FL,32934,2018-08-02,Standard,G-0580,3.0,
MEDERI CARETENDERS,3800 W EAU GALLIE BLVD STE 103,108030,FL,32934,2018-08-02,Standard,G-1014,3.0,
ALEYDA'S HOME CARE INC,725 71ST ST STE 200,108031,FL,33141,2019-02-21,Standard,E-0006,13.0,
ALEYDA'S HOME CARE INC,725 71ST ST STE 200,108031,FL,33141,2019-02-21,Standard,E-0009,13.0,
ALEYDA'S HOME CARE INC,725 71ST ST STE 200,108031,FL,33141,2019-02-21,Standard,E-0023,13.0,
ALEYDA'S HOME CARE INC,725 71ST ST STE 200,108031,FL,33141,2019-02-21,Standard,E-0024,13.0,
ALEYDA'S HOME CARE INC,725 71ST ST STE 200,108031,FL,33141,2019-02-21,Standard,E-0036,13.0,
ALEYDA'S HOME CARE INC,725 71ST ST STE 200,108031,FL,33141,2019-02-21,Standard,E-0037,13.0,
ALEYDA'S HOME CARE INC,725 71ST ST STE 200,108031,FL,33141,2019-02-21,Standard,E-0039,13.0,
ALEYDA'S HOME CARE INC,725 71ST ST STE 200,108031,FL,33141,2019-02-21,Standard,G-0446,13.0,
ALEYDA'S HOME CARE INC,725 71ST ST STE 200,108031,FL,33141,2019-02-21,Standard,G-0574,13.0,
ALEYDA'S HOME CARE INC,725 71ST ST STE 200,108031,FL,33141,2019-02-21,Standard,G-0768,13.0,
ALEYDA'S HOME CARE INC,725 71ST ST STE 200,108031,FL,33141,2019-02-21,Standard,G-0808,13.0,
ALEYDA'S HOME CARE INC,725 71ST ST STE 200,108031,FL,33141,2019-02-21,Standard,G-0812,13.0,
ALEYDA'S HOME CARE INC,725 71ST ST STE 200,108031,FL,33141,2019-02-21,Standard,G-0818,13.0,
"SOUTH FLORIDA PEDIATRIC HOMECARE, INC.",2452 N UNIVERSITY DR,108038,FL,33024,2016-11-30,Standard,G-0158,2.0,
"SOUTH FLORIDA PEDIATRIC HOMECARE, INC.",2452 N UNIVERSITY DR,108038,FL,33024,2016-11-30,Standard,G-0606,2.0,
FIRSTAT NURSING SERVICES,1801 LEE RD STE 130,108039,FL,32789,2018-06-14,Standard,G-0574,3.0,5.0
FIRSTAT NURSING SERVICES,1801 LEE RD STE 130,108039,FL,32789,2018-06-14,Standard,G-0798,3.0,5.0
FIRSTAT NURSING SERVICES,1801 LEE RD STE 130,108039,FL,32789,2018-06-14,Standard,G-0800,3.0,5.0
FIRSTAT NURSING SERVICES,1801 LEE RD STE 130,108039,FL,32789,2019-03-06,Complaint,G-0610,,5.0
FIRSTAT NURSING SERVICES,1801 LEE RD STE 130,108039,FL,32789,2019-03-06,Complaint,G-0614,,5.0
FIRSTAT NURSING SERVICES,1801 LEE RD STE 130,108039,FL,32789,2019-03-06,Complaint,G-0686,,5.0
FIRSTAT NURSING SERVICES,1801 LEE RD STE 130,108039,FL,32789,2019-03-06,Complaint,G-0710,,5.0
FIRSTAT NURSING SERVICES,1801 LEE RD STE 130,108039,FL,32789,2019-03-06,Complaint,G-1024,,5.0
MEDICAL SERVICES OF AMERICA HOME HEALTH,1209 TECH BLVD STE 202,108040,FL,33619,2017-07-06,Standard,G-0536,1.0,
KINDRED AT HOME,900 MAIN ST STE 301,108045,FL,32159,2019-02-08,Standard,G-0436,1.0,
FLORIDA HOME HEALTH,201 2ND ST E,108049,FL,34208,2017-07-13,Standard,G-0948,2.0,
FLORIDA HOME HEALTH,201 2ND ST E,108049,FL,34208,2017-07-13,Standard,G-0984,2.0,
LUMAR'S HEALTH CARE CORP.,8725 NW 18 TER  STE 102,108050,FL,33172,2018-07-12,Standard,E-0006,9.0,
LUMAR'S HEALTH CARE CORP.,8725 NW 18 TER  STE 102,108050,FL,33172,2018-07-12,Standard,E-0030,9.0,
LUMAR'S HEALTH CARE CORP.,8725 NW 18 TER  STE 102,108050,FL,33172,2018-07-12,Standard,E-0032,9.0,
LUMAR'S HEALTH CARE CORP.,8725 NW 18 TER  STE 102,108050,FL,33172,2018-07-12,Standard,E-0037,9.0,
LUMAR'S HEALTH CARE CORP.,8725 NW 18 TER  STE 102,108050,FL,33172,2018-07-12,Standard,G-0574,9.0,
LUMAR'S HEALTH CARE CORP.,8725 NW 18 TER  STE 102,108050,FL,33172,2018-07-12,Standard,G-0606,9.0,
LUMAR'S HEALTH CARE CORP.,8725 NW 18 TER  STE 102,108050,FL,33172,2018-07-12,Standard,G-0682,9.0,
LUMAR'S HEALTH CARE CORP.,8725 NW 18 TER  STE 102,108050,FL,33172,2018-07-12,Standard,G-0808,9.0,
LUMAR'S HEALTH CARE CORP.,8725 NW 18 TER  STE 102,108050,FL,33172,2018-07-12,Standard,G-0984,9.0,
"ELDERLY HEALTH HOME CARE, INC",665 MILLER DR,108052,FL,33166,2018-10-04,Standard,G-0536,6.0,
"ELDERLY HEALTH HOME CARE, INC",665 MILLER DR,108052,FL,33166,2018-10-04,Standard,G-0574,6.0,
"ELDERLY HEALTH HOME CARE, INC",665 MILLER DR,108052,FL,33166,2018-10-04,Standard,G-0682,6.0,
"ELDERLY HEALTH HOME CARE, INC",665 MILLER DR,108052,FL,33166,2018-10-04,Standard,G-0808,6.0,
"ELDERLY HEALTH HOME CARE, INC",665 MILLER DR,108052,FL,33166,2018-10-04,Standard,G-0984,6.0,
"ELDERLY HEALTH HOME CARE, INC",665 MILLER DR,108052,FL,33166,2018-10-04,Standard,G-1014,6.0,
MEDICAL SERVICES OF AMERICA HOME HEALTH,8641 BAYPINE RD STE 1,108059,FL,32256,2016-09-09,Standard,G-0152,7.0,
MEDICAL SERVICES OF AMERICA HOME HEALTH,8641 BAYPINE RD STE 1,108059,FL,32256,2016-09-09,Standard,G-0158,7.0,
MEDICAL SERVICES OF AMERICA HOME HEALTH,8641 BAYPINE RD STE 1,108059,FL,32256,2016-09-09,Standard,G-0178,7.0,
MEDICAL SERVICES OF AMERICA HOME HEALTH,8641 BAYPINE RD STE 1,108059,FL,32256,2016-09-09,Standard,G-0188,7.0,
MEDICAL SERVICES OF AMERICA HOME HEALTH,8641 BAYPINE RD STE 1,108059,FL,32256,2016-09-09,Standard,G-0590,7.0,
MEDICAL SERVICES OF AMERICA HOME HEALTH,8641 BAYPINE RD STE 1,108059,FL,32256,2016-09-09,Standard,G-0606,7.0,
MEDICAL SERVICES OF AMERICA HOME HEALTH,8641 BAYPINE RD STE 1,108059,FL,32256,2016-09-09,Standard,G-0808,7.0,
BIG LAKE HOME HEALTH SERVICES INC,111 NE 11TH STREET,108060,FL,34972,2019-05-03,Standard,G-0574,1.0,
ANGELS CARE HOME HEALTH,4801 GEORGE RD STE 190,108063,FL,33634,2018-09-28,Standard,E-0031,5.0,
ANGELS CARE HOME HEALTH,4801 GEORGE RD STE 190,108063,FL,33634,2018-09-28,Standard,G-0574,5.0,
ANGELS CARE HOME HEALTH,4801 GEORGE RD STE 190,108063,FL,33634,2018-09-28,Standard,G-0578,5.0,
ANGELS CARE HOME HEALTH,4801 GEORGE RD STE 190,108063,FL,33634,2018-09-28,Standard,G-0710,5.0,
ANGELS CARE HOME HEALTH,4801 GEORGE RD STE 190,108063,FL,33634,2018-09-28,Standard,G-1010,5.0,
APEX HOME HEALTHCARE,6789 SOUTHPOINT PKWY STE 200,108067,FL,32216,2016-09-15,Standard,G-0158,5.0,
APEX HOME HEALTHCARE,6789 SOUTHPOINT PKWY STE 200,108067,FL,32216,2016-09-15,Standard,G-0188,5.0,
APEX HOME HEALTHCARE,6789 SOUTHPOINT PKWY STE 200,108067,FL,32216,2016-09-15,Standard,G-0546,5.0,
APEX HOME HEALTHCARE,6789 SOUTHPOINT PKWY STE 200,108067,FL,32216,2016-09-15,Standard,G-0590,5.0,
APEX HOME HEALTHCARE,6789 SOUTHPOINT PKWY STE 200,108067,FL,32216,2016-09-15,Standard,G-0606,5.0,
PINNACLE HOME CARE OF SPRING HILL INC,5286 APPLEGATE DR,108068,FL,34606,2018-05-10,Standard,G-0660,1.0,
HOSPITAL WITHOUT WALLS,"1200 S FEDERAL HWY, STE 205",108069,FL,33435,2016-12-01,Standard,G-0580,2.0,
HOSPITAL WITHOUT WALLS,"1200 S FEDERAL HWY, STE 205",108069,FL,33435,2016-12-01,Standard,G-0582,2.0,
A & B HOME HEALTH INC,4431 DAVIE RD STE 119,108075,FL,33314,2019-02-28,Standard,G-0616,1.0,
"TRINITY HEALTH CARE SERVICES, INC.",3951 N HAVERHILL RD STE 202-204,108081,FL,33417,2017-01-30,Standard,G-0580,4.0,
"TRINITY HEALTH CARE SERVICES, INC.",3951 N HAVERHILL RD STE 202-204,108081,FL,33417,2017-01-30,Standard,G-0582,4.0,
"TRINITY HEALTH CARE SERVICES, INC.",3951 N HAVERHILL RD STE 202-204,108081,FL,33417,2017-01-30,Standard,G-0606,4.0,
"TRINITY HEALTH CARE SERVICES, INC.",3951 N HAVERHILL RD STE 202-204,108081,FL,33417,2017-01-30,Standard,G-0798,4.0,
"PRO-HEALTH NURSING SERVICES, INC.",2231 N UNIVERSITY DR UNIT C,108085,FL,33024,2018-08-06,Complaint,G-0480,,2.0
"PRO-HEALTH NURSING SERVICES, INC.",2231 N UNIVERSITY DR UNIT C,108085,FL,33024,2018-08-06,Complaint,G-0726,,2.0
AMBAR HOME HEALTH AGENCY INC,633 NE 167TH ST STE 809,108089,FL,33162,2019-04-02,Standard,E-0009,8.0,
AMBAR HOME HEALTH AGENCY INC,633 NE 167TH ST STE 809,108089,FL,33162,2019-04-02,Standard,E-0032,8.0,
AMBAR HOME HEALTH AGENCY INC,633 NE 167TH ST STE 809,108089,FL,33162,2019-04-02,Standard,E-0037,8.0,
AMBAR HOME HEALTH AGENCY INC,633 NE 167TH ST STE 809,108089,FL,33162,2019-04-02,Standard,G-0536,8.0,
AMBAR HOME HEALTH AGENCY INC,633 NE 167TH ST STE 809,108089,FL,33162,2019-04-02,Standard,G-0574,8.0,
AMBAR HOME HEALTH AGENCY INC,633 NE 167TH ST STE 809,108089,FL,33162,2019-04-02,Standard,G-0682,8.0,
AMBAR HOME HEALTH AGENCY INC,633 NE 167TH ST STE 809,108089,FL,33162,2019-04-02,Standard,G-0722,8.0,
AMBAR HOME HEALTH AGENCY INC,633 NE 167TH ST STE 809,108089,FL,33162,2019-04-02,Standard,G-0768,8.0,
FIRSTAT NURSING SERVICES,3201 W COMMERCIAL BLVD STE 114,108092,FL,33309,2017-03-08,Standard,G-0158,2.0,
FIRSTAT NURSING SERVICES,3201 W COMMERCIAL BLVD STE 114,108092,FL,33309,2017-03-08,Standard,G-0176,2.0,
AMERI-CARE PROFESSIONAL SERVICE INC,760 EAST 49TH STREET,108093,FL,33013,2019-01-17,Standard,G-1010,3.0,
AMERI-CARE PROFESSIONAL SERVICE INC,760 EAST 49TH STREET,108093,FL,33013,2019-01-17,Standard,G-1012,3.0,
AMERI-CARE PROFESSIONAL SERVICE INC,760 EAST 49TH STREET,108093,FL,33013,2019-01-17,Standard,G-1024,3.0,
"DISTINGUISHED HOME HEALTH CARE SERVICES, INC.",11011 SHERIDAN ST STE 206,108097,FL,33026,2017-04-27,Standard,G-0798,2.0,
"DISTINGUISHED HOME HEALTH CARE SERVICES, INC.",11011 SHERIDAN ST STE 206,108097,FL,33026,2017-04-27,Standard,G-0984,2.0,
"ABSOLUTE HOME CARE, INC.",8000 N UNIVERSITY DR,108107,FL,33321,2018-01-31,Standard,G-0576,2.0,
"ABSOLUTE HOME CARE, INC.",8000 N UNIVERSITY DR,108107,FL,33321,2018-01-31,Standard,G-0608,2.0,
COASTAL HOME CARE INC,4700 140TH AVE STE C102,108109,FL,33765,2019-03-20,Complaint,G-0590,,2.0
COASTAL HOME CARE INC,4700 140TH AVE STE C102,108109,FL,33765,2019-03-20,Complaint,G-0948,,2.0
HOME HEALTH BY GULF COAST VILLAGE,1435 SANTA BARBARA BLVD UNIT 1,108114,FL,33991,2017-02-09,Standard,G-0145,3.0,
HOME HEALTH BY GULF COAST VILLAGE,1435 SANTA BARBARA BLVD UNIT 1,108114,FL,33991,2017-02-09,Standard,G-0174,3.0,
HOME HEALTH BY GULF COAST VILLAGE,1435 SANTA BARBARA BLVD UNIT 1,108114,FL,33991,2017-02-09,Standard,G-0574,3.0,
SUNCREST OMNI,1617 TENNESSEE AVE,108120,FL,32444,2019-04-25,Standard,G-0526,5.0,
SUNCREST OMNI,1617 TENNESSEE AVE,108120,FL,32444,2019-04-25,Standard,G-0572,5.0,
SUNCREST OMNI,1617 TENNESSEE AVE,108120,FL,32444,2019-04-25,Standard,G-0580,5.0,
SUNCREST OMNI,1617 TENNESSEE AVE,108120,FL,32444,2019-04-25,Standard,G-0590,5.0,
SUNCREST OMNI,1617 TENNESSEE AVE,108120,FL,32444,2019-04-25,Standard,G-0716,5.0,
SOUTHEAST HOMECARE,3125 W COMMERCIAL BLVD STE 110,108138,FL,33309,2018-12-05,Complaint,G-0598,,1.0
"RENAISSANCE HOME HEALTH CARE, INC.",14680 SW 8TH ST STE 206,108150,FL,33184,2018-08-23,Standard,G-0584,3.0,
"RENAISSANCE HOME HEALTH CARE, INC.",14680 SW 8TH ST STE 206,108150,FL,33184,2018-08-23,Standard,G-0818,3.0,
"RENAISSANCE HOME HEALTH CARE, INC.",14680 SW 8TH ST STE 206,108150,FL,33184,2018-08-23,Standard,G-0984,3.0,
SPECIALIZED NURSING SERVICES INC.,17011 NE 6TH AVENUE,108152,FL,33162,2017-06-22,Standard,G-0145,11.0,
SPECIALIZED NURSING SERVICES INC.,17011 NE 6TH AVENUE,108152,FL,33162,2017-06-22,Standard,G-0187,11.0,
SPECIALIZED NURSING SERVICES INC.,17011 NE 6TH AVENUE,108152,FL,33162,2017-06-22,Standard,G-0574,11.0,
SPECIALIZED NURSING SERVICES INC.,17011 NE 6TH AVENUE,108152,FL,33162,2017-06-22,Standard,G-0580,11.0,
SPECIALIZED NURSING SERVICES INC.,17011 NE 6TH AVENUE,108152,FL,33162,2017-06-22,Standard,G-0582,11.0,
SPECIALIZED NURSING SERVICES INC.,17011 NE 6TH AVENUE,108152,FL,33162,2017-06-22,Standard,G-0584,11.0,
SPECIALIZED NURSING SERVICES INC.,17011 NE 6TH AVENUE,108152,FL,33162,2017-06-22,Standard,G-0590,11.0,
SPECIALIZED NURSING SERVICES INC.,17011 NE 6TH AVENUE,108152,FL,33162,2017-06-22,Standard,G-0606,11.0,
SPECIALIZED NURSING SERVICES INC.,17011 NE 6TH AVENUE,108152,FL,33162,2017-06-22,Standard,G-0798,11.0,
SPECIALIZED NURSING SERVICES INC.,17011 NE 6TH AVENUE,108152,FL,33162,2017-06-22,Standard,G-0984,11.0,
SPECIALIZED NURSING SERVICES INC.,17011 NE 6TH AVENUE,108152,FL,33162,2017-06-22,Standard,G-1022,11.0,
MEDICAL SERVICES OF AMERICA HOME HEALTH,2221 LEE RD STE 28,108155,FL,32789,2019-02-06,Standard,G-0444,1.0,
"CARING PROFESSIONAL SERVICES, INC.",1681 W 37TH ST UNITS 13 AND 14,108169,FL,33012,2019-03-29,Standard,G-0414,15.0,
"CARING PROFESSIONAL SERVICES, INC.",1681 W 37TH ST UNITS 13 AND 14,108169,FL,33012,2019-03-29,Standard,G-0446,15.0,
"CARING PROFESSIONAL SERVICES, INC.",1681 W 37TH ST UNITS 13 AND 14,108169,FL,33012,2019-03-29,Standard,G-0536,15.0,
"CARING PROFESSIONAL SERVICES, INC.",1681 W 37TH ST UNITS 13 AND 14,108169,FL,33012,2019-03-29,Standard,G-0574,15.0,
"CARING PROFESSIONAL SERVICES, INC.",1681 W 37TH ST UNITS 13 AND 14,108169,FL,33012,2019-03-29,Standard,G-0578,15.0,
"CARING PROFESSIONAL SERVICES, INC.",1681 W 37TH ST UNITS 13 AND 14,108169,FL,33012,2019-03-29,Standard,G-0608,15.0,
"CARING PROFESSIONAL SERVICES, INC.",1681 W 37TH ST UNITS 13 AND 14,108169,FL,33012,2019-03-29,Standard,G-0622,15.0,
"CARING PROFESSIONAL SERVICES, INC.",1681 W 37TH ST UNITS 13 AND 14,108169,FL,33012,2019-03-29,Standard,G-0682,15.0,
"CARING PROFESSIONAL SERVICES, INC.",1681 W 37TH ST UNITS 13 AND 14,108169,FL,33012,2019-03-29,Standard,G-0710,15.0,
"CARING PROFESSIONAL SERVICES, INC.",1681 W 37TH ST UNITS 13 AND 14,108169,FL,33012,2019-03-29,Standard,G-0716,15.0,
"CARING PROFESSIONAL SERVICES, INC.",1681 W 37TH ST UNITS 13 AND 14,108169,FL,33012,2019-03-29,Standard,G-0808,15.0,
"CARING PROFESSIONAL SERVICES, INC.",1681 W 37TH ST UNITS 13 AND 14,108169,FL,33012,2019-03-29,Standard,G-0982,15.0,
"CARING PROFESSIONAL SERVICES, INC.",1681 W 37TH ST UNITS 13 AND 14,108169,FL,33012,2019-03-29,Standard,G-0984,15.0,
"CARING PROFESSIONAL SERVICES, INC.",1681 W 37TH ST UNITS 13 AND 14,108169,FL,33012,2019-03-29,Standard,G-1010,15.0,
"CARING PROFESSIONAL SERVICES, INC.",1681 W 37TH ST UNITS 13 AND 14,108169,FL,33012,2019-03-29,Standard,G-1012,15.0,
MEDERI CARETENDERS,5260 STATION WAY BLDG B,108171,FL,34233,2017-04-05,Standard,G-0158,1.0,
"AMERICARE HOME HEALTH SERVICES, INC.",5020 TAMIAMI TRL N STE 200,108172,FL,34103,2018-10-31,Complaint,G-0580,,4.0
"AMERICARE HOME HEALTH SERVICES, INC.",5020 TAMIAMI TRL N STE 200,108172,FL,34103,2018-10-31,Complaint,G-0610,,4.0
"AMERICARE HOME HEALTH SERVICES, INC.",5020 TAMIAMI TRL N STE 200,108172,FL,34103,2018-10-31,Complaint,G-0612,,4.0
"AMERICARE HOME HEALTH SERVICES, INC.",5020 TAMIAMI TRL N STE 200,108172,FL,34103,2018-10-31,Complaint,G-0706,,4.0
BEST HOME CARE CORPORATION,9500 NW 77 AVE STE 18,108178,FL,33016,2018-08-16,Standard,E-0004,31.0,
BEST HOME CARE CORPORATION,9500 NW 77 AVE STE 18,108178,FL,33016,2018-08-16,Standard,E-0006,31.0,
BEST HOME CARE CORPORATION,9500 NW 77 AVE STE 18,108178,FL,33016,2018-08-16,Standard,E-0007,31.0,
BEST HOME CARE CORPORATION,9500 NW 77 AVE STE 18,108178,FL,33016,2018-08-16,Standard,E-0009,31.0,
BEST HOME CARE CORPORATION,9500 NW 77 AVE STE 18,108178,FL,33016,2018-08-16,Standard,E-0013,31.0,
BEST HOME CARE CORPORATION,9500 NW 77 AVE STE 18,108178,FL,33016,2018-08-16,Standard,E-0019,31.0,
BEST HOME CARE CORPORATION,9500 NW 77 AVE STE 18,108178,FL,33016,2018-08-16,Standard,E-0021,31.0,
BEST HOME CARE CORPORATION,9500 NW 77 AVE STE 18,108178,FL,33016,2018-08-16,Standard,E-0023,31.0,
BEST HOME CARE CORPORATION,9500 NW 77 AVE STE 18,108178,FL,33016,2018-08-16,Standard,E-0024,31.0,
BEST HOME CARE CORPORATION,9500 NW 77 AVE STE 18,108178,FL,33016,2018-08-16,Standard,E-0029,31.0,
BEST HOME CARE CORPORATION,9500 NW 77 AVE STE 18,108178,FL,33016,2018-08-16,Standard,E-0030,31.0,
BEST HOME CARE CORPORATION,9500 NW 77 AVE STE 18,108178,FL,33016,2018-08-16,Standard,E-0031,31.0,
BEST HOME CARE CORPORATION,9500 NW 77 AVE STE 18,108178,FL,33016,2018-08-16,Standard,E-0032,31.0,
BEST HOME CARE CORPORATION,9500 NW 77 AVE STE 18,108178,FL,33016,2018-08-16,Standard,E-0033,31.0,
BEST HOME CARE CORPORATION,9500 NW 77 AVE STE 18,108178,FL,33016,2018-08-16,Standard,E-0034,31.0,
BEST HOME CARE CORPORATION,9500 NW 77 AVE STE 18,108178,FL,33016,2018-08-16,Standard,E-0036,31.0,
BEST HOME CARE CORPORATION,9500 NW 77 AVE STE 18,108178,FL,33016,2018-08-16,Standard,E-0037,31.0,
BEST HOME CARE CORPORATION,9500 NW 77 AVE STE 18,108178,FL,33016,2018-08-16,Standard,E-0039,31.0,
BEST HOME CARE CORPORATION,9500 NW 77 AVE STE 18,108178,FL,33016,2018-08-16,Standard,G-0372,31.0,
BEST HOME CARE CORPORATION,9500 NW 77 AVE STE 18,108178,FL,33016,2018-08-16,Standard,G-0414,31.0,
BEST HOME CARE CORPORATION,9500 NW 77 AVE STE 18,108178,FL,33016,2018-08-16,Standard,G-0434,31.0,
BEST HOME CARE CORPORATION,9500 NW 77 AVE STE 18,108178,FL,33016,2018-08-16,Standard,G-0442,31.0,
BEST HOME CARE CORPORATION,9500 NW 77 AVE STE 18,108178,FL,33016,2018-08-16,Standard,G-0446,31.0,
BEST HOME CARE CORPORATION,9500 NW 77 AVE STE 18,108178,FL,33016,2018-08-16,Standard,G-0536,31.0,
BEST HOME CARE CORPORATION,9500 NW 77 AVE STE 18,108178,FL,33016,2018-08-16,Standard,G-0574,31.0,
BEST HOME CARE CORPORATION,9500 NW 77 AVE STE 18,108178,FL,33016,2018-08-16,Standard,G-0576,31.0,
BEST HOME CARE CORPORATION,9500 NW 77 AVE STE 18,108178,FL,33016,2018-08-16,Standard,G-0582,31.0,
BEST HOME CARE CORPORATION,9500 NW 77 AVE STE 18,108178,FL,33016,2018-08-16,Standard,G-0586,31.0,
BEST HOME CARE CORPORATION,9500 NW 77 AVE STE 18,108178,FL,33016,2018-08-16,Standard,G-0622,31.0,
BEST HOME CARE CORPORATION,9500 NW 77 AVE STE 18,108178,FL,33016,2018-08-16,Standard,G-1014,31.0,
BEST HOME CARE CORPORATION,9500 NW 77 AVE STE 18,108178,FL,33016,2018-08-16,Standard,G-1022,31.0,
"PALM BEACH HOME HEALTH, INC.",2150 S CONGRESS AVE,108182,FL,33406,2017-03-23,Standard,G-0158,2.0,
"PALM BEACH HOME HEALTH, INC.",2150 S CONGRESS AVE,108182,FL,33406,2017-03-23,Standard,G-0802,2.0,
"AMER-CU HOME CARE, INC.",3271 NW 7TH ST STE 210-212,108192,FL,33125,2018-03-12,Standard,E-0001,27.0,
"AMER-CU HOME CARE, INC.",3271 NW 7TH ST STE 210-212,108192,FL,33125,2018-03-12,Standard,E-0004,27.0,
"AMER-CU HOME CARE, INC.",3271 NW 7TH ST STE 210-212,108192,FL,33125,2018-03-12,Standard,E-0006,27.0,
"AMER-CU HOME CARE, INC.",3271 NW 7TH ST STE 210-212,108192,FL,33125,2018-03-12,Standard,E-0007,27.0,
"AMER-CU HOME CARE, INC.",3271 NW 7TH ST STE 210-212,108192,FL,33125,2018-03-12,Standard,E-0009,27.0,
"AMER-CU HOME CARE, INC.",3271 NW 7TH ST STE 210-212,108192,FL,33125,2018-03-12,Standard,E-0013,27.0,
"AMER-CU HOME CARE, INC.",3271 NW 7TH ST STE 210-212,108192,FL,33125,2018-03-12,Standard,E-0019,27.0,
"AMER-CU HOME CARE, INC.",3271 NW 7TH ST STE 210-212,108192,FL,33125,2018-03-12,Standard,E-0021,27.0,
"AMER-CU HOME CARE, INC.",3271 NW 7TH ST STE 210-212,108192,FL,33125,2018-03-12,Standard,E-0023,27.0,
"AMER-CU HOME CARE, INC.",3271 NW 7TH ST STE 210-212,108192,FL,33125,2018-03-12,Standard,E-0024,27.0,
"AMER-CU HOME CARE, INC.",3271 NW 7TH ST STE 210-212,108192,FL,33125,2018-03-12,Standard,E-0029,27.0,
"AMER-CU HOME CARE, INC.",3271 NW 7TH ST STE 210-212,108192,FL,33125,2018-03-12,Standard,E-0031,27.0,
"AMER-CU HOME CARE, INC.",3271 NW 7TH ST STE 210-212,108192,FL,33125,2018-03-12,Standard,E-0032,27.0,
"AMER-CU HOME CARE, INC.",3271 NW 7TH ST STE 210-212,108192,FL,33125,2018-03-12,Standard,E-0033,27.0,
"AMER-CU HOME CARE, INC.",3271 NW 7TH ST STE 210-212,108192,FL,33125,2018-03-12,Standard,E-0034,27.0,
"AMER-CU HOME CARE, INC.",3271 NW 7TH ST STE 210-212,108192,FL,33125,2018-03-12,Standard,E-0036,27.0,
"AMER-CU HOME CARE, INC.",3271 NW 7TH ST STE 210-212,108192,FL,33125,2018-03-12,Standard,E-0037,27.0,
"AMER-CU HOME CARE, INC.",3271 NW 7TH ST STE 210-212,108192,FL,33125,2018-03-12,Standard,E-0039,27.0,
"AMER-CU HOME CARE, INC.",3271 NW 7TH ST STE 210-212,108192,FL,33125,2018-03-12,Standard,G-0446,27.0,
"AMER-CU HOME CARE, INC.",3271 NW 7TH ST STE 210-212,108192,FL,33125,2018-03-12,Standard,G-0536,27.0,
"AMER-CU HOME CARE, INC.",3271 NW 7TH ST STE 210-212,108192,FL,33125,2018-03-12,Standard,G-0574,27.0,
"AMER-CU HOME CARE, INC.",3271 NW 7TH ST STE 210-212,108192,FL,33125,2018-03-12,Standard,G-0576,27.0,
"AMER-CU HOME CARE, INC.",3271 NW 7TH ST STE 210-212,108192,FL,33125,2018-03-12,Standard,G-0582,27.0,
"AMER-CU HOME CARE, INC.",3271 NW 7TH ST STE 210-212,108192,FL,33125,2018-03-12,Standard,G-0682,27.0,
"AMER-CU HOME CARE, INC.",3271 NW 7TH ST STE 210-212,108192,FL,33125,2018-03-12,Standard,G-0716,27.0,
"AMER-CU HOME CARE, INC.",3271 NW 7TH ST STE 210-212,108192,FL,33125,2018-03-12,Standard,G-0956,27.0,
"AMER-CU HOME CARE, INC.",3271 NW 7TH ST STE 210-212,108192,FL,33125,2018-03-12,Standard,G-0984,27.0,
DOCTORS CHOICE HOME CARE,5979 VINELAND RD STE 315,108195,FL,32819,2017-05-04,Standard,G-0158,2.0,
DOCTORS CHOICE HOME CARE,5979 VINELAND RD STE 315,108195,FL,32819,2017-05-04,Standard,G-0606,2.0,
AT HOME COMPANION OF FLORIDA INC,968 E OSCEOLA PARKWAY,108196,FL,34744,2018-03-21,Standard,E-0006,6.0,
AT HOME COMPANION OF FLORIDA INC,968 E OSCEOLA PARKWAY,108196,FL,34744,2018-03-21,Standard,E-0009,6.0,
AT HOME COMPANION OF FLORIDA INC,968 E OSCEOLA PARKWAY,108196,FL,34744,2018-03-21,Standard,E-0031,6.0,
AT HOME COMPANION OF FLORIDA INC,968 E OSCEOLA PARKWAY,108196,FL,34744,2018-03-21,Standard,E-0032,6.0,
AT HOME COMPANION OF FLORIDA INC,968 E OSCEOLA PARKWAY,108196,FL,34744,2018-03-21,Standard,E-0036,6.0,
AT HOME COMPANION OF FLORIDA INC,968 E OSCEOLA PARKWAY,108196,FL,34744,2018-03-21,Standard,E-0039,6.0,
FLAGLER HOME CARE LLC,301 HEALTH PARK BLVD STE 327,108211,FL,32086,2018-09-06,Complaint,G-1026,,1.0
FLAGLER HOME CARE LLC,301 HEALTH PARK BLVD STE 327,108211,FL,32086,2019-01-10,Standard,G-0432,4.0,1.0
FLAGLER HOME CARE LLC,301 HEALTH PARK BLVD STE 327,108211,FL,32086,2019-01-10,Standard,G-0436,4.0,1.0
FLAGLER HOME CARE LLC,301 HEALTH PARK BLVD STE 327,108211,FL,32086,2019-01-10,Standard,G-0444,4.0,1.0
FLAGLER HOME CARE LLC,301 HEALTH PARK BLVD STE 327,108211,FL,32086,2019-01-10,Standard,G-0536,4.0,1.0
ST VINCENTS HOME HEALTH,2651 PARK ST,108215,FL,32204,2017-06-22,Standard,G-0158,7.0,
ST VINCENTS HOME HEALTH,2651 PARK ST,108215,FL,32204,2017-06-22,Standard,G-0188,7.0,
ST VINCENTS HOME HEALTH,2651 PARK ST,108215,FL,32204,2017-06-22,Standard,G-0476,7.0,
ST VINCENTS HOME HEALTH,2651 PARK ST,108215,FL,32204,2017-06-22,Standard,G-0536,7.0,
ST VINCENTS HOME HEALTH,2651 PARK ST,108215,FL,32204,2017-06-22,Standard,G-0590,7.0,
ST VINCENTS HOME HEALTH,2651 PARK ST,108215,FL,32204,2017-06-22,Standard,G-0606,7.0,
ST VINCENTS HOME HEALTH,2651 PARK ST,108215,FL,32204,2017-06-22,Standard,G-1022,7.0,
HELPING HANDS HOME CARE INC,1740 SE 18TH ST #1103,108226,FL,34471,2017-06-29,Standard,G-0158,3.0,
HELPING HANDS HOME CARE INC,1740 SE 18TH ST #1103,108226,FL,34471,2017-06-29,Standard,G-0984,3.0,
HELPING HANDS HOME CARE INC,1740 SE 18TH ST #1103,108226,FL,34471,2017-06-29,Standard,G-1022,3.0,
BETTER @ HOME,1554 BELLA CRUZ DR,108235,FL,32162,2019-01-31,Standard,G-0682,1.0,
MEDI HOME HEALTH AGENCY,2525 N PALAFOX ST STE B,108240,FL,32501,2018-03-02,Standard,G-0578,7.0,4.0
MEDI HOME HEALTH AGENCY,2525 N PALAFOX ST STE B,108240,FL,32501,2018-03-02,Standard,G-0580,7.0,4.0
MEDI HOME HEALTH AGENCY,2525 N PALAFOX ST STE B,108240,FL,32501,2018-03-02,Standard,G-0590,7.0,4.0
MEDI HOME HEALTH AGENCY,2525 N PALAFOX ST STE B,108240,FL,32501,2018-03-02,Standard,G-0642,7.0,4.0
MEDI HOME HEALTH AGENCY,2525 N PALAFOX ST STE B,108240,FL,32501,2018-03-02,Standard,G-0682,7.0,4.0
MEDI HOME HEALTH AGENCY,2525 N PALAFOX ST STE B,108240,FL,32501,2018-03-02,Standard,G-0710,7.0,4.0
MEDI HOME HEALTH AGENCY,2525 N PALAFOX ST STE B,108240,FL,32501,2018-03-02,Standard,G-0808,7.0,4.0
MEDI HOME HEALTH AGENCY,2525 N PALAFOX ST STE B,108240,FL,32501,2018-11-01,Complaint,G-0580,,4.0
MEDI HOME HEALTH AGENCY,2525 N PALAFOX ST STE B,108240,FL,32501,2018-11-01,Complaint,G-0590,,4.0
MEDI HOME HEALTH AGENCY,2525 N PALAFOX ST STE B,108240,FL,32501,2018-11-01,Complaint,G-0682,,4.0
MEDI HOME HEALTH AGENCY,2525 N PALAFOX ST STE B,108240,FL,32501,2018-11-01,Complaint,G-0702,,4.0
CARE ONE HOME HEALTH INC,5600 SW 135TH AVE STE 211,108248,FL,33183,2018-09-06,Standard,E-0017,24.0,
CARE ONE HOME HEALTH INC,5600 SW 135TH AVE STE 211,108248,FL,33183,2018-09-06,Standard,E-0037,24.0,
CARE ONE HOME HEALTH INC,5600 SW 135TH AVE STE 211,108248,FL,33183,2018-09-06,Standard,G-0440,24.0,
CARE ONE HOME HEALTH INC,5600 SW 135TH AVE STE 211,108248,FL,33183,2018-09-06,Standard,G-0514,24.0,
CARE ONE HOME HEALTH INC,5600 SW 135TH AVE STE 211,108248,FL,33183,2018-09-06,Standard,G-0536,24.0,
CARE ONE HOME HEALTH INC,5600 SW 135TH AVE STE 211,108248,FL,33183,2018-09-06,Standard,G-0574,24.0,
CARE ONE HOME HEALTH INC,5600 SW 135TH AVE STE 211,108248,FL,33183,2018-09-06,Standard,G-0576,24.0,
CARE ONE HOME HEALTH INC,5600 SW 135TH AVE STE 211,108248,FL,33183,2018-09-06,Standard,G-0578,24.0,
CARE ONE HOME HEALTH INC,5600 SW 135TH AVE STE 211,108248,FL,33183,2018-09-06,Standard,G-0582,24.0,
CARE ONE HOME HEALTH INC,5600 SW 135TH AVE STE 211,108248,FL,33183,2018-09-06,Standard,G-0584,24.0,
CARE ONE HOME HEALTH INC,5600 SW 135TH AVE STE 211,108248,FL,33183,2018-09-06,Standard,G-0600,24.0,
CARE ONE HOME HEALTH INC,5600 SW 135TH AVE STE 211,108248,FL,33183,2018-09-06,Standard,G-0608,24.0,
CARE ONE HOME HEALTH INC,5600 SW 135TH AVE STE 211,108248,FL,33183,2018-09-06,Standard,G-0682,24.0,
CARE ONE HOME HEALTH INC,5600 SW 135TH AVE STE 211,108248,FL,33183,2018-09-06,Standard,G-0750,24.0,
CARE ONE HOME HEALTH INC,5600 SW 135TH AVE STE 211,108248,FL,33183,2018-09-06,Standard,G-0768,24.0,
CARE ONE HOME HEALTH INC,5600 SW 135TH AVE STE 211,108248,FL,33183,2018-09-06,Standard,G-0798,24.0,
CARE ONE HOME HEALTH INC,5600 SW 135TH AVE STE 211,108248,FL,33183,2018-09-06,Standard,G-0800,24.0,
CARE ONE HOME HEALTH INC,5600 SW 135TH AVE STE 211,108248,FL,33183,2018-09-06,Standard,G-0808,24.0,
CARE ONE HOME HEALTH INC,5600 SW 135TH AVE STE 211,108248,FL,33183,2018-09-06,Standard,G-0812,24.0,
CARE ONE HOME HEALTH INC,5600 SW 135TH AVE STE 211,108248,FL,33183,2018-09-06,Standard,G-0814,24.0,
CARE ONE HOME HEALTH INC,5600 SW 135TH AVE STE 211,108248,FL,33183,2018-09-06,Standard,G-0818,24.0,
CARE ONE HOME HEALTH INC,5600 SW 135TH AVE STE 211,108248,FL,33183,2018-09-06,Standard,G-0962,24.0,
CARE ONE HOME HEALTH INC,5600 SW 135TH AVE STE 211,108248,FL,33183,2018-09-06,Standard,G-0982,24.0,
CARE ONE HOME HEALTH INC,5600 SW 135TH AVE STE 211,108248,FL,33183,2018-09-06,Standard,G-1018,24.0,
ACE HOME HEALTH SERVICES CORP,175 FONTAINEBLEAU BLVD STE 1P,108250,FL,33172,2018-02-13,Standard,E-0009,15.0,
ACE HOME HEALTH SERVICES CORP,175 FONTAINEBLEAU BLVD STE 1P,108250,FL,33172,2018-02-13,Standard,E-0013,15.0,
ACE HOME HEALTH SERVICES CORP,175 FONTAINEBLEAU BLVD STE 1P,108250,FL,33172,2018-02-13,Standard,E-0019,15.0,
ACE HOME HEALTH SERVICES CORP,175 FONTAINEBLEAU BLVD STE 1P,108250,FL,33172,2018-02-13,Standard,E-0024,15.0,
ACE HOME HEALTH SERVICES CORP,175 FONTAINEBLEAU BLVD STE 1P,108250,FL,33172,2018-02-13,Standard,E-0029,15.0,
ACE HOME HEALTH SERVICES CORP,175 FONTAINEBLEAU BLVD STE 1P,108250,FL,33172,2018-02-13,Standard,E-0031,15.0,
ACE HOME HEALTH SERVICES CORP,175 FONTAINEBLEAU BLVD STE 1P,108250,FL,33172,2018-02-13,Standard,E-0032,15.0,
ACE HOME HEALTH SERVICES CORP,175 FONTAINEBLEAU BLVD STE 1P,108250,FL,33172,2018-02-13,Standard,E-0033,15.0,
ACE HOME HEALTH SERVICES CORP,175 FONTAINEBLEAU BLVD STE 1P,108250,FL,33172,2018-02-13,Standard,E-0034,15.0,
ACE HOME HEALTH SERVICES CORP,175 FONTAINEBLEAU BLVD STE 1P,108250,FL,33172,2018-02-13,Standard,E-0037,15.0,
ACE HOME HEALTH SERVICES CORP,175 FONTAINEBLEAU BLVD STE 1P,108250,FL,33172,2018-02-13,Standard,G-0414,15.0,
ACE HOME HEALTH SERVICES CORP,175 FONTAINEBLEAU BLVD STE 1P,108250,FL,33172,2018-02-13,Standard,G-0446,15.0,
ACE HOME HEALTH SERVICES CORP,175 FONTAINEBLEAU BLVD STE 1P,108250,FL,33172,2018-02-13,Standard,G-0576,15.0,
ACE HOME HEALTH SERVICES CORP,175 FONTAINEBLEAU BLVD STE 1P,108250,FL,33172,2018-02-13,Standard,G-0622,15.0,
ACE HOME HEALTH SERVICES CORP,175 FONTAINEBLEAU BLVD STE 1P,108250,FL,33172,2018-02-13,Standard,G-0716,15.0,
AMERICAN NURSES,1510 E COLONIAL DR STE 101,108258,FL,32803,2017-12-15,Standard,E-0006,16.0,
AMERICAN NURSES,1510 E COLONIAL DR STE 101,108258,FL,32803,2017-12-15,Standard,E-0013,16.0,
AMERICAN NURSES,1510 E COLONIAL DR STE 101,108258,FL,32803,2017-12-15,Standard,E-0019,16.0,
AMERICAN NURSES,1510 E COLONIAL DR STE 101,108258,FL,32803,2017-12-15,Standard,E-0036,16.0,
AMERICAN NURSES,1510 E COLONIAL DR STE 101,108258,FL,32803,2017-12-15,Standard,E-0039,16.0,
AMERICAN NURSES,1510 E COLONIAL DR STE 101,108258,FL,32803,2017-12-15,Standard,G-0142,16.0,
AMERICAN NURSES,1510 E COLONIAL DR STE 101,108258,FL,32803,2017-12-15,Standard,G-0158,16.0,
AMERICAN NURSES,1510 E COLONIAL DR STE 101,108258,FL,32803,2017-12-15,Standard,G-0242,16.0,
AMERICAN NURSES,1510 E COLONIAL DR STE 101,108258,FL,32803,2017-12-15,Standard,G-0243,16.0,
AMERICAN NURSES,1510 E COLONIAL DR STE 101,108258,FL,32803,2017-12-15,Standard,G-0370,16.0,
AMERICAN NURSES,1510 E COLONIAL DR STE 101,108258,FL,32803,2017-12-15,Standard,G-0384,16.0,
AMERICAN NURSES,1510 E COLONIAL DR STE 101,108258,FL,32803,2017-12-15,Standard,G-0580,16.0,
AMERICAN NURSES,1510 E COLONIAL DR STE 101,108258,FL,32803,2017-12-15,Standard,G-0582,16.0,
AMERICAN NURSES,1510 E COLONIAL DR STE 101,108258,FL,32803,2017-12-15,Standard,G-0726,16.0,
AMERICAN NURSES,1510 E COLONIAL DR STE 101,108258,FL,32803,2017-12-15,Standard,G-0940,16.0,
AMERICAN NURSES,1510 E COLONIAL DR STE 101,108258,FL,32803,2017-12-15,Standard,G-0948,16.0,
"HOME CARE RESOURCES HOME HEALTH AGENCY, INC.",5979 NW 151ST STREET STE 234,108265,FL,33014,2018-06-14,Standard,E-0001,24.0,
"HOME CARE RESOURCES HOME HEALTH AGENCY, INC.",5979 NW 151ST STREET STE 234,108265,FL,33014,2018-06-14,Standard,E-0004,24.0,
"HOME CARE RESOURCES HOME HEALTH AGENCY, INC.",5979 NW 151ST STREET STE 234,108265,FL,33014,2018-06-14,Standard,E-0006,24.0,
"HOME CARE RESOURCES HOME HEALTH AGENCY, INC.",5979 NW 151ST STREET STE 234,108265,FL,33014,2018-06-14,Standard,E-0007,24.0,
"HOME CARE RESOURCES HOME HEALTH AGENCY, INC.",5979 NW 151ST STREET STE 234,108265,FL,33014,2018-06-14,Standard,E-0009,24.0,
"HOME CARE RESOURCES HOME HEALTH AGENCY, INC.",5979 NW 151ST STREET STE 234,108265,FL,33014,2018-06-14,Standard,E-0013,24.0,
"HOME CARE RESOURCES HOME HEALTH AGENCY, INC.",5979 NW 151ST STREET STE 234,108265,FL,33014,2018-06-14,Standard,E-0019,24.0,
"HOME CARE RESOURCES HOME HEALTH AGENCY, INC.",5979 NW 151ST STREET STE 234,108265,FL,33014,2018-06-14,Standard,E-0021,24.0,
"HOME CARE RESOURCES HOME HEALTH AGENCY, INC.",5979 NW 151ST STREET STE 234,108265,FL,33014,2018-06-14,Standard,E-0023,24.0,
"HOME CARE RESOURCES HOME HEALTH AGENCY, INC.",5979 NW 151ST STREET STE 234,108265,FL,33014,2018-06-14,Standard,E-0024,24.0,
"HOME CARE RESOURCES HOME HEALTH AGENCY, INC.",5979 NW 151ST STREET STE 234,108265,FL,33014,2018-06-14,Standard,E-0029,24.0,
"HOME CARE RESOURCES HOME HEALTH AGENCY, INC.",5979 NW 151ST STREET STE 234,108265,FL,33014,2018-06-14,Standard,E-0030,24.0,
"HOME CARE RESOURCES HOME HEALTH AGENCY, INC.",5979 NW 151ST STREET STE 234,108265,FL,33014,2018-06-14,Standard,E-0031,24.0,
"HOME CARE RESOURCES HOME HEALTH AGENCY, INC.",5979 NW 151ST STREET STE 234,108265,FL,33014,2018-06-14,Standard,E-0032,24.0,
"HOME CARE RESOURCES HOME HEALTH AGENCY, INC.",5979 NW 151ST STREET STE 234,108265,FL,33014,2018-06-14,Standard,E-0033,24.0,
"HOME CARE RESOURCES HOME HEALTH AGENCY, INC.",5979 NW 151ST STREET STE 234,108265,FL,33014,2018-06-14,Standard,E-0034,24.0,
"HOME CARE RESOURCES HOME HEALTH AGENCY, INC.",5979 NW 151ST STREET STE 234,108265,FL,33014,2018-06-14,Standard,E-0036,24.0,
"HOME CARE RESOURCES HOME HEALTH AGENCY, INC.",5979 NW 151ST STREET STE 234,108265,FL,33014,2018-06-14,Standard,E-0037,24.0,
"HOME CARE RESOURCES HOME HEALTH AGENCY, INC.",5979 NW 151ST STREET STE 234,108265,FL,33014,2018-06-14,Standard,E-0039,24.0,
"HOME CARE RESOURCES HOME HEALTH AGENCY, INC.",5979 NW 151ST STREET STE 234,108265,FL,33014,2018-06-14,Standard,G-0414,24.0,
"HOME CARE RESOURCES HOME HEALTH AGENCY, INC.",5979 NW 151ST STREET STE 234,108265,FL,33014,2018-06-14,Standard,G-0446,24.0,
"HOME CARE RESOURCES HOME HEALTH AGENCY, INC.",5979 NW 151ST STREET STE 234,108265,FL,33014,2018-06-14,Standard,G-0574,24.0,
"HOME CARE RESOURCES HOME HEALTH AGENCY, INC.",5979 NW 151ST STREET STE 234,108265,FL,33014,2018-06-14,Standard,G-0584,24.0,
"HOME CARE RESOURCES HOME HEALTH AGENCY, INC.",5979 NW 151ST STREET STE 234,108265,FL,33014,2018-06-14,Standard,G-0984,24.0,
ADVANTIS HOME CARE INC,7260 SW 39TH TER UNIT A,108275,FL,33155,2019-01-03,Complaint,G-0434,,10.0
ADVANTIS HOME CARE INC,7260 SW 39TH TER UNIT A,108275,FL,33155,2019-01-03,Complaint,G-0436,,10.0
ADVANTIS HOME CARE INC,7260 SW 39TH TER UNIT A,108275,FL,33155,2019-01-03,Complaint,G-0572,,10.0
ADVANTIS HOME CARE INC,7260 SW 39TH TER UNIT A,108275,FL,33155,2019-01-03,Complaint,G-0574,,10.0
ADVANTIS HOME CARE INC,7260 SW 39TH TER UNIT A,108275,FL,33155,2019-01-03,Complaint,G-0578,,10.0
ADVANTIS HOME CARE INC,7260 SW 39TH TER UNIT A,108275,FL,33155,2019-01-03,Complaint,G-0580,,10.0
ADVANTIS HOME CARE INC,7260 SW 39TH TER UNIT A,108275,FL,33155,2019-01-03,Complaint,G-0590,,10.0
ADVANTIS HOME CARE INC,7260 SW 39TH TER UNIT A,108275,FL,33155,2019-01-03,Complaint,G-0600,,10.0
ADVANTIS HOME CARE INC,7260 SW 39TH TER UNIT A,108275,FL,33155,2019-01-03,Complaint,G-0710,,10.0
ADVANTIS HOME CARE INC,7260 SW 39TH TER UNIT A,108275,FL,33155,2019-01-03,Complaint,G-0984,,10.0
THE NURSES GUILD,2261 NE 36 ST STE 1,108276,FL,33064,2017-11-02,Standard,G-0175,3.0,
THE NURSES GUILD,2261 NE 36 ST STE 1,108276,FL,33064,2017-11-02,Standard,G-0182,3.0,
THE NURSES GUILD,2261 NE 36 ST STE 1,108276,FL,33064,2017-11-02,Standard,G-0574,3.0,
ANGELS CARE HOME HEALTH INC,2260 SW 8TH ST STE 301,108289,FL,33125,2019-03-21,Standard,E-0006,10.0,
ANGELS CARE HOME HEALTH INC,2260 SW 8TH ST STE 301,108289,FL,33125,2019-03-21,Standard,E-0009,10.0,
ANGELS CARE HOME HEALTH INC,2260 SW 8TH ST STE 301,108289,FL,33125,2019-03-21,Standard,E-0013,10.0,
ANGELS CARE HOME HEALTH INC,2260 SW 8TH ST STE 301,108289,FL,33125,2019-03-21,Standard,E-0039,10.0,
ANGELS CARE HOME HEALTH INC,2260 SW 8TH ST STE 301,108289,FL,33125,2019-03-21,Standard,G-0536,10.0,
ANGELS CARE HOME HEALTH INC,2260 SW 8TH ST STE 301,108289,FL,33125,2019-03-21,Standard,G-0574,10.0,
ANGELS CARE HOME HEALTH INC,2260 SW 8TH ST STE 301,108289,FL,33125,2019-03-21,Standard,G-0582,10.0,
ANGELS CARE HOME HEALTH INC,2260 SW 8TH ST STE 301,108289,FL,33125,2019-03-21,Standard,G-0798,10.0,
ANGELS CARE HOME HEALTH INC,2260 SW 8TH ST STE 301,108289,FL,33125,2019-03-21,Standard,G-0814,10.0,
ANGELS CARE HOME HEALTH INC,2260 SW 8TH ST STE 301,108289,FL,33125,2019-03-21,Standard,G-1012,10.0,
PINNACLE HOME CARE OF PINELLAS INC,1787 S PINELLAS AVE STE 600,108290,FL,34689,2018-01-11,Standard,G-0158,3.0,
PINNACLE HOME CARE OF PINELLAS INC,1787 S PINELLAS AVE STE 600,108290,FL,34689,2018-01-11,Standard,G-0580,3.0,
PINNACLE HOME CARE OF PINELLAS INC,1787 S PINELLAS AVE STE 600,108290,FL,34689,2018-01-11,Standard,G-0582,3.0,
HOSPITAL WITHOUT WALLS OF BROWARD INC,2310 NW THIRD AVE  STE 8,108297,FL,33060,2017-11-02,Standard,G-0170,1.0,
PALMS HOME CARE,1570 LAKEVIEW DR  UNIT H-STE 100,108305,FL,33870,2018-03-08,Standard,G-0454,2.0,
PALMS HOME CARE,1570 LAKEVIEW DR  UNIT H-STE 100,108305,FL,33870,2018-03-08,Standard,G-0608,2.0,
"RELIANCE HOME HEALTH CARE, LLC",3918 VIA POINCIANA DR STE 7,108315,FL,33467,2018-01-11,Standard,G-0170,1.0,
CONCIERGE HOME CARE,620 S LAKE ST  STE 3,108320,FL,34748,2017-04-27,Standard,G-0186,2.0,1.0
CONCIERGE HOME CARE,620 S LAKE ST  STE 3,108320,FL,34748,2017-04-27,Standard,G-0606,2.0,1.0
CONCIERGE HOME CARE,620 S LAKE ST  STE 3,108320,FL,34748,2019-01-02,Complaint,G-0598,,1.0
PREFERRED HOME HEALTH AGENCY INC,13831 SW 59 STREET SUITE 105,108322,FL,33183,2018-07-26,Standard,E-0009,14.0,
PREFERRED HOME HEALTH AGENCY INC,13831 SW 59 STREET SUITE 105,108322,FL,33183,2018-07-26,Standard,E-0030,14.0,
PREFERRED HOME HEALTH AGENCY INC,13831 SW 59 STREET SUITE 105,108322,FL,33183,2018-07-26,Standard,E-0039,14.0,
PREFERRED HOME HEALTH AGENCY INC,13831 SW 59 STREET SUITE 105,108322,FL,33183,2018-07-26,Standard,G-0372,14.0,
PREFERRED HOME HEALTH AGENCY INC,13831 SW 59 STREET SUITE 105,108322,FL,33183,2018-07-26,Standard,G-0536,14.0,
PREFERRED HOME HEALTH AGENCY INC,13831 SW 59 STREET SUITE 105,108322,FL,33183,2018-07-26,Standard,G-0546,14.0,
PREFERRED HOME HEALTH AGENCY INC,13831 SW 59 STREET SUITE 105,108322,FL,33183,2018-07-26,Standard,G-0574,14.0,
PREFERRED HOME HEALTH AGENCY INC,13831 SW 59 STREET SUITE 105,108322,FL,33183,2018-07-26,Standard,G-0582,14.0,
PREFERRED HOME HEALTH AGENCY INC,13831 SW 59 STREET SUITE 105,108322,FL,33183,2018-07-26,Standard,G-0682,14.0,
PREFERRED HOME HEALTH AGENCY INC,13831 SW 59 STREET SUITE 105,108322,FL,33183,2018-07-26,Standard,G-0716,14.0,
PREFERRED HOME HEALTH AGENCY INC,13831 SW 59 STREET SUITE 105,108322,FL,33183,2018-07-26,Standard,G-0768,14.0,
PREFERRED HOME HEALTH AGENCY INC,13831 SW 59 STREET SUITE 105,108322,FL,33183,2018-07-26,Standard,G-0800,14.0,
PREFERRED HOME HEALTH AGENCY INC,13831 SW 59 STREET SUITE 105,108322,FL,33183,2018-07-26,Standard,G-0812,14.0,
PREFERRED HOME HEALTH AGENCY INC,13831 SW 59 STREET SUITE 105,108322,FL,33183,2018-07-26,Standard,G-0984,14.0,
SERENITY HOME HEALTH CARE INC,7925 NW 12 ST   STE 101,108324,FL,33126,2018-03-19,Complaint,G-0550,,11.0
SERENITY HOME HEALTH CARE INC,7925 NW 12 ST   STE 101,108324,FL,33126,2018-03-19,Complaint,G-0574,,11.0
SERENITY HOME HEALTH CARE INC,7925 NW 12 ST   STE 101,108324,FL,33126,2018-03-19,Complaint,G-0584,,11.0
SERENITY HOME HEALTH CARE INC,7925 NW 12 ST   STE 101,108324,FL,33126,2018-03-19,Complaint,G-0588,,11.0
SERENITY HOME HEALTH CARE INC,7925 NW 12 ST   STE 101,108324,FL,33126,2018-03-19,Complaint,G-0590,,11.0
SERENITY HOME HEALTH CARE INC,7925 NW 12 ST   STE 101,108324,FL,33126,2018-03-19,Complaint,G-0606,,11.0
SERENITY HOME HEALTH CARE INC,7925 NW 12 ST   STE 101,108324,FL,33126,2018-03-19,Complaint,G-0716,,11.0
SERENITY HOME HEALTH CARE INC,7925 NW 12 ST   STE 101,108324,FL,33126,2018-03-19,Complaint,G-0726,,11.0
SERENITY HOME HEALTH CARE INC,7925 NW 12 ST   STE 101,108324,FL,33126,2018-03-19,Complaint,G-0798,,11.0
SERENITY HOME HEALTH CARE INC,7925 NW 12 ST   STE 101,108324,FL,33126,2018-03-19,Complaint,G-0808,,11.0
SERENITY HOME HEALTH CARE INC,7925 NW 12 ST   STE 101,108324,FL,33126,2018-03-19,Complaint,G-0968,,11.0
LAKESIDE QUALITY HOME HEALTH CARE INC,725 E MAIN ST STE B,108327,FL,33476,2018-01-31,Standard,G-0680,6.0,
LAKESIDE QUALITY HOME HEALTH CARE INC,725 E MAIN ST STE B,108327,FL,33476,2018-01-31,Standard,G-0682,6.0,
LAKESIDE QUALITY HOME HEALTH CARE INC,725 E MAIN ST STE B,108327,FL,33476,2018-01-31,Standard,G-0700,6.0,
LAKESIDE QUALITY HOME HEALTH CARE INC,725 E MAIN ST STE B,108327,FL,33476,2018-01-31,Standard,G-0702,6.0,
LAKESIDE QUALITY HOME HEALTH CARE INC,725 E MAIN ST STE B,108327,FL,33476,2018-01-31,Standard,G-0940,6.0,
LAKESIDE QUALITY HOME HEALTH CARE INC,725 E MAIN ST STE B,108327,FL,33476,2018-01-31,Standard,G-0984,6.0,
PERFECT CARE INC,5795-B NW 151 ST,108330,FL,33014,2017-02-02,Standard,G-0158,10.0,
PERFECT CARE INC,5795-B NW 151 ST,108330,FL,33014,2017-02-02,Standard,G-0169,10.0,
PERFECT CARE INC,5795-B NW 151 ST,108330,FL,33014,2017-02-02,Standard,G-0187,10.0,
PERFECT CARE INC,5795-B NW 151 ST,108330,FL,33014,2017-02-02,Standard,G-0384,10.0,
PERFECT CARE INC,5795-B NW 151 ST,108330,FL,33014,2017-02-02,Standard,G-0536,10.0,
PERFECT CARE INC,5795-B NW 151 ST,108330,FL,33014,2017-02-02,Standard,G-0574,10.0,
PERFECT CARE INC,5795-B NW 151 ST,108330,FL,33014,2017-02-02,Standard,G-0606,10.0,
PERFECT CARE INC,5795-B NW 151 ST,108330,FL,33014,2017-02-02,Standard,G-0808,10.0,
PERFECT CARE INC,5795-B NW 151 ST,108330,FL,33014,2017-02-02,Standard,G-0984,10.0,
PERFECT CARE INC,5795-B NW 151 ST,108330,FL,33014,2017-02-02,Standard,G-1022,10.0,
ABBEY HOME HEALTH CARE INC,7800 W OAKLAND PARK BLVD STE E115,108334,FL,33351,2017-12-18,Standard,G-0814,1.0,
SANTA FE HOME HEALTH CARE INC,7280 NW 7TH ST STE 108,108339,FL,33126,2017-03-23,Standard,G-0984,1.0,
AMERICAN HOME HEALTH CARE CORP,12150 SW 128 CT STE 137,108345,FL,33186,2018-07-05,Standard,E-0001,23.0,
AMERICAN HOME HEALTH CARE CORP,12150 SW 128 CT STE 137,108345,FL,33186,2018-07-05,Standard,E-0004,23.0,
AMERICAN HOME HEALTH CARE CORP,12150 SW 128 CT STE 137,108345,FL,33186,2018-07-05,Standard,E-0006,23.0,
AMERICAN HOME HEALTH CARE CORP,12150 SW 128 CT STE 137,108345,FL,33186,2018-07-05,Standard,E-0007,23.0,
AMERICAN HOME HEALTH CARE CORP,12150 SW 128 CT STE 137,108345,FL,33186,2018-07-05,Standard,E-0009,23.0,
AMERICAN HOME HEALTH CARE CORP,12150 SW 128 CT STE 137,108345,FL,33186,2018-07-05,Standard,E-0013,23.0,
AMERICAN HOME HEALTH CARE CORP,12150 SW 128 CT STE 137,108345,FL,33186,2018-07-05,Standard,E-0021,23.0,
AMERICAN HOME HEALTH CARE CORP,12150 SW 128 CT STE 137,108345,FL,33186,2018-07-05,Standard,E-0024,23.0,
AMERICAN HOME HEALTH CARE CORP,12150 SW 128 CT STE 137,108345,FL,33186,2018-07-05,Standard,E-0029,23.0,
AMERICAN HOME HEALTH CARE CORP,12150 SW 128 CT STE 137,108345,FL,33186,2018-07-05,Standard,E-0031,23.0,
AMERICAN HOME HEALTH CARE CORP,12150 SW 128 CT STE 137,108345,FL,33186,2018-07-05,Standard,E-0032,23.0,
AMERICAN HOME HEALTH CARE CORP,12150 SW 128 CT STE 137,108345,FL,33186,2018-07-05,Standard,E-0033,23.0,
AMERICAN HOME HEALTH CARE CORP,12150 SW 128 CT STE 137,108345,FL,33186,2018-07-05,Standard,E-0036,23.0,
AMERICAN HOME HEALTH CARE CORP,12150 SW 128 CT STE 137,108345,FL,33186,2018-07-05,Standard,E-0037,23.0,
AMERICAN HOME HEALTH CARE CORP,12150 SW 128 CT STE 137,108345,FL,33186,2018-07-05,Standard,E-0039,23.0,
AMERICAN HOME HEALTH CARE CORP,12150 SW 128 CT STE 137,108345,FL,33186,2018-07-05,Standard,G-0446,23.0,
AMERICAN HOME HEALTH CARE CORP,12150 SW 128 CT STE 137,108345,FL,33186,2018-07-05,Standard,G-0536,23.0,
AMERICAN HOME HEALTH CARE CORP,12150 SW 128 CT STE 137,108345,FL,33186,2018-07-05,Standard,G-0574,23.0,
AMERICAN HOME HEALTH CARE CORP,12150 SW 128 CT STE 137,108345,FL,33186,2018-07-05,Standard,G-0582,23.0,
AMERICAN HOME HEALTH CARE CORP,12150 SW 128 CT STE 137,108345,FL,33186,2018-07-05,Standard,G-0682,23.0,
AMERICAN HOME HEALTH CARE CORP,12150 SW 128 CT STE 137,108345,FL,33186,2018-07-05,Standard,G-0808,23.0,
AMERICAN HOME HEALTH CARE CORP,12150 SW 128 CT STE 137,108345,FL,33186,2018-07-05,Standard,G-0952,23.0,
AMERICAN HOME HEALTH CARE CORP,12150 SW 128 CT STE 137,108345,FL,33186,2018-07-05,Standard,G-0982,23.0,
"INTEGRAL HOME HEALTH AGENCY, INC.",4471 NW 36TH ST STE 218,108348,FL,33166,2017-01-25,Standard,G-0434,1.0,
"HIGHLITE HOME CARE, INC.",5700 N FEDERAL HWY STE 2,108372,FL,33308,2018-09-07,Standard,G-0526,2.0,
"HIGHLITE HOME CARE, INC.",5700 N FEDERAL HWY STE 2,108372,FL,33308,2018-09-07,Standard,G-0682,2.0,
CAIRO HOME CARE INC,123 NW 13TH STREET STE 304-04,108376,FL,33432,2017-02-15,Standard,G-0434,3.0,
CAIRO HOME CARE INC,123 NW 13TH STREET STE 304-04,108376,FL,33432,2017-02-15,Standard,G-0606,3.0,
CAIRO HOME CARE INC,123 NW 13TH STREET STE 304-04,108376,FL,33432,2017-02-15,Standard,G-0984,3.0,
VILLAGE HOME CARE OF THE PALM BEACHES LLC,1901 S CONGRESS AVE STE 360,108378,FL,33426,2018-06-15,Standard,G-0574,3.0,
VILLAGE HOME CARE OF THE PALM BEACHES LLC,1901 S CONGRESS AVE STE 360,108378,FL,33426,2018-06-15,Standard,G-0584,3.0,
VILLAGE HOME CARE OF THE PALM BEACHES LLC,1901 S CONGRESS AVE STE 360,108378,FL,33426,2018-06-15,Standard,G-0682,3.0,
PATIENT'S CHOICE HOME HEALTH CARE INC,9360 SUNSET DRIVE STE 260,108379,FL,33173,2018-10-25,Standard,E-0017,11.0,
PATIENT'S CHOICE HOME HEALTH CARE INC,9360 SUNSET DRIVE STE 260,108379,FL,33173,2018-10-25,Standard,E-0024,11.0,
PATIENT'S CHOICE HOME HEALTH CARE INC,9360 SUNSET DRIVE STE 260,108379,FL,33173,2018-10-25,Standard,E-0036,11.0,
PATIENT'S CHOICE HOME HEALTH CARE INC,9360 SUNSET DRIVE STE 260,108379,FL,33173,2018-10-25,Standard,E-0039,11.0,
PATIENT'S CHOICE HOME HEALTH CARE INC,9360 SUNSET DRIVE STE 260,108379,FL,33173,2018-10-25,Standard,G-0446,11.0,
PATIENT'S CHOICE HOME HEALTH CARE INC,9360 SUNSET DRIVE STE 260,108379,FL,33173,2018-10-25,Standard,G-0514,11.0,
PATIENT'S CHOICE HOME HEALTH CARE INC,9360 SUNSET DRIVE STE 260,108379,FL,33173,2018-10-25,Standard,G-0572,11.0,
PATIENT'S CHOICE HOME HEALTH CARE INC,9360 SUNSET DRIVE STE 260,108379,FL,33173,2018-10-25,Standard,G-0722,11.0,
PATIENT'S CHOICE HOME HEALTH CARE INC,9360 SUNSET DRIVE STE 260,108379,FL,33173,2018-10-25,Standard,G-0774,11.0,
PATIENT'S CHOICE HOME HEALTH CARE INC,9360 SUNSET DRIVE STE 260,108379,FL,33173,2018-10-25,Standard,G-0798,11.0,
PATIENT'S CHOICE HOME HEALTH CARE INC,9360 SUNSET DRIVE STE 260,108379,FL,33173,2018-10-25,Standard,G-0982,11.0,
"ALL THE BEST HOME HEALTH SERVICES, INC.",639 E OCEAN AVE  STE 303,108381,FL,33435,2018-09-12,Standard,E-0006,4.0,
"ALL THE BEST HOME HEALTH SERVICES, INC.",639 E OCEAN AVE  STE 303,108381,FL,33435,2018-09-12,Standard,E-0017,4.0,
"ALL THE BEST HOME HEALTH SERVICES, INC.",639 E OCEAN AVE  STE 303,108381,FL,33435,2018-09-12,Standard,E-0019,4.0,
"ALL THE BEST HOME HEALTH SERVICES, INC.",639 E OCEAN AVE  STE 303,108381,FL,33435,2018-09-12,Standard,E-0031,4.0,
KIDCARE NURSING SERVICES,6187 NW 167TH ST UNIT H-23,108387,FL,33015,2018-10-18,Standard,E-0001,46.0,4.0
KIDCARE NURSING SERVICES,6187 NW 167TH ST UNIT H-23,108387,FL,33015,2018-10-18,Standard,E-0004,46.0,4.0
KIDCARE NURSING SERVICES,6187 NW 167TH ST UNIT H-23,108387,FL,33015,2018-10-18,Standard,E-0006,46.0,4.0
KIDCARE NURSING SERVICES,6187 NW 167TH ST UNIT H-23,108387,FL,33015,2018-10-18,Standard,E-0007,46.0,4.0
KIDCARE NURSING SERVICES,6187 NW 167TH ST UNIT H-23,108387,FL,33015,2018-10-18,Standard,E-0009,46.0,4.0
KIDCARE NURSING SERVICES,6187 NW 167TH ST UNIT H-23,108387,FL,33015,2018-10-18,Standard,E-0013,46.0,4.0
KIDCARE NURSING SERVICES,6187 NW 167TH ST UNIT H-23,108387,FL,33015,2018-10-18,Standard,E-0019,46.0,4.0
KIDCARE NURSING SERVICES,6187 NW 167TH ST UNIT H-23,108387,FL,33015,2018-10-18,Standard,E-0021,46.0,4.0
KIDCARE NURSING SERVICES,6187 NW 167TH ST UNIT H-23,108387,FL,33015,2018-10-18,Standard,E-0023,46.0,4.0
KIDCARE NURSING SERVICES,6187 NW 167TH ST UNIT H-23,108387,FL,33015,2018-10-18,Standard,E-0024,46.0,4.0
KIDCARE NURSING SERVICES,6187 NW 167TH ST UNIT H-23,108387,FL,33015,2018-10-18,Standard,E-0029,46.0,4.0
KIDCARE NURSING SERVICES,6187 NW 167TH ST UNIT H-23,108387,FL,33015,2018-10-18,Standard,E-0030,46.0,4.0
KIDCARE NURSING SERVICES,6187 NW 167TH ST UNIT H-23,108387,FL,33015,2018-10-18,Standard,E-0031,46.0,4.0
KIDCARE NURSING SERVICES,6187 NW 167TH ST UNIT H-23,108387,FL,33015,2018-10-18,Standard,E-0032,46.0,4.0
KIDCARE NURSING SERVICES,6187 NW 167TH ST UNIT H-23,108387,FL,33015,2018-10-18,Standard,E-0033,46.0,4.0
KIDCARE NURSING SERVICES,6187 NW 167TH ST UNIT H-23,108387,FL,33015,2018-10-18,Standard,E-0034,46.0,4.0
KIDCARE NURSING SERVICES,6187 NW 167TH ST UNIT H-23,108387,FL,33015,2018-10-18,Standard,E-0036,46.0,4.0
KIDCARE NURSING SERVICES,6187 NW 167TH ST UNIT H-23,108387,FL,33015,2018-10-18,Standard,E-0037,46.0,4.0
KIDCARE NURSING SERVICES,6187 NW 167TH ST UNIT H-23,108387,FL,33015,2018-10-18,Standard,E-0039,46.0,4.0
KIDCARE NURSING SERVICES,6187 NW 167TH ST UNIT H-23,108387,FL,33015,2018-10-18,Standard,G-0372,46.0,4.0
KIDCARE NURSING SERVICES,6187 NW 167TH ST UNIT H-23,108387,FL,33015,2018-10-18,Standard,G-0414,46.0,4.0
KIDCARE NURSING SERVICES,6187 NW 167TH ST UNIT H-23,108387,FL,33015,2018-10-18,Standard,G-0446,46.0,4.0
KIDCARE NURSING SERVICES,6187 NW 167TH ST UNIT H-23,108387,FL,33015,2018-10-18,Standard,G-0536,46.0,4.0
KIDCARE NURSING SERVICES,6187 NW 167TH ST UNIT H-23,108387,FL,33015,2018-10-18,Standard,G-0546,46.0,4.0
KIDCARE NURSING SERVICES,6187 NW 167TH ST UNIT H-23,108387,FL,33015,2018-10-18,Standard,G-0574,46.0,4.0
KIDCARE NURSING SERVICES,6187 NW 167TH ST UNIT H-23,108387,FL,33015,2018-10-18,Standard,G-0576,46.0,4.0
KIDCARE NURSING SERVICES,6187 NW 167TH ST UNIT H-23,108387,FL,33015,2018-10-18,Standard,G-0582,46.0,4.0
KIDCARE NURSING SERVICES,6187 NW 167TH ST UNIT H-23,108387,FL,33015,2018-10-18,Standard,G-0586,46.0,4.0
KIDCARE NURSING SERVICES,6187 NW 167TH ST UNIT H-23,108387,FL,33015,2018-10-18,Standard,G-0590,46.0,4.0
KIDCARE NURSING SERVICES,6187 NW 167TH ST UNIT H-23,108387,FL,33015,2018-10-18,Standard,G-0622,46.0,4.0
KIDCARE NURSING SERVICES,6187 NW 167TH ST UNIT H-23,108387,FL,33015,2018-10-18,Standard,G-0680,46.0,4.0
KIDCARE NURSING SERVICES,6187 NW 167TH ST UNIT H-23,108387,FL,33015,2018-10-18,Standard,G-0682,46.0,4.0
KIDCARE NURSING SERVICES,6187 NW 167TH ST UNIT H-23,108387,FL,33015,2018-10-18,Standard,G-0710,46.0,4.0
KIDCARE NURSING SERVICES,6187 NW 167TH ST UNIT H-23,108387,FL,33015,2018-10-18,Standard,G-0716,46.0,4.0
KIDCARE NURSING SERVICES,6187 NW 167TH ST UNIT H-23,108387,FL,33015,2018-10-18,Standard,G-0726,46.0,4.0
KIDCARE NURSING SERVICES,6187 NW 167TH ST UNIT H-23,108387,FL,33015,2018-10-18,Standard,G-0760,46.0,4.0
KIDCARE NURSING SERVICES,6187 NW 167TH ST UNIT H-23,108387,FL,33015,2018-10-18,Standard,G-0768,46.0,4.0
KIDCARE NURSING SERVICES,6187 NW 167TH ST UNIT H-23,108387,FL,33015,2018-10-18,Standard,G-0774,46.0,4.0
KIDCARE NURSING SERVICES,6187 NW 167TH ST UNIT H-23,108387,FL,33015,2018-10-18,Standard,G-0798,46.0,4.0
KIDCARE NURSING SERVICES,6187 NW 167TH ST UNIT H-23,108387,FL,33015,2018-10-18,Standard,G-0808,46.0,4.0
KIDCARE NURSING SERVICES,6187 NW 167TH ST UNIT H-23,108387,FL,33015,2018-10-18,Standard,G-0812,46.0,4.0
KIDCARE NURSING SERVICES,6187 NW 167TH ST UNIT H-23,108387,FL,33015,2018-10-18,Standard,G-0952,46.0,4.0
KIDCARE NURSING SERVICES,6187 NW 167TH ST UNIT H-23,108387,FL,33015,2018-10-18,Standard,G-0962,46.0,4.0
KIDCARE NURSING SERVICES,6187 NW 167TH ST UNIT H-23,108387,FL,33015,2018-10-18,Standard,G-0982,46.0,4.0
KIDCARE NURSING SERVICES,6187 NW 167TH ST UNIT H-23,108387,FL,33015,2018-10-18,Standard,G-1012,46.0,4.0
KIDCARE NURSING SERVICES,6187 NW 167TH ST UNIT H-23,108387,FL,33015,2018-10-18,Standard,G-1014,46.0,4.0
KIDCARE NURSING SERVICES,6187 NW 167TH ST UNIT H-23,108387,FL,33015,2018-11-09,Complaint,G-0592,,4.0
KIDCARE NURSING SERVICES,6187 NW 167TH ST UNIT H-23,108387,FL,33015,2018-11-09,Complaint,G-0596,,4.0
KIDCARE NURSING SERVICES,6187 NW 167TH ST UNIT H-23,108387,FL,33015,2018-11-09,Complaint,G-0602,,4.0
KIDCARE NURSING SERVICES,6187 NW 167TH ST UNIT H-23,108387,FL,33015,2018-11-09,Complaint,G-0718,,4.0
INTERCARE HOME HEALTH SERVICES INC,10300 SUNSET DR  STE 460  UNIT 6,108389,FL,33173,2018-02-07,Standard,E-0029,11.0,
INTERCARE HOME HEALTH SERVICES INC,10300 SUNSET DR  STE 460  UNIT 6,108389,FL,33173,2018-02-07,Standard,E-0032,11.0,
INTERCARE HOME HEALTH SERVICES INC,10300 SUNSET DR  STE 460  UNIT 6,108389,FL,33173,2018-02-07,Standard,E-0033,11.0,
INTERCARE HOME HEALTH SERVICES INC,10300 SUNSET DR  STE 460  UNIT 6,108389,FL,33173,2018-02-07,Standard,E-0037,11.0,
INTERCARE HOME HEALTH SERVICES INC,10300 SUNSET DR  STE 460  UNIT 6,108389,FL,33173,2018-02-07,Standard,E-0039,11.0,
INTERCARE HOME HEALTH SERVICES INC,10300 SUNSET DR  STE 460  UNIT 6,108389,FL,33173,2018-02-07,Standard,G-0446,11.0,
INTERCARE HOME HEALTH SERVICES INC,10300 SUNSET DR  STE 460  UNIT 6,108389,FL,33173,2018-02-07,Standard,G-0536,11.0,
INTERCARE HOME HEALTH SERVICES INC,10300 SUNSET DR  STE 460  UNIT 6,108389,FL,33173,2018-02-07,Standard,G-0622,11.0,
INTERCARE HOME HEALTH SERVICES INC,10300 SUNSET DR  STE 460  UNIT 6,108389,FL,33173,2018-02-07,Standard,G-0704,11.0,
INTERCARE HOME HEALTH SERVICES INC,10300 SUNSET DR  STE 460  UNIT 6,108389,FL,33173,2018-02-07,Standard,G-0814,11.0,
INTERCARE HOME HEALTH SERVICES INC,10300 SUNSET DR  STE 460  UNIT 6,108389,FL,33173,2018-02-07,Standard,G-0982,11.0,
ONE AT HOME - DADE,4005 NW 114 AVENUE  UNIT 4-5,108394,FL,33178,2018-12-27,Complaint,G-0574,,6.0
ONE AT HOME - DADE,4005 NW 114 AVENUE  UNIT 4-5,108394,FL,33178,2018-12-27,Complaint,G-0576,,6.0
ONE AT HOME - DADE,4005 NW 114 AVENUE  UNIT 4-5,108394,FL,33178,2018-12-27,Complaint,G-0578,,6.0
ONE AT HOME - DADE,4005 NW 114 AVENUE  UNIT 4-5,108394,FL,33178,2018-12-27,Complaint,G-0584,,6.0
ONE AT HOME - DADE,4005 NW 114 AVENUE  UNIT 4-5,108394,FL,33178,2018-12-27,Complaint,G-1012,,6.0
ONE AT HOME - DADE,4005 NW 114 AVENUE  UNIT 4-5,108394,FL,33178,2018-12-27,Complaint,G-1024,,6.0
GRAND OPPORTUNITY HOME HEALTH INC,13911 SW 42 ST #201,108398,FL,33175,2018-06-12,Complaint,G-0574,,1.0
BETTER LIVING HOME HEALTH AGENCY INC,7791 NW 46 ST  STE 215,108400,FL,33166,2017-05-18,Standard,G-0176,5.0,
BETTER LIVING HOME HEALTH AGENCY INC,7791 NW 46 ST  STE 215,108400,FL,33166,2017-05-18,Standard,G-0180,5.0,
BETTER LIVING HOME HEALTH AGENCY INC,7791 NW 46 ST  STE 215,108400,FL,33166,2017-05-18,Standard,G-0536,5.0,
BETTER LIVING HOME HEALTH AGENCY INC,7791 NW 46 ST  STE 215,108400,FL,33166,2017-05-18,Standard,G-0808,5.0,
BETTER LIVING HOME HEALTH AGENCY INC,7791 NW 46 ST  STE 215,108400,FL,33166,2017-05-18,Standard,G-0984,5.0,
PRECISE HOME CARE LLC,8659 BAYPINE ROAD SUITE 200 BLDG 3,108406,FL,32256,2019-02-14,Standard,G-0572,4.0,
PRECISE HOME CARE LLC,8659 BAYPINE ROAD SUITE 200 BLDG 3,108406,FL,32256,2019-02-14,Standard,G-0590,4.0,
PRECISE HOME CARE LLC,8659 BAYPINE ROAD SUITE 200 BLDG 3,108406,FL,32256,2019-02-14,Standard,G-0608,4.0,
PRECISE HOME CARE LLC,8659 BAYPINE ROAD SUITE 200 BLDG 3,108406,FL,32256,2019-02-14,Standard,G-1012,4.0,
PREMIER CARE HOMECARE LLC,1711 CITRUS BLVD,108410,FL,34748,2018-08-15,Standard,E-0017,1.0,
HUMANITY HOME HEALTH CARE INC,85 GRAND CANAL DRIVE SUITE 305,108411,FL,33144,2018-02-22,Standard,E-0006,19.0,
HUMANITY HOME HEALTH CARE INC,85 GRAND CANAL DRIVE SUITE 305,108411,FL,33144,2018-02-22,Standard,E-0009,19.0,
HUMANITY HOME HEALTH CARE INC,85 GRAND CANAL DRIVE SUITE 305,108411,FL,33144,2018-02-22,Standard,E-0013,19.0,
HUMANITY HOME HEALTH CARE INC,85 GRAND CANAL DRIVE SUITE 305,108411,FL,33144,2018-02-22,Standard,E-0019,19.0,
HUMANITY HOME HEALTH CARE INC,85 GRAND CANAL DRIVE SUITE 305,108411,FL,33144,2018-02-22,Standard,E-0023,19.0,
HUMANITY HOME HEALTH CARE INC,85 GRAND CANAL DRIVE SUITE 305,108411,FL,33144,2018-02-22,Standard,E-0029,19.0,
HUMANITY HOME HEALTH CARE INC,85 GRAND CANAL DRIVE SUITE 305,108411,FL,33144,2018-02-22,Standard,E-0031,19.0,
HUMANITY HOME HEALTH CARE INC,85 GRAND CANAL DRIVE SUITE 305,108411,FL,33144,2018-02-22,Standard,E-0032,19.0,
HUMANITY HOME HEALTH CARE INC,85 GRAND CANAL DRIVE SUITE 305,108411,FL,33144,2018-02-22,Standard,E-0033,19.0,
HUMANITY HOME HEALTH CARE INC,85 GRAND CANAL DRIVE SUITE 305,108411,FL,33144,2018-02-22,Standard,E-0034,19.0,
HUMANITY HOME HEALTH CARE INC,85 GRAND CANAL DRIVE SUITE 305,108411,FL,33144,2018-02-22,Standard,E-0037,19.0,
HUMANITY HOME HEALTH CARE INC,85 GRAND CANAL DRIVE SUITE 305,108411,FL,33144,2018-02-22,Standard,E-0039,19.0,
HUMANITY HOME HEALTH CARE INC,85 GRAND CANAL DRIVE SUITE 305,108411,FL,33144,2018-02-22,Standard,G-0536,19.0,
HUMANITY HOME HEALTH CARE INC,85 GRAND CANAL DRIVE SUITE 305,108411,FL,33144,2018-02-22,Standard,G-0574,19.0,
HUMANITY HOME HEALTH CARE INC,85 GRAND CANAL DRIVE SUITE 305,108411,FL,33144,2018-02-22,Standard,G-0584,19.0,
HUMANITY HOME HEALTH CARE INC,85 GRAND CANAL DRIVE SUITE 305,108411,FL,33144,2018-02-22,Standard,G-0716,19.0,
HUMANITY HOME HEALTH CARE INC,85 GRAND CANAL DRIVE SUITE 305,108411,FL,33144,2018-02-22,Standard,G-0766,19.0,
HUMANITY HOME HEALTH CARE INC,85 GRAND CANAL DRIVE SUITE 305,108411,FL,33144,2018-02-22,Standard,G-0802,19.0,
HUMANITY HOME HEALTH CARE INC,85 GRAND CANAL DRIVE SUITE 305,108411,FL,33144,2018-02-22,Standard,G-0982,19.0,
INTEGRITY HEALTH SERVICES,9250 BAYMEADOWS RD STE 450,108415,FL,32256,2018-06-12,Complaint,G-0436,,1.0
RX HOME HEALTH SERVICES INC,12955 BISCAYNE BLVD STE 406 A,108422,FL,33181,2018-06-07,Standard,E-0006,11.0,
RX HOME HEALTH SERVICES INC,12955 BISCAYNE BLVD STE 406 A,108422,FL,33181,2018-06-07,Standard,E-0007,11.0,
RX HOME HEALTH SERVICES INC,12955 BISCAYNE BLVD STE 406 A,108422,FL,33181,2018-06-07,Standard,E-0032,11.0,
RX HOME HEALTH SERVICES INC,12955 BISCAYNE BLVD STE 406 A,108422,FL,33181,2018-06-07,Standard,E-0037,11.0,
RX HOME HEALTH SERVICES INC,12955 BISCAYNE BLVD STE 406 A,108422,FL,33181,2018-06-07,Standard,G-0414,11.0,
RX HOME HEALTH SERVICES INC,12955 BISCAYNE BLVD STE 406 A,108422,FL,33181,2018-06-07,Standard,G-0446,11.0,
RX HOME HEALTH SERVICES INC,12955 BISCAYNE BLVD STE 406 A,108422,FL,33181,2018-06-07,Standard,G-0536,11.0,
RX HOME HEALTH SERVICES INC,12955 BISCAYNE BLVD STE 406 A,108422,FL,33181,2018-06-07,Standard,G-0574,11.0,
RX HOME HEALTH SERVICES INC,12955 BISCAYNE BLVD STE 406 A,108422,FL,33181,2018-06-07,Standard,G-0578,11.0,
RX HOME HEALTH SERVICES INC,12955 BISCAYNE BLVD STE 406 A,108422,FL,33181,2018-06-07,Standard,G-0622,11.0,
RX HOME HEALTH SERVICES INC,12955 BISCAYNE BLVD STE 406 A,108422,FL,33181,2018-06-07,Standard,G-0716,11.0,
E & V HEALTH CARE INC,"2500 NW 79TH AVE, STE 167",108424,FL,33122,2018-01-12,Standard,E-0006,15.0,
E & V HEALTH CARE INC,"2500 NW 79TH AVE, STE 167",108424,FL,33122,2018-01-12,Standard,E-0007,15.0,
E & V HEALTH CARE INC,"2500 NW 79TH AVE, STE 167",108424,FL,33122,2018-01-12,Standard,E-0009,15.0,
E & V HEALTH CARE INC,"2500 NW 79TH AVE, STE 167",108424,FL,33122,2018-01-12,Standard,E-0013,15.0,
E & V HEALTH CARE INC,"2500 NW 79TH AVE, STE 167",108424,FL,33122,2018-01-12,Standard,E-0019,15.0,
E & V HEALTH CARE INC,"2500 NW 79TH AVE, STE 167",108424,FL,33122,2018-01-12,Standard,E-0021,15.0,
E & V HEALTH CARE INC,"2500 NW 79TH AVE, STE 167",108424,FL,33122,2018-01-12,Standard,E-0024,15.0,
E & V HEALTH CARE INC,"2500 NW 79TH AVE, STE 167",108424,FL,33122,2018-01-12,Standard,E-0029,15.0,
E & V HEALTH CARE INC,"2500 NW 79TH AVE, STE 167",108424,FL,33122,2018-01-12,Standard,E-0032,15.0,
E & V HEALTH CARE INC,"2500 NW 79TH AVE, STE 167",108424,FL,33122,2018-01-12,Standard,E-0033,15.0,
E & V HEALTH CARE INC,"2500 NW 79TH AVE, STE 167",108424,FL,33122,2018-01-12,Standard,E-0034,15.0,
E & V HEALTH CARE INC,"2500 NW 79TH AVE, STE 167",108424,FL,33122,2018-01-12,Standard,E-0036,15.0,
E & V HEALTH CARE INC,"2500 NW 79TH AVE, STE 167",108424,FL,33122,2018-01-12,Standard,E-0037,15.0,
E & V HEALTH CARE INC,"2500 NW 79TH AVE, STE 167",108424,FL,33122,2018-01-12,Standard,E-0039,15.0,
E & V HEALTH CARE INC,"2500 NW 79TH AVE, STE 167",108424,FL,33122,2018-01-12,Standard,G-0982,15.0,
M D HOME HEALTH LLC,5201 VILLAGE BLVD STE B,108434,FL,33407,2019-01-16,Standard,G-0728,1.0,
TWENTYFOUR SEVEN HOME HEALTH CARE INC,6801 LAKE WORTH RD STE 126,108435,FL,33467,2017-06-02,Standard,G-0158,11.0,
TWENTYFOUR SEVEN HOME HEALTH CARE INC,6801 LAKE WORTH RD STE 126,108435,FL,33467,2017-06-02,Standard,G-0186,11.0,
TWENTYFOUR SEVEN HOME HEALTH CARE INC,6801 LAKE WORTH RD STE 126,108435,FL,33467,2017-06-02,Standard,G-0370,11.0,
TWENTYFOUR SEVEN HOME HEALTH CARE INC,6801 LAKE WORTH RD STE 126,108435,FL,33467,2017-06-02,Standard,G-0514,11.0,
TWENTYFOUR SEVEN HOME HEALTH CARE INC,6801 LAKE WORTH RD STE 126,108435,FL,33467,2017-06-02,Standard,G-0570,11.0,
TWENTYFOUR SEVEN HOME HEALTH CARE INC,6801 LAKE WORTH RD STE 126,108435,FL,33467,2017-06-02,Standard,G-0574,11.0,
TWENTYFOUR SEVEN HOME HEALTH CARE INC,6801 LAKE WORTH RD STE 126,108435,FL,33467,2017-06-02,Standard,G-0584,11.0,
TWENTYFOUR SEVEN HOME HEALTH CARE INC,6801 LAKE WORTH RD STE 126,108435,FL,33467,2017-06-02,Standard,G-0590,11.0,
TWENTYFOUR SEVEN HOME HEALTH CARE INC,6801 LAKE WORTH RD STE 126,108435,FL,33467,2017-06-02,Standard,G-0606,11.0,
TWENTYFOUR SEVEN HOME HEALTH CARE INC,6801 LAKE WORTH RD STE 126,108435,FL,33467,2017-06-02,Standard,G-0984,11.0,
TWENTYFOUR SEVEN HOME HEALTH CARE INC,6801 LAKE WORTH RD STE 126,108435,FL,33467,2017-06-02,Standard,G-1022,11.0,
UTOPIA HOME CARE,3491 GANDY BLVD STE 209,108448,FL,33781,2019-01-11,Standard,G-0534,7.0,
UTOPIA HOME CARE,3491 GANDY BLVD STE 209,108448,FL,33781,2019-01-11,Standard,G-0536,7.0,
UTOPIA HOME CARE,3491 GANDY BLVD STE 209,108448,FL,33781,2019-01-11,Standard,G-0578,7.0,
UTOPIA HOME CARE,3491 GANDY BLVD STE 209,108448,FL,33781,2019-01-11,Standard,G-0852,7.0,
UTOPIA HOME CARE,3491 GANDY BLVD STE 209,108448,FL,33781,2019-01-11,Standard,G-0946,7.0,
UTOPIA HOME CARE,3491 GANDY BLVD STE 209,108448,FL,33781,2019-01-11,Standard,G-0952,7.0,
UTOPIA HOME CARE,3491 GANDY BLVD STE 209,108448,FL,33781,2019-01-11,Standard,G-0958,7.0,
A + QUALITY HOME HEALTH CARE,1401 N UNIVERSITY DR STE 101,108456,FL,33071,2017-06-07,Standard,G-0175,2.0,
A + QUALITY HOME HEALTH CARE,1401 N UNIVERSITY DR STE 101,108456,FL,33071,2017-06-07,Standard,G-0984,2.0,
"WEST HOME CARE, INC",3383 NW 7 STREET STE 301,108473,FL,33125,2018-03-15,Standard,E-0001,26.0,
"WEST HOME CARE, INC",3383 NW 7 STREET STE 301,108473,FL,33125,2018-03-15,Standard,E-0006,26.0,
"WEST HOME CARE, INC",3383 NW 7 STREET STE 301,108473,FL,33125,2018-03-15,Standard,E-0007,26.0,
"WEST HOME CARE, INC",3383 NW 7 STREET STE 301,108473,FL,33125,2018-03-15,Standard,E-0009,26.0,
"WEST HOME CARE, INC",3383 NW 7 STREET STE 301,108473,FL,33125,2018-03-15,Standard,E-0013,26.0,
"WEST HOME CARE, INC",3383 NW 7 STREET STE 301,108473,FL,33125,2018-03-15,Standard,E-0019,26.0,
"WEST HOME CARE, INC",3383 NW 7 STREET STE 301,108473,FL,33125,2018-03-15,Standard,E-0021,26.0,
"WEST HOME CARE, INC",3383 NW 7 STREET STE 301,108473,FL,33125,2018-03-15,Standard,E-0023,26.0,
"WEST HOME CARE, INC",3383 NW 7 STREET STE 301,108473,FL,33125,2018-03-15,Standard,E-0024,26.0,
"WEST HOME CARE, INC",3383 NW 7 STREET STE 301,108473,FL,33125,2018-03-15,Standard,E-0029,26.0,
"WEST HOME CARE, INC",3383 NW 7 STREET STE 301,108473,FL,33125,2018-03-15,Standard,E-0031,26.0,
"WEST HOME CARE, INC",3383 NW 7 STREET STE 301,108473,FL,33125,2018-03-15,Standard,E-0032,26.0,
"WEST HOME CARE, INC",3383 NW 7 STREET STE 301,108473,FL,33125,2018-03-15,Standard,E-0037,26.0,
"WEST HOME CARE, INC",3383 NW 7 STREET STE 301,108473,FL,33125,2018-03-15,Standard,E-0039,26.0,
"WEST HOME CARE, INC",3383 NW 7 STREET STE 301,108473,FL,33125,2018-03-15,Standard,G-0444,26.0,
"WEST HOME CARE, INC",3383 NW 7 STREET STE 301,108473,FL,33125,2018-03-15,Standard,G-0536,26.0,
"WEST HOME CARE, INC",3383 NW 7 STREET STE 301,108473,FL,33125,2018-03-15,Standard,G-0574,26.0,
"WEST HOME CARE, INC",3383 NW 7 STREET STE 301,108473,FL,33125,2018-03-15,Standard,G-0584,26.0,
"WEST HOME CARE, INC",3383 NW 7 STREET STE 301,108473,FL,33125,2018-03-15,Standard,G-0590,26.0,
"WEST HOME CARE, INC",3383 NW 7 STREET STE 301,108473,FL,33125,2018-03-15,Standard,G-0614,26.0,
"WEST HOME CARE, INC",3383 NW 7 STREET STE 301,108473,FL,33125,2018-03-15,Standard,G-0618,26.0,
"WEST HOME CARE, INC",3383 NW 7 STREET STE 301,108473,FL,33125,2018-03-15,Standard,G-0716,26.0,
"WEST HOME CARE, INC",3383 NW 7 STREET STE 301,108473,FL,33125,2018-03-15,Standard,G-0722,26.0,
"WEST HOME CARE, INC",3383 NW 7 STREET STE 301,108473,FL,33125,2018-03-15,Standard,G-0982,26.0,
"WEST HOME CARE, INC",3383 NW 7 STREET STE 301,108473,FL,33125,2018-03-15,Standard,G-1022,26.0,
"WEST HOME CARE, INC",3383 NW 7 STREET STE 301,108473,FL,33125,2018-03-15,Standard,G-1024,26.0,
ALTERNATIVE MEDICAL HEALTHCARE SERVICES CORP,7071 SW 47TH ST,108491,FL,33155,2018-07-10,Complaint,G-0574,,2.0
ALTERNATIVE MEDICAL HEALTHCARE SERVICES CORP,7071 SW 47TH ST,108491,FL,33155,2018-07-10,Complaint,G-0598,,2.0
PSN HEALTH CARE CORP,17670 NW 78 AVE   STE 213,109023,FL,33015,2018-11-20,Complaint,G-0572,,4.0
PSN HEALTH CARE CORP,17670 NW 78 AVE   STE 213,109023,FL,33015,2018-11-20,Complaint,G-0574,,4.0
PSN HEALTH CARE CORP,17670 NW 78 AVE   STE 213,109023,FL,33015,2018-11-20,Complaint,G-1012,,4.0
PSN HEALTH CARE CORP,17670 NW 78 AVE   STE 213,109023,FL,33015,2018-11-20,Complaint,G-1022,,4.0
ACA HOME HEALTH LLC,7570 NW 14TH STREET STE 107,109034,FL,33126,2018-12-10,Complaint,G-0550,,11.0
ACA HOME HEALTH LLC,7570 NW 14TH STREET STE 107,109034,FL,33126,2018-12-10,Complaint,G-0574,,11.0
ACA HOME HEALTH LLC,7570 NW 14TH STREET STE 107,109034,FL,33126,2018-12-10,Complaint,G-0576,,11.0
ACA HOME HEALTH LLC,7570 NW 14TH STREET STE 107,109034,FL,33126,2018-12-10,Complaint,G-0590,,11.0
ACA HOME HEALTH LLC,7570 NW 14TH STREET STE 107,109034,FL,33126,2018-12-10,Complaint,G-0716,,11.0
ACA HOME HEALTH LLC,7570 NW 14TH STREET STE 107,109034,FL,33126,2018-12-10,Complaint,G-0962,,11.0
ACA HOME HEALTH LLC,7570 NW 14TH STREET STE 107,109034,FL,33126,2018-12-10,Complaint,G-0968,,11.0
ACA HOME HEALTH LLC,7570 NW 14TH STREET STE 107,109034,FL,33126,2018-12-10,Complaint,G-1010,,11.0
ACA HOME HEALTH LLC,7570 NW 14TH STREET STE 107,109034,FL,33126,2018-12-10,Complaint,G-1012,,11.0
ACA HOME HEALTH LLC,7570 NW 14TH STREET STE 107,109034,FL,33126,2018-12-10,Complaint,G-1022,,11.0
ACA HOME HEALTH LLC,7570 NW 14TH STREET STE 107,109034,FL,33126,2018-12-10,Complaint,G-1060,,11.0
HOME CARE PLUS INC,1987 NW 88TH COURT SUITE 101,109078,FL,33172,2018-06-15,Complaint,G-0452,,3.0
HOME CARE PLUS INC,1987 NW 88TH COURT SUITE 101,109078,FL,33172,2018-06-15,Complaint,G-0574,,3.0
HOME CARE PLUS INC,1987 NW 88TH COURT SUITE 101,109078,FL,33172,2018-06-15,Complaint,G-0716,,3.0
FIRST CARE HOME SERVICES INC,2040 NE 163RD STREET - #303,109140,FL,33162,2018-01-31,Standard,E-0006,14.0,
FIRST CARE HOME SERVICES INC,2040 NE 163RD STREET - #303,109140,FL,33162,2018-01-31,Standard,E-0023,14.0,
FIRST CARE HOME SERVICES INC,2040 NE 163RD STREET - #303,109140,FL,33162,2018-01-31,Standard,E-0024,14.0,
FIRST CARE HOME SERVICES INC,2040 NE 163RD STREET - #303,109140,FL,33162,2018-01-31,Standard,E-0029,14.0,
FIRST CARE HOME SERVICES INC,2040 NE 163RD STREET - #303,109140,FL,33162,2018-01-31,Standard,E-0032,14.0,
FIRST CARE HOME SERVICES INC,2040 NE 163RD STREET - #303,109140,FL,33162,2018-01-31,Standard,E-0033,14.0,
FIRST CARE HOME SERVICES INC,2040 NE 163RD STREET - #303,109140,FL,33162,2018-01-31,Standard,E-0034,14.0,
FIRST CARE HOME SERVICES INC,2040 NE 163RD STREET - #303,109140,FL,33162,2018-01-31,Standard,E-0037,14.0,
FIRST CARE HOME SERVICES INC,2040 NE 163RD STREET - #303,109140,FL,33162,2018-01-31,Standard,E-0039,14.0,
FIRST CARE HOME SERVICES INC,2040 NE 163RD STREET - #303,109140,FL,33162,2018-01-31,Standard,G-0574,14.0,
FIRST CARE HOME SERVICES INC,2040 NE 163RD STREET - #303,109140,FL,33162,2018-01-31,Standard,G-0750,14.0,
FIRST CARE HOME SERVICES INC,2040 NE 163RD STREET - #303,109140,FL,33162,2018-01-31,Standard,G-0800,14.0,
FIRST CARE HOME SERVICES INC,2040 NE 163RD STREET - #303,109140,FL,33162,2018-01-31,Standard,G-0802,14.0,
FIRST CARE HOME SERVICES INC,2040 NE 163RD STREET - #303,109140,FL,33162,2018-01-31,Standard,G-1014,14.0,
PROFESSIONAL SOLUTIONS HOME HEALTH AGENCY INC,7925 NW ST STE 407,109172,FL,33126,2018-01-25,Standard,E-0037,12.0,
PROFESSIONAL SOLUTIONS HOME HEALTH AGENCY INC,7925 NW ST STE 407,109172,FL,33126,2018-01-25,Standard,G-0374,12.0,
PROFESSIONAL SOLUTIONS HOME HEALTH AGENCY INC,7925 NW ST STE 407,109172,FL,33126,2018-01-25,Standard,G-0414,12.0,
PROFESSIONAL SOLUTIONS HOME HEALTH AGENCY INC,7925 NW ST STE 407,109172,FL,33126,2018-01-25,Standard,G-0446,12.0,
PROFESSIONAL SOLUTIONS HOME HEALTH AGENCY INC,7925 NW ST STE 407,109172,FL,33126,2018-01-25,Standard,G-0572,12.0,
PROFESSIONAL SOLUTIONS HOME HEALTH AGENCY INC,7925 NW ST STE 407,109172,FL,33126,2018-01-25,Standard,G-0576,12.0,
PROFESSIONAL SOLUTIONS HOME HEALTH AGENCY INC,7925 NW ST STE 407,109172,FL,33126,2018-01-25,Standard,G-0580,12.0,
PROFESSIONAL SOLUTIONS HOME HEALTH AGENCY INC,7925 NW ST STE 407,109172,FL,33126,2018-01-25,Standard,G-0622,12.0,
PROFESSIONAL SOLUTIONS HOME HEALTH AGENCY INC,7925 NW ST STE 407,109172,FL,33126,2018-01-25,Standard,G-0682,12.0,
PROFESSIONAL SOLUTIONS HOME HEALTH AGENCY INC,7925 NW ST STE 407,109172,FL,33126,2018-01-25,Standard,G-0704,12.0,
PROFESSIONAL SOLUTIONS HOME HEALTH AGENCY INC,7925 NW ST STE 407,109172,FL,33126,2018-01-25,Standard,G-0716,12.0,
PROFESSIONAL SOLUTIONS HOME HEALTH AGENCY INC,7925 NW ST STE 407,109172,FL,33126,2018-01-25,Standard,G-1010,12.0,
MARILU HOME HEALTH CARE INC,3785 NW 82 AVE STE 203,109180,FL,33166,2018-12-12,Complaint,G-0442,,5.0
MARILU HOME HEALTH CARE INC,3785 NW 82 AVE STE 203,109180,FL,33166,2018-12-12,Complaint,G-0574,,5.0
MARILU HOME HEALTH CARE INC,3785 NW 82 AVE STE 203,109180,FL,33166,2018-12-12,Complaint,G-0576,,5.0
MARILU HOME HEALTH CARE INC,3785 NW 82 AVE STE 203,109180,FL,33166,2018-12-12,Complaint,G-0710,,5.0
MARILU HOME HEALTH CARE INC,3785 NW 82 AVE STE 203,109180,FL,33166,2018-12-12,Complaint,G-0716,,5.0
AMERICAN SENIORS ASSOCIATION INC,1409 TAMPA PARK PLAZA,109203,FL,33605,2017-09-07,Standard,G-0158,3.0,
AMERICAN SENIORS ASSOCIATION INC,1409 TAMPA PARK PLAZA,109203,FL,33605,2017-09-07,Standard,G-0303,3.0,
AMERICAN SENIORS ASSOCIATION INC,1409 TAMPA PARK PLAZA,109203,FL,33605,2017-09-07,Standard,G-0536,3.0,
COMPREHENSIVE HOME CARE OF NORTHWEST FLORIDA INC,7552 NAVARRE PARKWAY UNIT 4,109207,FL,32566,2018-06-20,Standard,G-0514,8.0,
COMPREHENSIVE HOME CARE OF NORTHWEST FLORIDA INC,7552 NAVARRE PARKWAY UNIT 4,109207,FL,32566,2018-06-20,Standard,G-0590,8.0,
COMPREHENSIVE HOME CARE OF NORTHWEST FLORIDA INC,7552 NAVARRE PARKWAY UNIT 4,109207,FL,32566,2018-06-20,Standard,G-0596,8.0,
COMPREHENSIVE HOME CARE OF NORTHWEST FLORIDA INC,7552 NAVARRE PARKWAY UNIT 4,109207,FL,32566,2018-06-20,Standard,G-0642,8.0,
COMPREHENSIVE HOME CARE OF NORTHWEST FLORIDA INC,7552 NAVARRE PARKWAY UNIT 4,109207,FL,32566,2018-06-20,Standard,G-0710,8.0,
COMPREHENSIVE HOME CARE OF NORTHWEST FLORIDA INC,7552 NAVARRE PARKWAY UNIT 4,109207,FL,32566,2018-06-20,Standard,G-1012,8.0,
COMPREHENSIVE HOME CARE OF NORTHWEST FLORIDA INC,7552 NAVARRE PARKWAY UNIT 4,109207,FL,32566,2018-06-20,Standard,G-1024,8.0,
COMPREHENSIVE HOME CARE OF NORTHWEST FLORIDA INC,7552 NAVARRE PARKWAY UNIT 4,109207,FL,32566,2018-06-20,Standard,G-1026,8.0,
MDT HOME HEALTH CARE AGENCY INC,8672 SW 40TH ST STE 200,109229,FL,33155,2018-11-26,Complaint,G-0442,,8.0
MDT HOME HEALTH CARE AGENCY INC,8672 SW 40TH ST STE 200,109229,FL,33155,2018-11-26,Complaint,G-0550,,8.0
MDT HOME HEALTH CARE AGENCY INC,8672 SW 40TH ST STE 200,109229,FL,33155,2018-11-26,Complaint,G-0574,,8.0
MDT HOME HEALTH CARE AGENCY INC,8672 SW 40TH ST STE 200,109229,FL,33155,2018-11-26,Complaint,G-0586,,8.0
MDT HOME HEALTH CARE AGENCY INC,8672 SW 40TH ST STE 200,109229,FL,33155,2018-11-26,Complaint,G-0708,,8.0
MDT HOME HEALTH CARE AGENCY INC,8672 SW 40TH ST STE 200,109229,FL,33155,2018-11-26,Complaint,G-0716,,8.0
MDT HOME HEALTH CARE AGENCY INC,8672 SW 40TH ST STE 200,109229,FL,33155,2018-11-26,Complaint,G-1012,,8.0
MDT HOME HEALTH CARE AGENCY INC,8672 SW 40TH ST STE 200,109229,FL,33155,2018-11-26,Complaint,G-1022,,8.0
FLORIDA NURSES HOME HEALTH AGENCY INC,1100 NE 125 STREET STE 207,109255,FL,33161,2018-04-12,Standard,E-0001,20.0,
FLORIDA NURSES HOME HEALTH AGENCY INC,1100 NE 125 STREET STE 207,109255,FL,33161,2018-04-12,Standard,E-0004,20.0,
FLORIDA NURSES HOME HEALTH AGENCY INC,1100 NE 125 STREET STE 207,109255,FL,33161,2018-04-12,Standard,E-0006,20.0,
FLORIDA NURSES HOME HEALTH AGENCY INC,1100 NE 125 STREET STE 207,109255,FL,33161,2018-04-12,Standard,E-0023,20.0,
FLORIDA NURSES HOME HEALTH AGENCY INC,1100 NE 125 STREET STE 207,109255,FL,33161,2018-04-12,Standard,E-0024,20.0,
FLORIDA NURSES HOME HEALTH AGENCY INC,1100 NE 125 STREET STE 207,109255,FL,33161,2018-04-12,Standard,E-0029,20.0,
FLORIDA NURSES HOME HEALTH AGENCY INC,1100 NE 125 STREET STE 207,109255,FL,33161,2018-04-12,Standard,E-0031,20.0,
FLORIDA NURSES HOME HEALTH AGENCY INC,1100 NE 125 STREET STE 207,109255,FL,33161,2018-04-12,Standard,E-0032,20.0,
FLORIDA NURSES HOME HEALTH AGENCY INC,1100 NE 125 STREET STE 207,109255,FL,33161,2018-04-12,Standard,E-0033,20.0,
FLORIDA NURSES HOME HEALTH AGENCY INC,1100 NE 125 STREET STE 207,109255,FL,33161,2018-04-12,Standard,E-0034,20.0,
FLORIDA NURSES HOME HEALTH AGENCY INC,1100 NE 125 STREET STE 207,109255,FL,33161,2018-04-12,Standard,E-0036,20.0,
FLORIDA NURSES HOME HEALTH AGENCY INC,1100 NE 125 STREET STE 207,109255,FL,33161,2018-04-12,Standard,E-0037,20.0,
FLORIDA NURSES HOME HEALTH AGENCY INC,1100 NE 125 STREET STE 207,109255,FL,33161,2018-04-12,Standard,G-0574,20.0,
FLORIDA NURSES HOME HEALTH AGENCY INC,1100 NE 125 STREET STE 207,109255,FL,33161,2018-04-12,Standard,G-0576,20.0,
FLORIDA NURSES HOME HEALTH AGENCY INC,1100 NE 125 STREET STE 207,109255,FL,33161,2018-04-12,Standard,G-0584,20.0,
FLORIDA NURSES HOME HEALTH AGENCY INC,1100 NE 125 STREET STE 207,109255,FL,33161,2018-04-12,Standard,G-0718,20.0,
FLORIDA NURSES HOME HEALTH AGENCY INC,1100 NE 125 STREET STE 207,109255,FL,33161,2018-04-12,Standard,G-0818,20.0,
FLORIDA NURSES HOME HEALTH AGENCY INC,1100 NE 125 STREET STE 207,109255,FL,33161,2018-04-12,Standard,G-0982,20.0,
FLORIDA NURSES HOME HEALTH AGENCY INC,1100 NE 125 STREET STE 207,109255,FL,33161,2018-04-12,Standard,G-1012,20.0,
FLORIDA NURSES HOME HEALTH AGENCY INC,1100 NE 125 STREET STE 207,109255,FL,33161,2018-04-12,Standard,G-1014,20.0,
TRILOGY HOME HEALTHCARE,549 NW LAKE WHITNEY PL STE 201-206,109270,FL,34986,2019-04-02,Complaint,G-0464,,2.0
TRILOGY HOME HEALTHCARE,549 NW LAKE WHITNEY PL STE 201-206,109270,FL,34986,2019-04-02,Complaint,G-0580,,2.0
"NURSING SERVICES 4 YOU, CORP",13595 SW 134 AVE STE 206,109290,FL,33186,2018-08-22,Complaint,G-0710,,2.0
"NURSING SERVICES 4 YOU, CORP",13595 SW 134 AVE STE 206,109290,FL,33186,2018-08-22,Complaint,G-0716,,2.0
ALL WAYS HOME CARE INC,9159 SW 87TH AVE,109294,FL,33176,2019-02-08,Complaint,G-0574,,3.0
ALL WAYS HOME CARE INC,9159 SW 87TH AVE,109294,FL,33176,2019-02-08,Complaint,G-0716,,3.0
ALL WAYS HOME CARE INC,9159 SW 87TH AVE,109294,FL,33176,2019-02-08,Complaint,G-0808,,3.0
"CARE ON CALL HOME HEALTHCARE, INC.",211 NE 44TH ST,109297,FL,33334,2018-07-19,Standard,G-0484,6.0,
"CARE ON CALL HOME HEALTHCARE, INC.",211 NE 44TH ST,109297,FL,33334,2018-07-19,Standard,G-0536,6.0,
"CARE ON CALL HOME HEALTHCARE, INC.",211 NE 44TH ST,109297,FL,33334,2018-07-19,Standard,G-0608,6.0,
"CARE ON CALL HOME HEALTHCARE, INC.",211 NE 44TH ST,109297,FL,33334,2018-07-19,Standard,G-0682,6.0,
"CARE ON CALL HOME HEALTHCARE, INC.",211 NE 44TH ST,109297,FL,33334,2018-07-19,Standard,G-0798,6.0,
"CARE ON CALL HOME HEALTHCARE, INC.",211 NE 44TH ST,109297,FL,33334,2018-07-19,Standard,G-0968,6.0,
HIGH STANDARD HEALTH SERVICES INC,10689 N KENDALL DR STE 310,109330,FL,33176,2018-06-19,Complaint,G-0460,,3.0
HIGH STANDARD HEALTH SERVICES INC,10689 N KENDALL DR STE 310,109330,FL,33176,2018-06-19,Complaint,G-0600,,3.0
HIGH STANDARD HEALTH SERVICES INC,10689 N KENDALL DR STE 310,109330,FL,33176,2018-06-19,Complaint,G-0716,,3.0
MOBILE PERSONAL SERVICES INC,2507 SEVEN SPRINGS BLVD,109333,FL,34655,2018-12-12,Complaint,G-0946,,2.0
MOBILE PERSONAL SERVICES INC,2507 SEVEN SPRINGS BLVD,109333,FL,34655,2018-12-12,Complaint,G-0948,,2.0
ML HOME CARE INC,14850 SW 26TH ST STE 205,109341,FL,33125,2018-08-28,Standard,E-0006,9.0,
ML HOME CARE INC,14850 SW 26TH ST STE 205,109341,FL,33125,2018-08-28,Standard,E-0024,9.0,
ML HOME CARE INC,14850 SW 26TH ST STE 205,109341,FL,33125,2018-08-28,Standard,E-0030,9.0,
ML HOME CARE INC,14850 SW 26TH ST STE 205,109341,FL,33125,2018-08-28,Standard,E-0037,9.0,
ML HOME CARE INC,14850 SW 26TH ST STE 205,109341,FL,33125,2018-08-28,Standard,E-0039,9.0,
ML HOME CARE INC,14850 SW 26TH ST STE 205,109341,FL,33125,2018-08-28,Standard,G-0536,9.0,
ML HOME CARE INC,14850 SW 26TH ST STE 205,109341,FL,33125,2018-08-28,Standard,G-0582,9.0,
ML HOME CARE INC,14850 SW 26TH ST STE 205,109341,FL,33125,2018-08-28,Standard,G-0818,9.0,
ML HOME CARE INC,14850 SW 26TH ST STE 205,109341,FL,33125,2018-08-28,Standard,G-0982,9.0,
ABELLA YOSE CARE SERVICE INC,5901 NW 151ST ST STE 102,109346,FL,33014,2019-04-09,Complaint,G-0572,,3.0
ABELLA YOSE CARE SERVICE INC,5901 NW 151ST ST STE 102,109346,FL,33014,2019-04-09,Complaint,G-0768,,3.0
ABELLA YOSE CARE SERVICE INC,5901 NW 151ST ST STE 102,109346,FL,33014,2019-04-09,Complaint,G-0814,,3.0
TRILOGY HOME HEALTHCARE,5971 CATTLERIDGE BLVD STE 200,109371,FL,34232,2018-09-25,Complaint,G-1012,,1.0
ALPHA HOMECARE & THERAPY AGENCY LLC,401 N WICKHAM RD STE O,109386,FL,32935,2018-07-02,Complaint,G-0520,,5.0
ALPHA HOMECARE & THERAPY AGENCY LLC,401 N WICKHAM RD STE O,109386,FL,32935,2018-07-02,Complaint,G-0542,,5.0
ALPHA HOMECARE & THERAPY AGENCY LLC,401 N WICKHAM RD STE O,109386,FL,32935,2018-07-02,Complaint,G-0572,,5.0
ALPHA HOMECARE & THERAPY AGENCY LLC,401 N WICKHAM RD STE O,109386,FL,32935,2018-07-02,Complaint,G-0606,,5.0
ALPHA HOMECARE & THERAPY AGENCY LLC,401 N WICKHAM RD STE O,109386,FL,32935,2018-07-02,Complaint,G-0984,,5.0
AMERIHEALTH HOME CARE AGENCY LLC,7190 SW 87TH AVE STE 204,109387,FL,33173,2018-07-26,Standard,E-0009,3.0,
AMERIHEALTH HOME CARE AGENCY LLC,7190 SW 87TH AVE STE 204,109387,FL,33173,2018-07-26,Standard,E-0032,3.0,
AMERIHEALTH HOME CARE AGENCY LLC,7190 SW 87TH AVE STE 204,109387,FL,33173,2018-07-26,Standard,G-0946,3.0,
CONFIDENT CARE OF FLORIDA CORP,1401 FORUM WAY STE 740,109400,FL,33401,2018-08-27,Complaint,G-0946,,2.0
CONFIDENT CARE OF FLORIDA CORP,1401 FORUM WAY STE 740,109400,FL,33401,2018-08-27,Complaint,G-0948,,2.0
PRIMARY MEDICAL STAFFING INC,3600 RED RD STE 303,109414,FL,33025,2018-05-23,Complaint,G-0584,,2.0
PRIMARY MEDICAL STAFFING INC,3600 RED RD STE 303,109414,FL,33025,2018-05-23,Complaint,G-0614,,2.0
UTOPIA HOME CARE,4100 W KENNEDY BLVD STE 105,109428,FL,33609,2018-11-08,Complaint,G-0598,,1.0
"SUPREME HOME HEALTH CARE, LLC","8910 MIRAMAR PKWY, STE 210",109437,FL,33025,2018-07-27,Standard,G-0952,1.0,
ON-SITE HOME HEALTH CARE CORP,10516 W FLAGLER ST,109480,FL,33174,2018-10-18,Complaint,G-0710,,1.0
QUALITY LIFE HOME CARE CORP,7811 CORAL WAY STE 135,109496,FL,33155,2017-08-24,Standard,G-0158,9.0,5.0
QUALITY LIFE HOME CARE CORP,7811 CORAL WAY STE 135,109496,FL,33155,2017-08-24,Standard,G-0180,9.0,5.0
QUALITY LIFE HOME CARE CORP,7811 CORAL WAY STE 135,109496,FL,33155,2017-08-24,Standard,G-0384,9.0,5.0
QUALITY LIFE HOME CARE CORP,7811 CORAL WAY STE 135,109496,FL,33155,2017-08-24,Standard,G-0536,9.0,5.0
QUALITY LIFE HOME CARE CORP,7811 CORAL WAY STE 135,109496,FL,33155,2017-08-24,Standard,G-0584,9.0,5.0
QUALITY LIFE HOME CARE CORP,7811 CORAL WAY STE 135,109496,FL,33155,2017-08-24,Standard,G-0590,9.0,5.0
QUALITY LIFE HOME CARE CORP,7811 CORAL WAY STE 135,109496,FL,33155,2017-08-24,Standard,G-0606,9.0,5.0
QUALITY LIFE HOME CARE CORP,7811 CORAL WAY STE 135,109496,FL,33155,2017-08-24,Standard,G-0984,9.0,5.0
QUALITY LIFE HOME CARE CORP,7811 CORAL WAY STE 135,109496,FL,33155,2017-08-24,Standard,G-1022,9.0,5.0
QUALITY LIFE HOME CARE CORP,7811 CORAL WAY STE 135,109496,FL,33155,2018-08-07,Complaint,G-0572,,5.0
QUALITY LIFE HOME CARE CORP,7811 CORAL WAY STE 135,109496,FL,33155,2018-08-07,Complaint,G-0768,,5.0
QUALITY LIFE HOME CARE CORP,7811 CORAL WAY STE 135,109496,FL,33155,2018-08-07,Complaint,G-0798,,5.0
QUALITY LIFE HOME CARE CORP,7811 CORAL WAY STE 135,109496,FL,33155,2018-08-07,Complaint,G-0808,,5.0
QUALITY LIFE HOME CARE CORP,7811 CORAL WAY STE 135,109496,FL,33155,2018-08-07,Complaint,G-0814,,5.0
DPS HOME HEALTH AGENCY INC,5725 CORPORATE WAY STE 201,109499,FL,33407,2019-04-10,Standard,G-0578,1.0,
BREEZE HEALTH CARE INC,19501 NE 10TH AVE STE 305,109561,FL,33179,2018-11-01,Standard,E-0001,37.0,
BREEZE HEALTH CARE INC,19501 NE 10TH AVE STE 305,109561,FL,33179,2018-11-01,Standard,E-0004,37.0,
BREEZE HEALTH CARE INC,19501 NE 10TH AVE STE 305,109561,FL,33179,2018-11-01,Standard,E-0006,37.0,
BREEZE HEALTH CARE INC,19501 NE 10TH AVE STE 305,109561,FL,33179,2018-11-01,Standard,E-0007,37.0,
BREEZE HEALTH CARE INC,19501 NE 10TH AVE STE 305,109561,FL,33179,2018-11-01,Standard,E-0009,37.0,
BREEZE HEALTH CARE INC,19501 NE 10TH AVE STE 305,109561,FL,33179,2018-11-01,Standard,E-0013,37.0,
BREEZE HEALTH CARE INC,19501 NE 10TH AVE STE 305,109561,FL,33179,2018-11-01,Standard,E-0017,37.0,
BREEZE HEALTH CARE INC,19501 NE 10TH AVE STE 305,109561,FL,33179,2018-11-01,Standard,E-0019,37.0,
BREEZE HEALTH CARE INC,19501 NE 10TH AVE STE 305,109561,FL,33179,2018-11-01,Standard,E-0021,37.0,
BREEZE HEALTH CARE INC,19501 NE 10TH AVE STE 305,109561,FL,33179,2018-11-01,Standard,E-0023,37.0,
BREEZE HEALTH CARE INC,19501 NE 10TH AVE STE 305,109561,FL,33179,2018-11-01,Standard,E-0024,37.0,
BREEZE HEALTH CARE INC,19501 NE 10TH AVE STE 305,109561,FL,33179,2018-11-01,Standard,E-0029,37.0,
BREEZE HEALTH CARE INC,19501 NE 10TH AVE STE 305,109561,FL,33179,2018-11-01,Standard,E-0030,37.0,
BREEZE HEALTH CARE INC,19501 NE 10TH AVE STE 305,109561,FL,33179,2018-11-01,Standard,E-0031,37.0,
BREEZE HEALTH CARE INC,19501 NE 10TH AVE STE 305,109561,FL,33179,2018-11-01,Standard,E-0032,37.0,
BREEZE HEALTH CARE INC,19501 NE 10TH AVE STE 305,109561,FL,33179,2018-11-01,Standard,E-0033,37.0,
BREEZE HEALTH CARE INC,19501 NE 10TH AVE STE 305,109561,FL,33179,2018-11-01,Standard,E-0034,37.0,
BREEZE HEALTH CARE INC,19501 NE 10TH AVE STE 305,109561,FL,33179,2018-11-01,Standard,E-0036,37.0,
BREEZE HEALTH CARE INC,19501 NE 10TH AVE STE 305,109561,FL,33179,2018-11-01,Standard,E-0037,37.0,
BREEZE HEALTH CARE INC,19501 NE 10TH AVE STE 305,109561,FL,33179,2018-11-01,Standard,E-0039,37.0,
BREEZE HEALTH CARE INC,19501 NE 10TH AVE STE 305,109561,FL,33179,2018-11-01,Standard,G-0412,37.0,
BREEZE HEALTH CARE INC,19501 NE 10TH AVE STE 305,109561,FL,33179,2018-11-01,Standard,G-0414,37.0,
BREEZE HEALTH CARE INC,19501 NE 10TH AVE STE 305,109561,FL,33179,2018-11-01,Standard,G-0422,37.0,
BREEZE HEALTH CARE INC,19501 NE 10TH AVE STE 305,109561,FL,33179,2018-11-01,Standard,G-0434,37.0,
BREEZE HEALTH CARE INC,19501 NE 10TH AVE STE 305,109561,FL,33179,2018-11-01,Standard,G-0442,37.0,
BREEZE HEALTH CARE INC,19501 NE 10TH AVE STE 305,109561,FL,33179,2018-11-01,Standard,G-0536,37.0,
BREEZE HEALTH CARE INC,19501 NE 10TH AVE STE 305,109561,FL,33179,2018-11-01,Standard,G-0574,37.0,
BREEZE HEALTH CARE INC,19501 NE 10TH AVE STE 305,109561,FL,33179,2018-11-01,Standard,G-0576,37.0,
BREEZE HEALTH CARE INC,19501 NE 10TH AVE STE 305,109561,FL,33179,2018-11-01,Standard,G-0584,37.0,
BREEZE HEALTH CARE INC,19501 NE 10TH AVE STE 305,109561,FL,33179,2018-11-01,Standard,G-0622,37.0,
BREEZE HEALTH CARE INC,19501 NE 10TH AVE STE 305,109561,FL,33179,2018-11-01,Standard,G-0716,37.0,
BREEZE HEALTH CARE INC,19501 NE 10TH AVE STE 305,109561,FL,33179,2018-11-01,Standard,G-0808,37.0,
BREEZE HEALTH CARE INC,19501 NE 10TH AVE STE 305,109561,FL,33179,2018-11-01,Standard,G-0962,37.0,
BREEZE HEALTH CARE INC,19501 NE 10TH AVE STE 305,109561,FL,33179,2018-11-01,Standard,G-0984,37.0,
BREEZE HEALTH CARE INC,19501 NE 10TH AVE STE 305,109561,FL,33179,2018-11-01,Standard,G-1012,37.0,
BREEZE HEALTH CARE INC,19501 NE 10TH AVE STE 305,109561,FL,33179,2018-11-01,Standard,G-1014,37.0,
BREEZE HEALTH CARE INC,19501 NE 10TH AVE STE 305,109561,FL,33179,2018-11-01,Standard,G-1024,37.0,
APPLETON HOME HEALTH SERVICES OF BROWARD INC,10001 NW 50 ST STE 102A,109602,FL,33351,2016-10-27,Standard,G-0574,2.0,
APPLETON HOME HEALTH SERVICES OF BROWARD INC,10001 NW 50 ST STE 102A,109602,FL,33351,2016-10-27,Standard,G-0606,2.0,
QUALITY LIFE HOME HEALTH AGENCY CORP,1443 DEL PRADO BLVD S STE D,109603,FL,33990,2018-06-01,Complaint,G-0572,,2.0
QUALITY LIFE HOME HEALTH AGENCY CORP,1443 DEL PRADO BLVD S STE D,109603,FL,33990,2018-06-01,Complaint,G-0606,,2.0
APEX HOME HEALTH CARE LLC,3401 N FEDERAL HWY STE 214,109632,FL,33431,2016-11-10,Standard,G-0250,5.0,
APEX HOME HEALTH CARE LLC,3401 N FEDERAL HWY STE 214,109632,FL,33431,2016-11-10,Standard,G-0606,5.0,
APEX HOME HEALTH CARE LLC,3401 N FEDERAL HWY STE 214,109632,FL,33431,2016-11-10,Standard,G-0814,5.0,
APEX HOME HEALTH CARE LLC,3401 N FEDERAL HWY STE 214,109632,FL,33431,2016-11-10,Standard,G-0984,5.0,
APEX HOME HEALTH CARE LLC,3401 N FEDERAL HWY STE 214,109632,FL,33431,2016-11-10,Standard,G-1022,5.0,
"VISIONS HEALTH SYSTEMS, LLC",1730 MAIN ST  STE 218,109661,FL,33326,2017-04-26,Standard,G-0141,1.0,1.0
"VISIONS HEALTH SYSTEMS, LLC",1730 MAIN ST  STE 218,109661,FL,33326,2019-03-29,Complaint,G-0578,,1.0
"HOSPITAL WITHOUT WALLS OF PORT ST LUCIE, INC.",201 SW PORT ST LUCIE BLVD STE 106,109662,FL,34984,2019-05-09,Standard,G-0578,4.0,
"HOSPITAL WITHOUT WALLS OF PORT ST LUCIE, INC.",201 SW PORT ST LUCIE BLVD STE 106,109662,FL,34984,2019-05-09,Standard,G-0580,4.0,
"HOSPITAL WITHOUT WALLS OF PORT ST LUCIE, INC.",201 SW PORT ST LUCIE BLVD STE 106,109662,FL,34984,2019-05-09,Standard,G-0584,4.0,
"HOSPITAL WITHOUT WALLS OF PORT ST LUCIE, INC.",201 SW PORT ST LUCIE BLVD STE 106,109662,FL,34984,2019-05-09,Standard,G-0808,4.0,
SUNCREST OMNI,2343 HANSEN LANE STE 1,109670,FL,32301,2017-05-18,Standard,G-0158,10.0,
SUNCREST OMNI,2343 HANSEN LANE STE 1,109670,FL,32301,2017-05-18,Standard,G-0170,10.0,
SUNCREST OMNI,2343 HANSEN LANE STE 1,109670,FL,32301,2017-05-18,Standard,G-0178,10.0,
SUNCREST OMNI,2343 HANSEN LANE STE 1,109670,FL,32301,2017-05-18,Standard,G-0182,10.0,
SUNCREST OMNI,2343 HANSEN LANE STE 1,109670,FL,32301,2017-05-18,Standard,G-0186,10.0,
SUNCREST OMNI,2343 HANSEN LANE STE 1,109670,FL,32301,2017-05-18,Standard,G-0580,10.0,
SUNCREST OMNI,2343 HANSEN LANE STE 1,109670,FL,32301,2017-05-18,Standard,G-0582,10.0,
SUNCREST OMNI,2343 HANSEN LANE STE 1,109670,FL,32301,2017-05-18,Standard,G-0590,10.0,
SUNCREST OMNI,2343 HANSEN LANE STE 1,109670,FL,32301,2017-05-18,Standard,G-0798,10.0,
SUNCREST OMNI,2343 HANSEN LANE STE 1,109670,FL,32301,2017-05-18,Standard,G-0808,10.0,
ENCOMPASS HEALTH HOME HEALTH,4585 140TH AVE N STE H1006,109687,FL,33762,2018-09-13,Complaint,G-0432,,3.0
ENCOMPASS HEALTH HOME HEALTH,4585 140TH AVE N STE H1006,109687,FL,33762,2018-09-13,Complaint,G-0434,,3.0
ENCOMPASS HEALTH HOME HEALTH,4585 140TH AVE N STE H1006,109687,FL,33762,2018-09-13,Complaint,G-0446,,3.0
COMPLETE HOME CARE OF THE PALM BEACHES LLC,6853 SW 18TH ST STE 210,109697,FL,33433,2017-06-06,Standard,G-0175,2.0,
COMPLETE HOME CARE OF THE PALM BEACHES LLC,6853 SW 18TH ST STE 210,109697,FL,33433,2017-06-06,Standard,G-0984,2.0,
AP HOME HEALTH CARE LLC,1035 S STATE RD 7 STE 315-18,109749,FL,33414,2018-07-23,Standard,E-0001,8.0,
AP HOME HEALTH CARE LLC,1035 S STATE RD 7 STE 315-18,109749,FL,33414,2018-07-23,Standard,E-0004,8.0,
AP HOME HEALTH CARE LLC,1035 S STATE RD 7 STE 315-18,109749,FL,33414,2018-07-23,Standard,G-0940,8.0,
AP HOME HEALTH CARE LLC,1035 S STATE RD 7 STE 315-18,109749,FL,33414,2018-07-23,Standard,G-0942,8.0,
AP HOME HEALTH CARE LLC,1035 S STATE RD 7 STE 315-18,109749,FL,33414,2018-07-23,Standard,G-0982,8.0,
AP HOME HEALTH CARE LLC,1035 S STATE RD 7 STE 315-18,109749,FL,33414,2018-07-23,Standard,G-1008,8.0,
AP HOME HEALTH CARE LLC,1035 S STATE RD 7 STE 315-18,109749,FL,33414,2018-07-23,Standard,G-1026,8.0,
AP HOME HEALTH CARE LLC,1035 S STATE RD 7 STE 315-18,109749,FL,33414,2018-07-23,Standard,G-1030,8.0,
ULTIMATE HOME CARE INC,2020 NE 163 ST   STE 300,109781,FL,33162,2018-08-30,Complaint,G-0434,,1.0
LOVING HANDS HOME HEALTH AGENCY INC,2336 CLEVELAND AVE STE D,683114,FL,33901,2018-03-27,Complaint,G-0608,,2.0
LOVING HANDS HOME HEALTH AGENCY INC,2336 CLEVELAND AVE STE D,683114,FL,33901,2018-03-27,Complaint,G-0800,,2.0
BEYOND HOME HEALTH CARE SERVICES LLC,7235 BONNEVAL RD STE 236,683147,FL,32256,2017-06-07,Standard,G-0152,3.0,
BEYOND HOME HEALTH CARE SERVICES LLC,7235 BONNEVAL RD STE 236,683147,FL,32256,2017-06-07,Standard,G-0153,3.0,
BEYOND HOME HEALTH CARE SERVICES LLC,7235 BONNEVAL RD STE 236,683147,FL,32256,2017-06-07,Standard,G-0172,3.0,
ROYALTY CARE HOME HEALTH SERVICES LLC,"12734 KENWOOD LN, 5 AND 6",683171,FL,33907,2018-06-06,Complaint,G-0704,,2.0
ROYALTY CARE HOME HEALTH SERVICES LLC,"12734 KENWOOD LN, 5 AND 6",683171,FL,33907,2018-06-06,Complaint,G-0720,,2.0
ADMIRALTY HOME HEALTH CARE,12161 KEN ADAMS WAY STE 170,683175,FL,33414,2018-08-02,Standard,E-0006,5.0,
ADMIRALTY HOME HEALTH CARE,12161 KEN ADAMS WAY STE 170,683175,FL,33414,2018-08-02,Standard,G-0372,5.0,
ADMIRALTY HOME HEALTH CARE,12161 KEN ADAMS WAY STE 170,683175,FL,33414,2018-08-02,Standard,G-0574,5.0,
ADMIRALTY HOME HEALTH CARE,12161 KEN ADAMS WAY STE 170,683175,FL,33414,2018-08-02,Standard,G-0580,5.0,
ADMIRALTY HOME HEALTH CARE,12161 KEN ADAMS WAY STE 170,683175,FL,33414,2018-08-02,Standard,G-0616,5.0,
"CROWN HOME HEALTH CARE, INC",3900 LAKE CENTER DR STE A4,683176,FL,32757,2018-03-07,Standard,G-0412,4.0,
"CROWN HOME HEALTH CARE, INC",3900 LAKE CENTER DR STE A4,683176,FL,32757,2018-03-07,Standard,G-0572,4.0,
"CROWN HOME HEALTH CARE, INC",3900 LAKE CENTER DR STE A4,683176,FL,32757,2018-03-07,Standard,G-0660,4.0,
"CROWN HOME HEALTH CARE, INC",3900 LAKE CENTER DR STE A4,683176,FL,32757,2018-03-07,Standard,G-0954,4.0,
HOME FIRST HOME HEALTH CARE LLC,101 CENTURY 21 DR STE 210 - A,683180,FL,32216,2017-12-06,Standard,G-0158,5.0,
HOME FIRST HOME HEALTH CARE LLC,101 CENTURY 21 DR STE 210 - A,683180,FL,32216,2017-12-06,Standard,G-0172,5.0,
HOME FIRST HOME HEALTH CARE LLC,101 CENTURY 21 DR STE 210 - A,683180,FL,32216,2017-12-06,Standard,G-0476,5.0,
HOME FIRST HOME HEALTH CARE LLC,101 CENTURY 21 DR STE 210 - A,683180,FL,32216,2017-12-06,Standard,G-0606,5.0,
HOME FIRST HOME HEALTH CARE LLC,101 CENTURY 21 DR STE 210 - A,683180,FL,32216,2017-12-06,Standard,G-0730,5.0,
SYNERGY MEDICAL SERVICES INC,6202 N 9TH AVE STE 4,683196,FL,32504,2019-04-18,Complaint,G-0480,,6.0
SYNERGY MEDICAL SERVICES INC,6202 N 9TH AVE STE 4,683196,FL,32504,2019-04-18,Complaint,G-0550,,6.0
SYNERGY MEDICAL SERVICES INC,6202 N 9TH AVE STE 4,683196,FL,32504,2019-04-18,Complaint,G-0572,,6.0
SYNERGY MEDICAL SERVICES INC,6202 N 9TH AVE STE 4,683196,FL,32504,2019-04-18,Complaint,G-0580,,6.0
SYNERGY MEDICAL SERVICES INC,6202 N 9TH AVE STE 4,683196,FL,32504,2019-04-18,Complaint,G-0590,,6.0
SYNERGY MEDICAL SERVICES INC,6202 N 9TH AVE STE 4,683196,FL,32504,2019-04-18,Complaint,G-1022,,6.0
ON TIME HOME HEALTH CARE INC,3049 CLEVELAND AVE STE 249,687006,FL,33901,2018-08-22,Standard,E-0006,11.0,
ON TIME HOME HEALTH CARE INC,3049 CLEVELAND AVE STE 249,687006,FL,33901,2018-08-22,Standard,E-0030,11.0,
ON TIME HOME HEALTH CARE INC,3049 CLEVELAND AVE STE 249,687006,FL,33901,2018-08-22,Standard,E-0032,11.0,
ON TIME HOME HEALTH CARE INC,3049 CLEVELAND AVE STE 249,687006,FL,33901,2018-08-22,Standard,G-0440,11.0,
ON TIME HOME HEALTH CARE INC,3049 CLEVELAND AVE STE 249,687006,FL,33901,2018-08-22,Standard,G-0536,11.0,
ON TIME HOME HEALTH CARE INC,3049 CLEVELAND AVE STE 249,687006,FL,33901,2018-08-22,Standard,G-0612,11.0,
ON TIME HOME HEALTH CARE INC,3049 CLEVELAND AVE STE 249,687006,FL,33901,2018-08-22,Standard,G-0708,11.0,
ON TIME HOME HEALTH CARE INC,3049 CLEVELAND AVE STE 249,687006,FL,33901,2018-08-22,Standard,G-0716,11.0,
ON TIME HOME HEALTH CARE INC,3049 CLEVELAND AVE STE 249,687006,FL,33901,2018-08-22,Standard,G-0768,11.0,
ON TIME HOME HEALTH CARE INC,3049 CLEVELAND AVE STE 249,687006,FL,33901,2018-08-22,Standard,G-0802,11.0,
ON TIME HOME HEALTH CARE INC,3049 CLEVELAND AVE STE 249,687006,FL,33901,2018-08-22,Standard,G-0808,11.0,
BEST CARE PROVIDERS,1201 S HIGHLAND AVE STE 2,687012,FL,33756,2019-03-28,Standard,G-0412,5.0,
BEST CARE PROVIDERS,1201 S HIGHLAND AVE STE 2,687012,FL,33756,2019-03-28,Standard,G-0578,5.0,
BEST CARE PROVIDERS,1201 S HIGHLAND AVE STE 2,687012,FL,33756,2019-03-28,Standard,G-0682,5.0,
BEST CARE PROVIDERS,1201 S HIGHLAND AVE STE 2,687012,FL,33756,2019-03-28,Standard,G-0710,5.0,
BEST CARE PROVIDERS,1201 S HIGHLAND AVE STE 2,687012,FL,33756,2019-03-28,Standard,G-0952,5.0,
